{
  "type": "FeatureCollection",
  "generator": "CityApp tools/fetch_kyiv_bus_routes.py + Overpass API",
  "copyright": "The data included in this document is from www.openstreetmap.org. The data is made available under ODbL.",
  "features": [
    {
      "type": "Feature",
      "properties": {
        "from": "вул. Радунська",
        "name": "Автобус 114: Вулиця Радунська - Залізничний вокзал",
        "name:uk": "Автобус 114: Вулиця Радунська - Залізничний вокзал",
        "network": "Київський автобус",
        "network:wikidata": "Q3399835",
        "operator": "Київпастранс",
        "operator:en": "Kyivpastrans",
        "operator:uk": "Київпастранс",
        "operator:wikidata": "Q12110155",
        "public_transport:version": "2",
        "ref": "114",
        "route": "bus",
        "to": "Залізничний вокзал \"Центральний\"",
        "type": "route"
      },
      "geometry": {
        "type": "MultiLineString",
        "coordinates": [
          [
            [
              30.5994372,
              50.5327684
            ],
            [
              30.5999778,
              50.5329348
            ],
            [
              30.6002072,
              50.5330016
            ],
            [
              30.6002421,
              50.533012
            ],
            [
              30.600324,
              50.5330379
            ]
          ],
          [
            [
              30.600324,
              50.5330379
            ],
            [
              30.6008107,
              50.5331637
            ],
            [
              30.6013205,
              50.5332593
            ]
          ],
          [
            [
              30.6013205,
              50.5332593
            ],
            [
              30.6015518,
              50.5332855
            ],
            [
              30.601997,
              50.5333004
            ],
            [
              30.6021219,
              50.5332978
            ]
          ],
          [
            [
              30.6021219,
              50.5332978
            ],
            [
              30.6027006,
              50.5332816
            ],
            [
              30.6029259,
              50.5332718
            ],
            [
              30.6036288,
              50.5332342
            ]
          ],
          [
            [
              30.6036288,
              50.5332342
            ],
            [
              30.6044751,
              50.5331905
            ]
          ],
          [
            [
              30.6044751,
              50.5331905
            ],
            [
              30.6046348,
              50.5331827
            ],
            [
              30.60472,
              50.5331787
            ],
            [
              30.604763,
              50.5331769
            ],
            [
              30.60496,
              50.5331685
            ]
          ],
          [
            [
              30.60496,
              50.5331685
            ],
            [
              30.6051186,
              50.5331619
            ],
            [
              30.6051868,
              50.5331585
            ]
          ],
          [
            [
              30.6051868,
              50.5331585
            ],
            [
              30.6072696,
              50.5330478
            ]
          ],
          [
            [
              30.6072696,
              50.5330478
            ],
            [
              30.6078221,
              50.5330157
            ]
          ],
          [
            [
              30.6078221,
              50.5330157
            ],
            [
              30.6081059,
              50.5329996
            ]
          ],
          [
            [
              30.6081059,
              50.5329996
            ],
            [
              30.608513,
              50.5329773
            ]
          ],
          [
            [
              30.608513,
              50.5329773
            ],
            [
              30.6086089,
              50.5329713
            ],
            [
              30.6086494,
              50.5329695
            ],
            [
              30.6089023,
              50.532958
            ]
          ],
          [
            [
              30.6089023,
              50.532958
            ],
            [
              30.6090282,
              50.5329539
            ],
            [
              30.6091246,
              50.5329508
            ],
            [
              30.6096697,
              50.5329253
            ],
            [
              30.6102508,
              50.5329016
            ],
            [
              30.6105581,
              50.5328835
            ]
          ],
          [
            [
              30.6105581,
              50.5328835
            ],
            [
              30.6107074,
              50.5328782
            ],
            [
              30.6107452,
              50.5328769
            ],
            [
              30.6111405,
              50.5328557
            ],
            [
              30.6115259,
              50.5328392
            ]
          ],
          [
            [
              30.6115259,
              50.5328392
            ],
            [
              30.6129247,
              50.532765
            ],
            [
              30.6133941,
              50.5327401
            ],
            [
              30.6137294,
              50.5326937
            ],
            [
              30.6140946,
              50.5325986
            ],
            [
              30.6143885,
              50.532517
            ],
            [
              30.6146115,
              50.532419
            ],
            [
              30.6151463,
              50.5321077
            ],
            [
              30.6152397,
              50.5320371
            ]
          ],
          [
            [
              30.6152397,
              50.5320371
            ],
            [
              30.6155365,
              50.5318205
            ],
            [
              30.6156824,
              50.531714
            ],
            [
              30.6157828,
              50.5316407
            ],
            [
              30.6159228,
              50.5315209
            ],
            [
              30.6162805,
              50.5312098
            ]
          ],
          [
            [
              30.6162805,
              50.5312098
            ],
            [
              30.6165224,
              50.5310346
            ],
            [
              30.6167805,
              50.5308013
            ],
            [
              30.6169145,
              50.5306708
            ]
          ],
          [
            [
              30.6169145,
              50.5306708
            ],
            [
              30.6172999,
              50.5303047
            ],
            [
              30.6176817,
              50.5299284
            ],
            [
              30.6179099,
              50.5297073
            ]
          ],
          [
            [
              30.6179099,
              50.5297073
            ],
            [
              30.6184636,
              50.5292237
            ],
            [
              30.6188706,
              50.528972
            ],
            [
              30.6191586,
              50.5288309
            ]
          ],
          [
            [
              30.6191586,
              50.5288309
            ],
            [
              30.6193464,
              50.5287615
            ],
            [
              30.61958,
              50.5286821
            ],
            [
              30.619827,
              50.5286232
            ],
            [
              30.6200583,
              50.5285719
            ],
            [
              30.620209,
              50.5285515
            ]
          ],
          [
            [
              30.620209,
              50.5285515
            ],
            [
              30.6201802,
              50.5283451
            ],
            [
              30.6201692,
              50.5282777
            ],
            [
              30.6201066,
              50.5277065
            ]
          ],
          [
            [
              30.6201066,
              50.5277065
            ],
            [
              30.6200543,
              50.5273256
            ],
            [
              30.6200156,
              50.5269842
            ]
          ],
          [
            [
              30.6200156,
              50.5269842
            ],
            [
              30.6199289,
              50.5262213
            ],
            [
              30.6197761,
              50.5248749
            ],
            [
              30.6197495,
              50.5246531
            ],
            [
              30.6197159,
              50.5243375
            ],
            [
              30.6196895,
              50.5240895
            ],
            [
              30.6196498,
              50.5237167
            ],
            [
              30.6196338,
              50.5236186
            ],
            [
              30.6195966,
              50.5235394
            ],
            [
              30.6195582,
              50.5234839
            ],
            [
              30.6195071,
              50.52344
            ],
            [
              30.6194454,
              50.5233919
            ],
            [
              30.6193805,
              50.5233432
            ],
            [
              30.6193073,
              50.5232914
            ]
          ],
          [
            [
              30.6193073,
              50.5232914
            ],
            [
              30.6191694,
              50.5232079
            ]
          ],
          [
            [
              30.6191694,
              50.5232079
            ],
            [
              30.6191057,
              50.5231297
            ],
            [
              30.6190805,
              50.5230806
            ],
            [
              30.6190617,
              50.5230208
            ],
            [
              30.6190604,
              50.5229582
            ],
            [
              30.6190794,
              50.5229059
            ],
            [
              30.6191465,
              50.5228087
            ]
          ],
          [
            [
              30.6191465,
              50.5228087
            ],
            [
              30.6192533,
              50.5227329
            ]
          ],
          [
            [
              30.6192533,
              50.5227329
            ],
            [
              30.6193306,
              50.5226679
            ],
            [
              30.6193953,
              50.5225816
            ],
            [
              30.6194437,
              50.5224487
            ],
            [
              30.6194557,
              50.5223483
            ],
            [
              30.6194386,
              50.5221667
            ],
            [
              30.6193641,
              50.5217605
            ],
            [
              30.6193149,
              50.5215184
            ],
            [
              30.6192925,
              50.521412
            ],
            [
              30.6191603,
              50.5208028
            ]
          ],
          [
            [
              30.6191603,
              50.5208028
            ],
            [
              30.6189515,
              50.5200319
            ],
            [
              30.6187804,
              50.5195286
            ],
            [
              30.6186186,
              50.5191518
            ],
            [
              30.6185649,
              50.5190324
            ],
            [
              30.6184942,
              50.5188635
            ],
            [
              30.6181144,
              50.5180133
            ],
            [
              30.6179383,
              50.5176479
            ],
            [
              30.617729,
              50.5172888
            ],
            [
              30.6174135,
              50.5167798
            ],
            [
              30.6172721,
              50.5165676
            ],
            [
              30.6170478,
              50.5162308
            ],
            [
              30.6169296,
              50.5160679
            ],
            [
              30.6162743,
              50.51518
            ],
            [
              30.6161639,
              50.5150418
            ],
            [
              30.616044,
              50.5148917
            ],
            [
              30.6158389,
              50.5146541
            ],
            [
              30.6157971,
              50.5146104
            ],
            [
              30.6150961,
              50.5138811
            ],
            [
              30.6148749,
              50.5136476
            ],
            [
              30.6146324,
              50.5133945
            ],
            [
              30.6145166,
              50.5132736
            ],
            [
              30.6143471,
              50.5131389
            ],
            [
              30.614098,
              50.513048
            ],
            [
              30.6139563,
              50.5130148
            ]
          ],
          [
            [
              30.6139563,
              50.5130148
            ],
            [
              30.6137687,
              50.5129924
            ]
          ],
          [
            [
              30.6137687,
              50.5129924
            ],
            [
              30.6136165,
              50.5129384
            ],
            [
              30.6134972,
              50.5128577
            ],
            [
              30.613422,
              50.5127578
            ],
            [
              30.6133978,
              50.5126481
            ]
          ],
          [
            [
              30.6133978,
              50.5126481
            ],
            [
              30.6134271,
              50.512536
            ]
          ],
          [
            [
              30.6134271,
              50.512536
            ],
            [
              30.6134005,
              50.5122923
            ],
            [
              30.6133605,
              50.5121904
            ],
            [
              30.6132511,
              50.5120645
            ],
            [
              30.6131542,
              50.5119771
            ],
            [
              30.6120798,
              50.5110087
            ],
            [
              30.61194,
              50.5108827
            ],
            [
              30.6118908,
              50.5108376
            ],
            [
              30.6115595,
              50.5105992
            ],
            [
              30.6109102,
              50.5101318
            ],
            [
              30.6097301,
              50.5093805
            ],
            [
              30.6087506,
              50.5087604
            ],
            [
              30.607477,
              50.5079757
            ],
            [
              30.6066051,
              50.5075215
            ],
            [
              30.6064833,
              50.5074575
            ],
            [
              30.605237,
              50.5068442
            ],
            [
              30.6051157,
              50.5067845
            ]
          ],
          [
            [
              30.6051157,
              50.5067845
            ],
            [
              30.6049797,
              50.5067141
            ],
            [
              30.604874,
              50.5066611
            ],
            [
              30.6047388,
              50.5065939
            ],
            [
              30.6043844,
              50.5064179
            ],
            [
              30.603502,
              50.5060481
            ],
            [
              30.6022006,
              50.5055947
            ],
            [
              30.602079,
              50.5055524
            ],
            [
              30.6019367,
              50.5055313
            ],
            [
              30.6017783,
              50.5055171
            ],
            [
              30.6015911,
              50.5055247
            ],
            [
              30.6013529,
              50.505563
            ]
          ],
          [
            [
              30.6013529,
              50.505563
            ],
            [
              30.6012272,
              50.5055865
            ]
          ],
          [
            [
              30.6012272,
              50.5055865
            ],
            [
              30.6011,
              50.5055898
            ],
            [
              30.6009889,
              50.5055794
            ],
            [
              30.600847,
              50.5055435
            ],
            [
              30.6007247,
              50.5054854
            ],
            [
              30.6006302,
              50.5054091
            ],
            [
              30.6005559,
              50.5053408
            ]
          ],
          [
            [
              30.6005559,
              50.5053408
            ],
            [
              30.6005353,
              50.5052831
            ]
          ],
          [
            [
              30.6005353,
              50.5052831
            ],
            [
              30.600497,
              50.5051882
            ],
            [
              30.6004492,
              50.5051025
            ],
            [
              30.6003851,
              50.5050376
            ],
            [
              30.6002867,
              50.5049718
            ],
            [
              30.6001959,
              50.5049356
            ],
            [
              30.5999699,
              50.5048606
            ],
            [
              30.597873,
              50.5041645
            ]
          ],
          [
            [
              30.597873,
              50.5041645
            ],
            [
              30.5976324,
              50.5040819
            ],
            [
              30.5973988,
              50.5040035
            ],
            [
              30.5966972,
              50.503768
            ],
            [
              30.5955047,
              50.5033249
            ],
            [
              30.5952766,
              50.5032277
            ],
            [
              30.5950484,
              50.503132
            ],
            [
              30.5949086,
              50.5030666
            ],
            [
              30.5944341,
              50.5028395
            ],
            [
              30.593839,
              50.5025046
            ],
            [
              30.5934309,
              50.5022808
            ],
            [
              30.5932086,
              50.502147
            ],
            [
              30.5931067,
              50.5020859
            ],
            [
              30.5924108,
              50.5016684
            ],
            [
              30.5923842,
              50.5016524
            ],
            [
              30.5923216,
              50.5016137
            ],
            [
              30.5923036,
              50.5016027
            ],
            [
              30.5922232,
              50.5015537
            ],
            [
              30.591821,
              50.5013085
            ],
            [
              30.5913796,
              50.5009659
            ],
            [
              30.5910043,
              50.5005979
            ],
            [
              30.5908126,
              50.5003862
            ],
            [
              30.590628,
              50.5001307
            ],
            [
              30.5905711,
              50.5000385
            ]
          ],
          [
            [
              30.5905711,
              50.5000385
            ],
            [
              30.5899414,
              50.498975
            ],
            [
              30.5898251,
              50.4987592
            ],
            [
              30.5895669,
              50.4982439
            ],
            [
              30.5894349,
              50.497852
            ],
            [
              30.5893917,
              50.4976041
            ],
            [
              30.5893772,
              50.4974875
            ],
            [
              30.5893748,
              50.4974569
            ]
          ],
          [
            [
              30.5893748,
              50.4974569
            ],
            [
              30.5893725,
              50.4973982
            ],
            [
              30.5893476,
              50.4967525
            ]
          ],
          [
            [
              30.5893476,
              50.4967525
            ],
            [
              30.5893229,
              50.4966832
            ],
            [
              30.5892737,
              50.4965454
            ],
            [
              30.5892039,
              50.4964226
            ],
            [
              30.5891734,
              50.4963847
            ],
            [
              30.589102,
              50.4962957
            ],
            [
              30.5889666,
              50.4961787
            ],
            [
              30.5888276,
              50.4960756
            ],
            [
              30.588668,
              50.4959678
            ],
            [
              30.5884097,
              50.4958464
            ],
            [
              30.5882071,
              50.4957601
            ],
            [
              30.5881146,
              50.4957258
            ],
            [
              30.5879479,
              50.4956797
            ],
            [
              30.5876909,
              50.495616
            ],
            [
              30.5873452,
              50.4955723
            ]
          ],
          [
            [
              30.5873452,
              50.4955723
            ],
            [
              30.5859403,
              50.4955866
            ]
          ],
          [
            [
              30.5859403,
              50.4955866
            ],
            [
              30.5845251,
              50.4956039
            ],
            [
              30.5839296,
              50.4956014
            ],
            [
              30.5836472,
              50.4956002
            ],
            [
              30.5831362,
              50.4955728
            ],
            [
              30.5830414,
              50.4955675
            ],
            [
              30.5825639,
              50.4955341
            ],
            [
              30.5823482,
              50.495519
            ],
            [
              30.5819902,
              50.4955111
            ],
            [
              30.5817099,
              50.4955043
            ],
            [
              30.5816614,
              50.4955047
            ],
            [
              30.5805848,
              50.4955131
            ],
            [
              30.5800828,
              50.4955171
            ]
          ],
          [
            [
              30.5800828,
              50.4955171
            ],
            [
              30.5780325,
              50.4955332
            ]
          ],
          [
            [
              30.5780325,
              50.4955332
            ],
            [
              30.5760834,
              50.4955601
            ]
          ],
          [
            [
              30.5760834,
              50.4955601
            ],
            [
              30.5758349,
              50.4955619
            ],
            [
              30.5755143,
              50.4955606
            ],
            [
              30.5743037,
              50.4955762
            ],
            [
              30.5721332,
              50.4955764
            ],
            [
              30.5700354,
              50.4955787
            ]
          ],
          [
            [
              30.5700354,
              50.4955787
            ],
            [
              30.569349,
              50.4955854
            ],
            [
              30.5672666,
              50.4955894
            ],
            [
              30.5656814,
              50.4955824
            ],
            [
              30.5638736,
              50.4955585
            ],
            [
              30.5632128,
              50.4955442
            ],
            [
              30.562199,
              50.4955083
            ]
          ],
          [
            [
              30.562199,
              50.4955083
            ],
            [
              30.561862,
              50.4954901
            ],
            [
              30.5610966,
              50.4954317
            ],
            [
              30.5609675,
              50.4954219
            ]
          ],
          [
            [
              30.5609675,
              50.4954219
            ],
            [
              30.5606973,
              50.4954013
            ],
            [
              30.5599726,
              50.4953404
            ],
            [
              30.5596046,
              50.4953095
            ],
            [
              30.5590674,
              50.495245
            ],
            [
              30.557629,
              50.495083
            ],
            [
              30.5572495,
              50.495043
            ]
          ],
          [
            [
              30.5572495,
              50.495043
            ],
            [
              30.5521888,
              50.4943855
            ],
            [
              30.5497833,
              50.494076
            ],
            [
              30.5468019,
              50.4937086
            ]
          ],
          [
            [
              30.5468019,
              50.4937086
            ],
            [
              30.546013,
              50.4936231
            ],
            [
              30.5450082,
              50.4934507
            ]
          ],
          [
            [
              30.5450082,
              50.4934507
            ],
            [
              30.5441,
              50.4932149
            ],
            [
              30.5432516,
              50.4929947
            ]
          ],
          [
            [
              30.5432516,
              50.4929947
            ],
            [
              30.5416911,
              50.4925256
            ],
            [
              30.5408997,
              50.4922598
            ]
          ],
          [
            [
              30.5408997,
              50.4922598
            ],
            [
              30.5408495,
              50.4922455
            ],
            [
              30.5315546,
              50.4894502
            ],
            [
              30.5308166,
              50.4892287
            ]
          ],
          [
            [
              30.5308166,
              50.4892287
            ],
            [
              30.5300274,
              50.4890097
            ]
          ],
          [
            [
              30.5300274,
              50.4890097
            ],
            [
              30.5293319,
              50.4888405
            ],
            [
              30.528681,
              50.4887162
            ],
            [
              30.5277677,
              50.4885478
            ],
            [
              30.5269087,
              50.4884256
            ]
          ],
          [
            [
              30.5269087,
              50.4884256
            ],
            [
              30.5258694,
              50.4883227
            ]
          ],
          [
            [
              30.5258694,
              50.4883227
            ],
            [
              30.5252633,
              50.4882798
            ],
            [
              30.5250187,
              50.4882733
            ]
          ],
          [
            [
              30.5250187,
              50.4882733
            ],
            [
              30.5246965,
              50.4883415
            ],
            [
              30.5245158,
              50.4884074
            ],
            [
              30.5244986,
              50.4884204
            ],
            [
              30.5244211,
              50.4884556
            ],
            [
              30.5243217,
              50.4885292
            ],
            [
              30.5242387,
              50.4886334
            ],
            [
              30.5242035,
              50.4887337
            ],
            [
              30.524215,
              50.4888393
            ],
            [
              30.5242657,
              50.4889538
            ],
            [
              30.5243559,
              50.4890645
            ],
            [
              30.524463,
              50.4891367
            ],
            [
              30.5245751,
              50.4891822
            ],
            [
              30.524716,
              50.4892148
            ],
            [
              30.5249051,
              50.4892316
            ],
            [
              30.5250771,
              50.4892158
            ],
            [
              30.5251752,
              50.4891888
            ],
            [
              30.5254021,
              50.4891078
            ]
          ],
          [
            [
              30.5254021,
              50.4891078
            ],
            [
              30.5256055,
              50.4889011
            ],
            [
              30.5258379,
              50.4886648
            ],
            [
              30.525959,
              50.4885417
            ]
          ],
          [
            [
              30.525959,
              50.4885417
            ],
            [
              30.5265189,
              50.4879724
            ]
          ],
          [
            [
              30.5265189,
              50.4879724
            ],
            [
              30.5272189,
              50.4873242
            ],
            [
              30.5278671,
              50.4867488
            ],
            [
              30.5282529,
              50.4864116
            ]
          ],
          [
            [
              30.5282529,
              50.4864116
            ],
            [
              30.5284605,
              50.4862672
            ],
            [
              30.5288015,
              50.4860885
            ],
            [
              30.5291599,
              50.4859357
            ],
            [
              30.529403,
              50.4858561
            ],
            [
              30.5296298,
              50.4857893
            ],
            [
              30.5298767,
              50.4857286
            ],
            [
              30.5302175,
              50.4856725
            ],
            [
              30.5304752,
              50.4856388
            ],
            [
              30.5307018,
              50.4856182
            ],
            [
              30.5311993,
              50.4856146
            ],
            [
              30.5316299,
              50.4856313
            ],
            [
              30.5318349,
              50.4856526
            ],
            [
              30.5320022,
              50.4856836
            ],
            [
              30.5321667,
              50.4857176
            ],
            [
              30.5326487,
              50.4858173
            ],
            [
              30.5328846,
              50.4858574
            ],
            [
              30.5332064,
              50.4858923
            ],
            [
              30.5334836,
              50.4859073
            ],
            [
              30.5338901,
              50.4858996
            ],
            [
              30.5340294,
              50.4858876
            ],
            [
              30.534359,
              50.4858527
            ],
            [
              30.5347758,
              50.4857885
            ],
            [
              30.5351153,
              50.4857021
            ],
            [
              30.5354806,
              50.4855869
            ],
            [
              30.5357586,
              50.4854718
            ],
            [
              30.5360721,
              50.4853093
            ],
            [
              30.5365247,
              50.485009
            ],
            [
              30.5366867,
              50.4848809
            ],
            [
              30.5369499,
              50.4846728
            ],
            [
              30.5373975,
              50.4842932
            ],
            [
              30.53764,
              50.4840093
            ],
            [
              30.5377917,
              50.4837223
            ],
            [
              30.5378388,
              50.4835303
            ]
          ],
          [
            [
              30.5378388,
              50.4835303
            ],
            [
              30.5378928,
              50.4832243
            ],
            [
              30.5379286,
              50.4827872
            ],
            [
              30.5379231,
              50.4823365
            ],
            [
              30.5379263,
              50.4820869
            ]
          ],
          [
            [
              30.5379263,
              50.4820869
            ],
            [
              30.537918,
              50.4818143
            ],
            [
              30.5378606,
              50.4814464
            ],
            [
              30.5378226,
              50.4812029
            ],
            [
              30.5377399,
              50.4807738
            ],
            [
              30.5376063,
              50.4803163
            ],
            [
              30.537479,
              50.4799438
            ],
            [
              30.53732,
              50.4795794
            ],
            [
              30.5371037,
              50.4791584
            ],
            [
              30.5368716,
              50.4787466
            ],
            [
              30.5367855,
              50.4785956
            ],
            [
              30.5364547,
              50.4780612
            ],
            [
              30.5359393,
              50.4773324
            ],
            [
              30.5352715,
              50.47632
            ],
            [
              30.5350379,
              50.475989
            ],
            [
              30.5347689,
              50.4756512
            ],
            [
              30.5344297,
              50.4752732
            ],
            [
              30.5339823,
              50.4748087
            ]
          ],
          [
            [
              30.5339823,
              50.4748087
            ],
            [
              30.5332616,
              50.4741452
            ],
            [
              30.5320693,
              50.4731255
            ],
            [
              30.531779,
              50.4728772
            ],
            [
              30.5301481,
              50.4715329
            ],
            [
              30.5298297,
              50.4712804
            ],
            [
              30.5289537,
              50.4705852
            ]
          ],
          [
            [
              30.5289537,
              50.4705852
            ],
            [
              30.5255305,
              50.4680551
            ],
            [
              30.5255134,
              50.4680423
            ]
          ],
          [
            [
              30.5255134,
              50.4680423
            ],
            [
              30.5254894,
              50.4680234
            ]
          ],
          [
            [
              30.5254894,
              50.4680234
            ],
            [
              30.5248144,
              50.4674943
            ]
          ],
          [
            [
              30.5248144,
              50.4674943
            ],
            [
              30.5247585,
              50.4674364
            ],
            [
              30.5246967,
              50.4673444
            ],
            [
              30.524675,
              50.4672959
            ],
            [
              30.5246218,
              50.4671309
            ]
          ],
          [
            [
              30.5246218,
              50.4671309
            ],
            [
              30.5248123,
              50.4663572
            ]
          ],
          [
            [
              30.5248123,
              50.4663572
            ],
            [
              30.5250378,
              50.4652937
            ],
            [
              30.5251929,
              50.4645624
            ]
          ],
          [
            [
              30.5251929,
              50.4645624
            ],
            [
              30.5253354,
              50.4638451
            ],
            [
              30.5254648,
              50.463195
            ]
          ],
          [
            [
              30.5254648,
              50.463195
            ],
            [
              30.5258475,
              50.4614202
            ]
          ],
          [
            [
              30.5258475,
              50.4614202
            ],
            [
              30.5259647,
              50.4607927
            ],
            [
              30.5259907,
              50.4606537
            ],
            [
              30.5260064,
              50.4605697
            ]
          ],
          [
            [
              30.5260064,
              50.4605697
            ],
            [
              30.525935,
              50.460364
            ],
            [
              30.5258798,
              50.4602718
            ],
            [
              30.5258469,
              50.4602299
            ],
            [
              30.5258032,
              50.4601932
            ],
            [
              30.5254337,
              50.4599663
            ],
            [
              30.5247159,
              50.459546
            ]
          ],
          [
            [
              30.5247159,
              50.459546
            ],
            [
              30.5246024,
              50.4594064
            ],
            [
              30.5245535,
              50.4593174
            ],
            [
              30.5245552,
              50.459281
            ],
            [
              30.5245753,
              50.4592325
            ]
          ],
          [
            [
              30.5245753,
              50.4592325
            ],
            [
              30.5247802,
              50.4590972
            ]
          ],
          [
            [
              30.5247802,
              50.4590972
            ],
            [
              30.5249326,
              50.4589966
            ],
            [
              30.5250849,
              50.4588959
            ]
          ],
          [
            [
              30.5250849,
              50.4588959
            ],
            [
              30.5251461,
              50.4588555
            ]
          ],
          [
            [
              30.5251461,
              50.4588555
            ],
            [
              30.5255564,
              50.4585872
            ],
            [
              30.525873,
              50.4583802
            ]
          ],
          [
            [
              30.525873,
              50.4583802
            ],
            [
              30.5260502,
              50.4582585
            ],
            [
              30.526298,
              50.4580807
            ],
            [
              30.5267025,
              50.4577507
            ]
          ],
          [
            [
              30.5267025,
              50.4577507
            ],
            [
              30.5269494,
              50.4575408
            ]
          ],
          [
            [
              30.5275522,
              50.4546299
            ],
            [
              30.52755,
              50.4549237
            ],
            [
              30.5275691,
              50.4550666
            ],
            [
              30.5275959,
              50.4552013
            ],
            [
              30.5276563,
              50.4553737
            ],
            [
              30.5277284,
              50.4555163
            ],
            [
              30.5278342,
              50.4556555
            ],
            [
              30.5279456,
              50.4557999
            ],
            [
              30.5280144,
              50.4559175
            ],
            [
              30.5280567,
              50.4560231
            ],
            [
              30.5280726,
              50.4561168
            ],
            [
              30.5280694,
              50.4562101
            ],
            [
              30.528057,
              50.4562887
            ],
            [
              30.5280048,
              50.4564198
            ],
            [
              30.5279231,
              50.456567
            ],
            [
              30.5278113,
              50.4567124
            ],
            [
              30.5276823,
              50.4568612
            ],
            [
              30.5275287,
              50.4570257
            ],
            [
              30.5272239,
              50.4572974
            ],
            [
              30.5269494,
              50.4575408
            ]
          ],
          [
            [
              30.5275522,
              50.4546299
            ],
            [
              30.5275578,
              50.4545184
            ]
          ],
          [
            [
              30.5275578,
              50.4545184
            ],
            [
              30.5275855,
              50.4543685
            ],
            [
              30.5276245,
              50.4541531
            ],
            [
              30.527757,
              50.4535442
            ]
          ],
          [
            [
              30.527757,
              50.4535442
            ],
            [
              30.5279168,
              50.4529181
            ]
          ],
          [
            [
              30.5279168,
              50.4529181
            ],
            [
              30.5274241,
              50.4525617
            ],
            [
              30.5272046,
              50.4524013
            ]
          ],
          [
            [
              30.5272046,
              50.4524013
            ],
            [
              30.5266165,
              50.4519721
            ]
          ],
          [
            [
              30.5266165,
              50.4519721
            ],
            [
              30.5263024,
              50.4517421
            ]
          ],
          [
            [
              30.5263024,
              50.4517421
            ],
            [
              30.5261014,
              50.4515942
            ],
            [
              30.5257106,
              50.4513065
            ]
          ],
          [
            [
              30.5257106,
              50.4513065
            ],
            [
              30.5253664,
              50.4510531
            ]
          ],
          [
            [
              30.5253664,
              50.4510531
            ],
            [
              30.5247133,
              50.4505723
            ],
            [
              30.5245011,
              50.4504161
            ]
          ],
          [
            [
              30.5245011,
              50.4504161
            ],
            [
              30.5234393,
              50.449654
            ],
            [
              30.5232824,
              50.4495302
            ],
            [
              30.523108,
              50.4493833
            ],
            [
              30.5229574,
              50.449237
            ],
            [
              30.5228475,
              50.4491221
            ],
            [
              30.5226879,
              50.4489402
            ],
            [
              30.5225418,
              50.4487538
            ],
            [
              30.5224094,
              50.4485633
            ],
            [
              30.522291,
              50.4483691
            ],
            [
              30.5221868,
              50.4481716
            ],
            [
              30.5220972,
              50.4479712
            ],
            [
              30.5220178,
              50.4477583
            ]
          ],
          [
            [
              30.5220178,
              50.4477583
            ],
            [
              30.5219972,
              50.4476958
            ],
            [
              30.5218357,
              50.4472058
            ],
            [
              30.5217828,
              50.4470421
            ],
            [
              30.5216602,
              50.4466716
            ],
            [
              30.5213395,
              50.4456952
            ],
            [
              30.5210822,
              50.4449122
            ],
            [
              30.5210436,
              50.4447969
            ]
          ],
          [
            [
              30.5210436,
              50.4447969
            ],
            [
              30.5208482,
              50.4442388
            ],
            [
              30.5207208,
              50.4438582
            ],
            [
              30.520631,
              50.4435857
            ],
            [
              30.5206166,
              50.4435448
            ],
            [
              30.5204655,
              50.4430836
            ],
            [
              30.5203097,
              50.4426334
            ],
            [
              30.5202725,
              50.4425259
            ]
          ],
          [
            [
              30.5202725,
              50.4425259
            ],
            [
              30.5201832,
              50.4425036
            ],
            [
              30.5201233,
              50.4424945
            ],
            [
              30.5200492,
              50.4424921
            ],
            [
              30.5189375,
              50.4426718
            ],
            [
              30.5181272,
              50.4428027
            ]
          ],
          [
            [
              30.5181272,
              50.4428027
            ],
            [
              30.5174615,
              50.4429074
            ],
            [
              30.5173529,
              50.4429247
            ],
            [
              30.517251,
              50.4429414
            ],
            [
              30.5171049,
              50.4429648
            ],
            [
              30.5161076,
              50.44312
            ],
            [
              30.5156068,
              50.443198
            ],
            [
              30.5152601,
              50.443252
            ],
            [
              30.5151106,
              50.4432763
            ],
            [
              30.5149995,
              50.443294
            ]
          ],
          [
            [
              30.5149995,
              50.443294
            ],
            [
              30.5148156,
              50.4433224
            ],
            [
              30.5137514,
              50.443497
            ],
            [
              30.5132171,
              50.4435841
            ],
            [
              30.5127432,
              50.4436614
            ],
            [
              30.5126577,
              50.4436753
            ],
            [
              30.5124764,
              50.4437076
            ]
          ],
          [
            [
              30.5124764,
              50.4437076
            ],
            [
              30.5122295,
              50.4437486
            ],
            [
              30.5114654,
              50.4438686
            ],
            [
              30.5109151,
              50.4439582
            ],
            [
              30.5095518,
              50.44418
            ],
            [
              30.5093313,
              50.4442159
            ]
          ],
          [
            [
              30.5093313,
              50.4442159
            ],
            [
              30.5092833,
              50.4442237
            ],
            [
              30.5080477,
              50.4444248
            ]
          ],
          [
            [
              30.5080477,
              50.4444248
            ],
            [
              30.5076246,
              50.4444943
            ],
            [
              30.5075324,
              50.4445082
            ],
            [
              30.5063704,
              50.4446956
            ],
            [
              30.5063383,
              50.4447008
            ],
            [
              30.5060997,
              50.4447395
            ],
            [
              30.5051562,
              50.4448903
            ],
            [
              30.5045014,
              50.4449951
            ],
            [
              30.5043928,
              50.4450125
            ],
            [
              30.5038728,
              50.4450958
            ],
            [
              30.5029527,
              50.4452519
            ]
          ],
          [
            [
              30.5029527,
              50.4452519
            ],
            [
              30.5011031,
              50.4455543
            ]
          ],
          [
            [
              30.5011031,
              50.4455543
            ],
            [
              30.5007929,
              50.4453725
            ]
          ],
          [
            [
              30.4998344,
              50.4449483
            ],
            [
              30.50011,
              50.4450689
            ],
            [
              30.5007929,
              50.4453725
            ]
          ],
          [
            [
              30.4995787,
              50.444838
            ],
            [
              30.4998344,
              50.4449483
            ]
          ],
          [
            [
              30.4991531,
              50.4446483
            ],
            [
              30.4995787,
              50.444838
            ]
          ],
          [
            [
              30.4988571,
              50.444515
            ],
            [
              30.4991531,
              50.4446483
            ]
          ],
          [
            [
              30.4985091,
              50.4443606
            ],
            [
              30.498743,
              50.4444622
            ],
            [
              30.4988571,
              50.444515
            ]
          ],
          [
            [
              30.4979906,
              50.444131
            ],
            [
              30.4985091,
              50.4443606
            ]
          ],
          [
            [
              30.4977276,
              50.4440152
            ],
            [
              30.4978264,
              50.4440583
            ],
            [
              30.4979906,
              50.444131
            ]
          ],
          [
            [
              30.4975351,
              50.4439325
            ],
            [
              30.4977276,
              50.4440152
            ]
          ],
          [
            [
              30.4970439,
              50.4437214
            ],
            [
              30.4971837,
              50.4437815
            ],
            [
              30.4975351,
              50.4439325
            ]
          ],
          [
            [
              30.4962965,
              50.4434057
            ],
            [
              30.4968625,
              50.4436449
            ],
            [
              30.4970439,
              50.4437214
            ]
          ],
          [
            [
              30.4956965,
              50.4431504
            ],
            [
              30.4962965,
              50.4434057
            ]
          ],
          [
            [
              30.4950471,
              50.4428743
            ],
            [
              30.4952418,
              50.4429557
            ],
            [
              30.4955183,
              50.4430741
            ],
            [
              30.4956965,
              50.4431504
            ]
          ],
          [
            [
              30.4943069,
              50.442563
            ],
            [
              30.4948654,
              50.4427979
            ],
            [
              30.4950471,
              50.4428743
            ]
          ],
          [
            [
              30.4941018,
              50.4424768
            ],
            [
              30.4943069,
              50.442563
            ]
          ],
          [
            [
              30.4918945,
              50.4415487
            ],
            [
              30.4919983,
              50.4415924
            ],
            [
              30.4933748,
              50.4421711
            ],
            [
              30.4941018,
              50.4424768
            ]
          ],
          [
            [
              30.4918945,
              50.4415487
            ],
            [
              30.4915399,
              50.4415011
            ],
            [
              30.4910226,
              50.4414523
            ],
            [
              30.4905458,
              50.441408
            ],
            [
              30.4904107,
              50.4413933
            ],
            [
              30.4903,
              50.4413684
            ],
            [
              30.4902137,
              50.4413442
            ],
            [
              30.490185,
              50.4413339
            ],
            [
              30.4901419,
              50.4413184
            ]
          ],
          [
            [
              30.4901419,
              50.4413184
            ],
            [
              30.4899976,
              50.4412538
            ]
          ],
          [
            [
              30.4899976,
              50.4412538
            ],
            [
              30.4899321,
              50.4412248
            ]
          ],
          [
            [
              30.4899321,
              50.4412248
            ],
            [
              30.4897665,
              50.4411326
            ],
            [
              30.4897391,
              50.4411141
            ]
          ],
          [
            [
              30.4897391,
              50.4411141
            ],
            [
              30.4897435,
              50.4410767
            ],
            [
              30.4897537,
              50.4410464
            ],
            [
              30.4898034,
              50.4409933
            ],
            [
              30.489944,
              50.4408906
            ]
          ]
        ]
      }
    }
  ]
}
