{
  "type": "FeatureCollection",
  "generator": "CityApp tools/fetch_kyiv_bus_routes.py + Overpass API",
  "copyright": "The data included in this document is from www.openstreetmap.org. The data is made available under ODbL.",
  "features": [
    {
      "type": "Feature",
      "properties": {
        "from": "Контрактова площа",
        "name": "Автобус 115: Контрактова площа → Будинок культури",
        "name:uk": "Автобус 115: Контрактова площа → Будинок культури",
        "network": "Київський автобус",
        "network:wikidata": "Q3399835",
        "operator": "Київпастранс",
        "operator:en": "Kyivpastrans",
        "operator:uk": "Київпастранс",
        "operator:wikidata": "Q12110155",
        "public_transport:version": "2",
        "ref": "115",
        "route": "bus",
        "to": "Будинок культури",
        "type": "route"
      },
      "geometry": {
        "type": "MultiLineString",
        "coordinates": [
          [
            [
              30.518901,
              50.4651758
            ],
            [
              30.5187295,
              50.4650995
            ],
            [
              30.5186233,
              50.4650669
            ],
            [
              30.5184144,
              50.4650575
            ],
            [
              30.5183978,
              50.4650568
            ]
          ],
          [
            [
              30.5183978,
              50.4650568
            ],
            [
              30.518395,
              50.4650771
            ],
            [
              30.5183823,
              50.4650958
            ],
            [
              30.5183608,
              50.4651108
            ],
            [
              30.5183328,
              50.4651208
            ],
            [
              30.5183014,
              50.4651245
            ],
            [
              30.5182687,
              50.4651214
            ]
          ],
          [
            [
              30.5182687,
              50.4651214
            ],
            [
              30.5182594,
              50.4651314
            ],
            [
              30.5182102,
              50.4651845
            ]
          ],
          [
            [
              30.5182102,
              50.4651845
            ],
            [
              30.518172,
              50.4652217
            ],
            [
              30.5174736,
              50.465653
            ],
            [
              30.517458,
              50.4656625
            ],
            [
              30.5173506,
              50.4657274
            ]
          ],
          [
            [
              30.5195552,
              50.4671851
            ],
            [
              30.5194653,
              50.4671247
            ],
            [
              30.5188793,
              50.4667429
            ],
            [
              30.5185261,
              50.4665096
            ],
            [
              30.5184905,
              50.4664856
            ],
            [
              30.518111,
              50.4662397
            ],
            [
              30.5178718,
              50.4660817
            ],
            [
              30.5174532,
              50.4658042
            ],
            [
              30.5174288,
              50.4657862
            ],
            [
              30.5173626,
              50.4657364
            ],
            [
              30.5173506,
              50.4657274
            ]
          ],
          [
            [
              30.521114,
              50.4682168
            ],
            [
              30.5210255,
              50.4681571
            ],
            [
              30.5209939,
              50.4681375
            ],
            [
              30.5208675,
              50.4680539
            ],
            [
              30.5199189,
              50.4674269
            ],
            [
              30.5196704,
              50.4672585
            ],
            [
              30.5195795,
              50.4672006
            ],
            [
              30.5195552,
              50.4671851
            ]
          ],
          [
            [
              30.521114,
              50.4682168
            ],
            [
              30.5212203,
              50.4682845
            ],
            [
              30.5215508,
              50.4685012
            ],
            [
              30.5222033,
              50.4689306
            ],
            [
              30.5231958,
              50.4695847
            ],
            [
              30.5232139,
              50.4695971
            ],
            [
              30.5232631,
              50.469631
            ],
            [
              30.5232681,
              50.4696344
            ],
            [
              30.5233249,
              50.4696727
            ]
          ],
          [
            [
              30.5233249,
              50.4696727
            ],
            [
              30.5237035,
              50.469438
            ],
            [
              30.5238387,
              50.469345
            ]
          ],
          [
            [
              30.5238387,
              50.469345
            ],
            [
              30.523941,
              50.4692636
            ],
            [
              30.5239896,
              50.4692023
            ],
            [
              30.5240402,
              50.4691111
            ],
            [
              30.5243452,
              50.4680996
            ]
          ],
          [
            [
              30.5243452,
              50.4680996
            ],
            [
              30.5245731,
              50.4673164
            ]
          ],
          [
            [
              30.5245731,
              50.4673164
            ],
            [
              30.5246218,
              50.4671309
            ]
          ],
          [
            [
              30.5246218,
              50.4671309
            ],
            [
              30.5248123,
              50.4663572
            ]
          ],
          [
            [
              30.5248123,
              50.4663572
            ],
            [
              30.5250378,
              50.4652937
            ],
            [
              30.5251929,
              50.4645624
            ]
          ],
          [
            [
              30.5251929,
              50.4645624
            ],
            [
              30.5253354,
              50.4638451
            ],
            [
              30.5254648,
              50.463195
            ]
          ],
          [
            [
              30.5254648,
              50.463195
            ],
            [
              30.5258475,
              50.4614202
            ]
          ],
          [
            [
              30.5258475,
              50.4614202
            ],
            [
              30.5259647,
              50.4607927
            ],
            [
              30.5259907,
              50.4606537
            ],
            [
              30.5260064,
              50.4605697
            ]
          ],
          [
            [
              30.5260064,
              50.4605697
            ],
            [
              30.5261128,
              50.4599129
            ]
          ],
          [
            [
              30.5261128,
              50.4599129
            ],
            [
              30.5261347,
              50.4597822
            ],
            [
              30.526162,
              50.4596196
            ],
            [
              30.5262973,
              50.4591918
            ],
            [
              30.5263967,
              50.4589427
            ],
            [
              30.5265075,
              50.458736
            ],
            [
              30.5266767,
              50.4585583
            ]
          ],
          [
            [
              30.5266767,
              50.4585583
            ],
            [
              30.5268042,
              50.4584526
            ],
            [
              30.5269572,
              50.4583507
            ],
            [
              30.5273278,
              50.4581333
            ],
            [
              30.529597,
              50.4568398
            ]
          ],
          [
            [
              30.529597,
              50.4568398
            ],
            [
              30.5304443,
              50.4563654
            ],
            [
              30.5309063,
              50.456107
            ],
            [
              30.531161,
              50.4559752
            ],
            [
              30.5313525,
              50.4558802
            ],
            [
              30.5316962,
              50.455727
            ],
            [
              30.532181,
              50.4555223
            ],
            [
              30.532586,
              50.4553526
            ],
            [
              30.5333058,
              50.4550605
            ],
            [
              30.5337941,
              50.4548594
            ],
            [
              30.534464,
              50.4545923
            ],
            [
              30.5353486,
              50.4542464
            ],
            [
              30.5359804,
              50.4539959
            ],
            [
              30.5367058,
              50.4537174
            ],
            [
              30.5376816,
              50.4533363
            ],
            [
              30.5390068,
              50.4528236
            ],
            [
              30.5399902,
              50.4524431
            ],
            [
              30.5406834,
              50.4521634
            ],
            [
              30.5413686,
              50.4518903
            ],
            [
              30.5419149,
              50.4516559
            ],
            [
              30.5430025,
              50.4511669
            ],
            [
              30.5433391,
              50.4510166
            ],
            [
              30.5442222,
              50.4505936
            ],
            [
              30.5453576,
              50.4500271
            ],
            [
              30.5466908,
              50.4493607
            ],
            [
              30.5480297,
              50.4486901
            ],
            [
              30.5492001,
              50.4481037
            ],
            [
              30.5503455,
              50.4475304
            ],
            [
              30.5513052,
              50.4470536
            ],
            [
              30.5519089,
              50.4467449
            ],
            [
              30.5523177,
              50.446524
            ],
            [
              30.5527283,
              50.4462818
            ],
            [
              30.5531253,
              50.4460353
            ],
            [
              30.553529,
              50.4457631
            ],
            [
              30.5546606,
              50.4449563
            ],
            [
              30.555335,
              50.4444616
            ],
            [
              30.5563954,
              50.4436803
            ]
          ],
          [
            [
              30.5563954,
              50.4436803
            ],
            [
              30.5568199,
              50.4433407
            ]
          ],
          [
            [
              30.5568199,
              50.4433407
            ],
            [
              30.5570405,
              50.4430221
            ],
            [
              30.5575597,
              50.4425249
            ],
            [
              30.557646,
              50.4424427
            ],
            [
              30.5579808,
              50.4421961
            ],
            [
              30.5581333,
              50.4421122
            ]
          ],
          [
            [
              30.5581333,
              50.4421122
            ],
            [
              30.5588466,
              50.4413586
            ]
          ],
          [
            [
              30.5588466,
              50.4413586
            ],
            [
              30.5589472,
              50.441251
            ]
          ],
          [
            [
              30.5589472,
              50.441251
            ],
            [
              30.5591335,
              50.4410491
            ]
          ],
          [
            [
              30.5591335,
              50.4410491
            ],
            [
              30.5593304,
              50.4408356
            ]
          ],
          [
            [
              30.5593304,
              50.4408356
            ],
            [
              30.5596815,
              50.4404554
            ]
          ],
          [
            [
              30.5596815,
              50.4404554
            ],
            [
              30.5602459,
              50.4398774
            ],
            [
              30.5606346,
              50.4395619
            ]
          ],
          [
            [
              30.5606346,
              50.4395619
            ],
            [
              30.5612436,
              50.4389468
            ],
            [
              30.5616168,
              50.4385531
            ],
            [
              30.5624268,
              50.4377424
            ],
            [
              30.5631922,
              50.4369686
            ],
            [
              30.5635772,
              50.4365386
            ],
            [
              30.5637984,
              50.4362388
            ],
            [
              30.5639813,
              50.4359582
            ],
            [
              30.5640946,
              50.4357544
            ],
            [
              30.5643326,
              50.4352412
            ],
            [
              30.5648044,
              50.4342471
            ],
            [
              30.5654015,
              50.4330055
            ],
            [
              30.5656798,
              50.4324037
            ],
            [
              30.565855,
              50.4318989
            ]
          ],
          [
            [
              30.565855,
              50.4318989
            ],
            [
              30.5664513,
              50.430356
            ],
            [
              30.5668046,
              50.4294309
            ],
            [
              30.5669334,
              50.4290874
            ],
            [
              30.5671219,
              50.4285535
            ],
            [
              30.5672228,
              50.4282437
            ],
            [
              30.5673838,
              50.4278225
            ],
            [
              30.5675238,
              50.4274475
            ],
            [
              30.567594,
              50.4272558
            ]
          ],
          [
            [
              30.567594,
              50.4272558
            ],
            [
              30.5678147,
              50.4267071
            ],
            [
              30.5679594,
              50.4263124
            ],
            [
              30.5680659,
              50.4260249
            ],
            [
              30.5681979,
              50.4256045
            ],
            [
              30.5682362,
              50.4254892
            ],
            [
              30.5683423,
              50.4251594
            ],
            [
              30.5683919,
              50.424898
            ]
          ],
          [
            [
              30.5683919,
              50.424898
            ],
            [
              30.5683596,
              50.4247967
            ],
            [
              30.5683606,
              50.4246726
            ],
            [
              30.5683707,
              50.4244753
            ],
            [
              30.5683441,
              50.4243779
            ],
            [
              30.5682635,
              50.4242845
            ],
            [
              30.5681327,
              50.4242121
            ],
            [
              30.5680237,
              50.4241844
            ],
            [
              30.5678605,
              50.424163
            ],
            [
              30.5676864,
              50.4241406
            ],
            [
              30.5674914,
              50.42412
            ],
            [
              30.5673431,
              50.424097
            ],
            [
              30.5672444,
              50.4240812
            ],
            [
              30.5671329,
              50.4240467
            ],
            [
              30.567046,
              50.4240058
            ],
            [
              30.5669788,
              50.4239517
            ],
            [
              30.5668944,
              50.4238589
            ]
          ],
          [
            [
              30.5668944,
              50.4238589
            ],
            [
              30.5668831,
              50.4237663
            ],
            [
              30.5668883,
              50.4236748
            ],
            [
              30.5669011,
              50.4236034
            ],
            [
              30.5669272,
              50.4235282
            ]
          ],
          [
            [
              30.5669272,
              50.4235282
            ],
            [
              30.5670207,
              50.4234152
            ],
            [
              30.5671318,
              50.4233141
            ],
            [
              30.5673145,
              50.423194
            ],
            [
              30.5675444,
              50.4230694
            ],
            [
              30.5677694,
              50.4229737
            ],
            [
              30.5679458,
              50.4229285
            ],
            [
              30.568129,
              50.4228958
            ],
            [
              30.5683261,
              50.4228898
            ]
          ],
          [
            [
              30.5683261,
              50.4228898
            ],
            [
              30.5690977,
              50.4229099
            ]
          ],
          [
            [
              30.5690977,
              50.4229099
            ],
            [
              30.5692184,
              50.4229149
            ]
          ],
          [
            [
              30.5692184,
              50.4229149
            ],
            [
              30.569395,
              50.4229256
            ],
            [
              30.5694795,
              50.4229367
            ],
            [
              30.5695704,
              50.4229574
            ],
            [
              30.5697979,
              50.4230476
            ],
            [
              30.5700642,
              50.4232032
            ],
            [
              30.5702358,
              50.4232933
            ]
          ],
          [
            [
              30.5702358,
              50.4232933
            ],
            [
              30.5707042,
              50.4236191
            ],
            [
              30.5710147,
              50.4238285
            ],
            [
              30.5712768,
              50.4239965
            ],
            [
              30.5714718,
              50.4241103
            ]
          ],
          [
            [
              30.5714718,
              50.4241103
            ],
            [
              30.5719787,
              50.4242676
            ],
            [
              30.5721854,
              50.4243318
            ]
          ],
          [
            [
              30.5721854,
              50.4243318
            ],
            [
              30.5738982,
              50.4248384
            ],
            [
              30.5842274,
              50.4278714
            ],
            [
              30.59198,
              50.4301537
            ]
          ],
          [
            [
              30.59198,
              50.4301537
            ],
            [
              30.5921181,
              50.4301929
            ]
          ],
          [
            [
              30.5921181,
              50.4301929
            ],
            [
              30.5930371,
              50.4304896
            ]
          ],
          [
            [
              30.5930371,
              50.4304896
            ],
            [
              30.5934962,
              50.4306501
            ],
            [
              30.5938355,
              50.4307895
            ],
            [
              30.5948032,
              50.4312001
            ],
            [
              30.5951749,
              50.4313572
            ],
            [
              30.6001157,
              50.4334677
            ],
            [
              30.604908,
              50.4354655
            ],
            [
              30.6061112,
              50.4359728
            ],
            [
              30.6065145,
              50.4361428
            ],
            [
              30.607553,
              50.4365806
            ],
            [
              30.6081016,
              50.4368117
            ],
            [
              30.6086688,
              50.4370258
            ],
            [
              30.608835,
              50.4370827
            ],
            [
              30.6108223,
              50.4377628
            ]
          ],
          [
            [
              30.6108223,
              50.4377628
            ],
            [
              30.6118272,
              50.4380748
            ]
          ],
          [
            [
              30.6118272,
              50.4380748
            ],
            [
              30.6130573,
              50.4384591
            ]
          ],
          [
            [
              30.6130573,
              50.4384591
            ],
            [
              30.6147345,
              50.438963
            ],
            [
              30.6150569,
              50.4390669
            ],
            [
              30.6151914,
              50.4391092
            ],
            [
              30.615902,
              50.4393328
            ],
            [
              30.6191074,
              50.4403263
            ],
            [
              30.6195669,
              50.4404636
            ],
            [
              30.6215433,
              50.4410699
            ],
            [
              30.6228432,
              50.4414694
            ],
            [
              30.6233336,
              50.441612
            ],
            [
              30.6235267,
              50.4416642
            ],
            [
              30.6239262,
              50.4417722
            ]
          ],
          [
            [
              30.6239262,
              50.4417722
            ],
            [
              30.624255,
              50.4418302
            ],
            [
              30.624544,
              50.4418585
            ],
            [
              30.6247917,
              50.4418732
            ],
            [
              30.6250623,
              50.4418783
            ],
            [
              30.6253071,
              50.441883
            ]
          ],
          [
            [
              30.6253071,
              50.441883
            ],
            [
              30.6258362,
              50.44179
            ],
            [
              30.6261538,
              50.4417182
            ],
            [
              30.6263422,
              50.4416688
            ],
            [
              30.6265865,
              50.4415912
            ],
            [
              30.6267449,
              50.4415296
            ],
            [
              30.6270437,
              50.4413929
            ]
          ],
          [
            [
              30.6270437,
              50.4413929
            ],
            [
              30.6272386,
              50.44126
            ],
            [
              30.6277295,
              50.4408722
            ],
            [
              30.6278264,
              50.4407901
            ],
            [
              30.627959,
              50.4406716
            ],
            [
              30.6280587,
              50.440586
            ],
            [
              30.6281689,
              50.4404725
            ],
            [
              30.628303,
              50.4403341
            ],
            [
              30.628407,
              50.4402081
            ]
          ],
          [
            [
              30.628407,
              50.4402081
            ],
            [
              30.6302238,
              50.437154
            ],
            [
              30.6319133,
              50.4342947
            ],
            [
              30.6323506,
              50.433578
            ]
          ],
          [
            [
              30.6323506,
              50.433578
            ],
            [
              30.6326401,
              50.4330948
            ],
            [
              30.6332522,
              50.4320662
            ]
          ],
          [
            [
              30.6332522,
              50.4320662
            ],
            [
              30.6335676,
              50.4315498
            ]
          ],
          [
            [
              30.6335676,
              50.4315498
            ],
            [
              30.6338401,
              50.43111
            ]
          ],
          [
            [
              30.6338401,
              50.43111
            ],
            [
              30.6342292,
              50.4305268
            ],
            [
              30.6349479,
              50.429582
            ]
          ],
          [
            [
              30.6349479,
              50.429582
            ],
            [
              30.6357769,
              50.4285121
            ]
          ],
          [
            [
              30.6357769,
              50.4285121
            ],
            [
              30.6365691,
              50.427593
            ],
            [
              30.636711,
              50.4275291
            ]
          ],
          [
            [
              30.636711,
              50.4275291
            ],
            [
              30.6366251,
              50.4275054
            ],
            [
              30.6364701,
              50.4274564
            ],
            [
              30.6363737,
              50.4274323
            ],
            [
              30.635251,
              50.4271518
            ]
          ],
          [
            [
              30.6316988,
              50.4261479
            ],
            [
              30.631814,
              50.4261997
            ],
            [
              30.6319556,
              50.4262494
            ],
            [
              30.6324363,
              50.4263859
            ],
            [
              30.635251,
              50.4271518
            ]
          ],
          [
            [
              30.6316988,
              50.4261479
            ],
            [
              30.631537,
              50.4261231
            ],
            [
              30.6314221,
              50.4261188
            ],
            [
              30.6313231,
              50.4261315
            ]
          ],
          [
            [
              30.6313231,
              50.4261315
            ],
            [
              30.6312903,
              50.426136
            ]
          ],
          [
            [
              30.6312903,
              50.426136
            ],
            [
              30.6312125,
              50.4261683
            ],
            [
              30.6311562,
              50.4262065
            ],
            [
              30.63112,
              50.4262415
            ],
            [
              30.6310925,
              50.4262928
            ],
            [
              30.6310845,
              50.4263286
            ],
            [
              30.6310865,
              50.4263658
            ],
            [
              30.6311088,
              50.4264988
            ]
          ],
          [
            [
              30.6311088,
              50.4264988
            ],
            [
              30.6311533,
              50.4265326
            ],
            [
              30.6313571,
              50.4266876
            ],
            [
              30.631593,
              50.4268595
            ],
            [
              30.632004,
              50.4271974
            ],
            [
              30.6322771,
              50.4274076
            ],
            [
              30.6325114,
              50.4275614
            ],
            [
              30.6327983,
              50.427746
            ],
            [
              30.6330156,
              50.4278745
            ],
            [
              30.6332577,
              50.4280001
            ],
            [
              30.6335194,
              50.4281189
            ],
            [
              30.6338287,
              50.4282391
            ],
            [
              30.6341337,
              50.4283438
            ],
            [
              30.6347421,
              50.4285197
            ],
            [
              30.6352861,
              50.4286724
            ],
            [
              30.6357837,
              50.4288102
            ],
            [
              30.6358489,
              50.4288247
            ]
          ],
          [
            [
              30.6358489,
              50.4288247
            ],
            [
              30.6360696,
              50.4288145
            ],
            [
              30.6361545,
              50.4288151
            ],
            [
              30.6362404,
              50.4287995
            ],
            [
              30.6363147,
              50.4287756
            ],
            [
              30.63637,
              50.4287319
            ],
            [
              30.6365554,
              50.4285568
            ],
            [
              30.6366634,
              50.4284808
            ],
            [
              30.6368071,
              50.4284134
            ],
            [
              30.637095,
              50.4283096
            ],
            [
              30.6371757,
              50.4282655
            ],
            [
              30.6373117,
              50.4281766
            ],
            [
              30.6374491,
              50.4280946
            ]
          ],
          [
            [
              30.6374491,
              50.4280946
            ],
            [
              30.6376549,
              50.427958
            ],
            [
              30.6377082,
              50.4279249
            ]
          ],
          [
            [
              30.6377082,
              50.4279249
            ],
            [
              30.6377633,
              50.4278865
            ],
            [
              30.6377912,
              50.4278671
            ],
            [
              30.637851,
              50.4278255
            ]
          ],
          [
            [
              30.637851,
              50.4278255
            ],
            [
              30.6385906,
              50.4280562
            ],
            [
              30.6388895,
              50.428147
            ],
            [
              30.6392482,
              50.4282475
            ],
            [
              30.6396273,
              50.4283584
            ],
            [
              30.6407332,
              50.4286899
            ],
            [
              30.6413324,
              50.4288621
            ],
            [
              30.6434914,
              50.4295079
            ],
            [
              30.6447271,
              50.4298911
            ],
            [
              30.6449642,
              50.4299536
            ]
          ],
          [
            [
              30.6449642,
              50.4299536
            ],
            [
              30.6450579,
              50.429982
            ],
            [
              30.6454251,
              50.4300762
            ],
            [
              30.6478484,
              50.4306987
            ],
            [
              30.6479764,
              50.4307309
            ]
          ],
          [
            [
              30.6479764,
              50.4307309
            ],
            [
              30.6480994,
              50.4307618
            ],
            [
              30.6483137,
              50.4308167
            ],
            [
              30.6487803,
              50.4309352
            ],
            [
              30.650712,
              50.4314184
            ]
          ],
          [
            [
              30.650712,
              50.4314184
            ],
            [
              30.6509071,
              50.4314638
            ],
            [
              30.6509889,
              50.4314849
            ]
          ],
          [
            [
              30.6509889,
              50.4314849
            ],
            [
              30.6511466,
              50.4315201
            ]
          ],
          [
            [
              30.6511466,
              50.4315201
            ],
            [
              30.6512854,
              50.4315215
            ],
            [
              30.651366,
              50.4315165
            ],
            [
              30.6516263,
              50.4314705
            ],
            [
              30.6517238,
              50.4314543
            ],
            [
              30.6517845,
              50.4314466
            ]
          ],
          [
            [
              30.6517845,
              50.4314466
            ],
            [
              30.6526885,
              50.4312817
            ],
            [
              30.6532464,
              50.4311831
            ],
            [
              30.6534573,
              50.4311459
            ],
            [
              30.6537056,
              50.431102
            ],
            [
              30.6552155,
              50.4308428
            ],
            [
              30.6558323,
              50.4307347
            ],
            [
              30.6558962,
              50.4307228
            ],
            [
              30.6560259,
              50.4306992
            ],
            [
              30.657189,
              50.4304884
            ],
            [
              30.6574059,
              50.4304512
            ],
            [
              30.6579466,
              50.4303539
            ]
          ],
          [
            [
              30.6579466,
              50.4303539
            ],
            [
              30.6580811,
              50.4303299
            ],
            [
              30.6590577,
              50.4301498
            ]
          ],
          [
            [
              30.6597349,
              50.4288838
            ],
            [
              30.6596885,
              50.428949
            ],
            [
              30.6593996,
              50.4294473
            ],
            [
              30.6590321,
              50.4301028
            ],
            [
              30.6590577,
              50.4301498
            ]
          ],
          [
            [
              30.6582901,
              50.4285551
            ],
            [
              30.6587547,
              50.4286565
            ],
            [
              30.6587616,
              50.4286581
            ],
            [
              30.6596489,
              50.4288614
            ],
            [
              30.6597349,
              50.4288838
            ]
          ]
        ]
      }
    }
  ]
}
