{
  "type": "FeatureCollection",
  "generator": "CityApp tools/fetch_kyiv_bus_routes.py + Overpass API",
  "copyright": "The data included in this document is from www.openstreetmap.org. The data is made available under ODbL.",
  "features": [
    {
      "type": "Feature",
      "properties": {
        "from": "Станція метро «Лісова»",
        "image": "https://kpt.kyiv.ua/uploads//u/1/XApOhI3Yu_WyhFZKthy7J8dy-F7JwDG0.gif",
        "name": "Автобус 11: метро Лісова - Радіоцентр",
        "name:uk": "Автобус 11: метро Лісова - Радіоцентр",
        "network": "Київський автобус",
        "network:wikidata": "Q3399835",
        "operator": "Київпастранс",
        "operator:en": "Kyivpastrans",
        "operator:uk": "Київпастранс",
        "operator:wikidata": "Q12110155",
        "ref": "11",
        "route": "bus",
        "to": "Радіоцентр",
        "type": "route",
        "via": "провулок Кадіївський"
      },
      "geometry": {
        "type": "MultiLineString",
        "coordinates": [
          [
            [
              30.6535307,
              50.4673374
            ],
            [
              30.65299,
              50.4671927
            ],
            [
              30.650274,
              50.4664203
            ],
            [
              30.6484011,
              50.4659009
            ]
          ],
          [
            [
              30.6555462,
              50.4678902
            ],
            [
              30.6541888,
              50.4675261
            ],
            [
              30.6535307,
              50.4673374
            ]
          ],
          [
            [
              30.6596643,
              50.4689843
            ],
            [
              30.6592257,
              50.4688651
            ],
            [
              30.6579524,
              50.4685059
            ],
            [
              30.6555462,
              50.4678902
            ]
          ],
          [
            [
              30.6603123,
              50.4691558
            ],
            [
              30.6601072,
              50.4691046
            ],
            [
              30.6596643,
              50.4689843
            ]
          ],
          [
            [
              30.6705322,
              50.4719874
            ],
            [
              30.6679573,
              50.4712801
            ],
            [
              30.6654565,
              50.4705856
            ],
            [
              30.6629485,
              50.4698982
            ],
            [
              30.6603123,
              50.4691558
            ]
          ],
          [
            [
              30.6722599,
              50.4724649
            ],
            [
              30.6705322,
              50.4719874
            ]
          ],
          [
            [
              30.6722599,
              50.4724649
            ],
            [
              30.6721259,
              50.4726687
            ]
          ],
          [
            [
              30.6721259,
              50.4726687
            ],
            [
              30.6716415,
              50.4733603
            ],
            [
              30.6712749,
              50.4738911
            ],
            [
              30.6712256,
              50.4739625
            ],
            [
              30.6711943,
              50.4740141
            ],
            [
              30.6708261,
              50.4746223
            ],
            [
              30.6704837,
              50.4750972
            ],
            [
              30.6701249,
              50.4755932
            ],
            [
              30.6697392,
              50.4761786
            ],
            [
              30.6697007,
              50.4762371
            ],
            [
              30.6693856,
              50.4768046
            ],
            [
              30.6692943,
              50.4770584
            ],
            [
              30.6692255,
              50.4773869
            ],
            [
              30.669227,
              50.477794
            ],
            [
              30.6692343,
              50.4797038
            ],
            [
              30.6692314,
              50.4800496
            ],
            [
              30.6692306,
              50.4801404
            ],
            [
              30.6692302,
              50.4801949
            ],
            [
              30.6692282,
              50.4804337
            ],
            [
              30.6692338,
              50.4810809
            ],
            [
              30.6692384,
              50.4816247
            ],
            [
              30.6692437,
              50.4822329
            ],
            [
              30.6692482,
              50.482761
            ],
            [
              30.6692492,
              50.4828754
            ],
            [
              30.6692565,
              50.4837247
            ],
            [
              30.6692608,
              50.4842158
            ],
            [
              30.6692718,
              50.4855038
            ],
            [
              30.6692773,
              50.4858416
            ]
          ],
          [
            [
              30.6721259,
              50.4726687
            ],
            [
              30.6716415,
              50.4733603
            ],
            [
              30.6712749,
              50.4738911
            ],
            [
              30.6712256,
              50.4739625
            ],
            [
              30.6711943,
              50.4740141
            ],
            [
              30.6708261,
              50.4746223
            ],
            [
              30.6704837,
              50.4750972
            ],
            [
              30.6701249,
              50.4755932
            ],
            [
              30.6697392,
              50.4761786
            ],
            [
              30.6697007,
              50.4762371
            ],
            [
              30.6693856,
              50.4768046
            ],
            [
              30.6692943,
              50.4770584
            ],
            [
              30.6692255,
              50.4773869
            ],
            [
              30.669227,
              50.477794
            ],
            [
              30.6692343,
              50.4797038
            ],
            [
              30.6692314,
              50.4800496
            ],
            [
              30.6692306,
              50.4801404
            ],
            [
              30.6692302,
              50.4801949
            ],
            [
              30.6692282,
              50.4804337
            ],
            [
              30.6692338,
              50.4810809
            ],
            [
              30.6692384,
              50.4816247
            ],
            [
              30.6692437,
              50.4822329
            ],
            [
              30.6692482,
              50.482761
            ],
            [
              30.6692492,
              50.4828754
            ],
            [
              30.6692565,
              50.4837247
            ],
            [
              30.6692608,
              50.4842158
            ],
            [
              30.6692718,
              50.4855038
            ],
            [
              30.6692773,
              50.4858416
            ]
          ],
          [
            [
              30.6722599,
              50.4724649
            ],
            [
              30.6721259,
              50.4726687
            ]
          ],
          [
            [
              30.6722599,
              50.4724649
            ],
            [
              30.6705322,
              50.4719874
            ]
          ],
          [
            [
              30.6705322,
              50.4719874
            ],
            [
              30.6679573,
              50.4712801
            ],
            [
              30.6654565,
              50.4705856
            ],
            [
              30.6629485,
              50.4698982
            ],
            [
              30.6603123,
              50.4691558
            ]
          ],
          [
            [
              30.6603123,
              50.4691558
            ],
            [
              30.6601072,
              50.4691046
            ],
            [
              30.6596643,
              50.4689843
            ]
          ],
          [
            [
              30.6596643,
              50.4689843
            ],
            [
              30.6592257,
              50.4688651
            ],
            [
              30.6579524,
              50.4685059
            ],
            [
              30.6555462,
              50.4678902
            ]
          ],
          [
            [
              30.6555462,
              50.4678902
            ],
            [
              30.6541888,
              50.4675261
            ],
            [
              30.6535307,
              50.4673374
            ]
          ],
          [
            [
              30.6535307,
              50.4673374
            ],
            [
              30.65299,
              50.4671927
            ],
            [
              30.650274,
              50.4664203
            ],
            [
              30.6484011,
              50.4659009
            ]
          ],
          [
            [
              30.648349,
              50.4659769
            ],
            [
              30.6484011,
              50.4659009
            ]
          ],
          [
            [
              30.6480684,
              50.4663861
            ],
            [
              30.6483086,
              50.4660358
            ],
            [
              30.648349,
              50.4659769
            ]
          ],
          [
            [
              30.6474479,
              50.4672911
            ],
            [
              30.6474882,
              50.4672323
            ],
            [
              30.6480684,
              50.4663861
            ]
          ],
          [
            [
              30.6474479,
              50.4672911
            ],
            [
              30.6488697,
              50.4676835
            ],
            [
              30.6495491,
              50.467871
            ],
            [
              30.6517815,
              50.4684966
            ]
          ],
          [
            [
              30.6517815,
              50.4684966
            ],
            [
              30.6521177,
              50.4685816
            ],
            [
              30.6522047,
              50.4685946
            ],
            [
              30.6523002,
              50.4686018
            ],
            [
              30.6523997,
              50.4685987
            ]
          ],
          [
            [
              30.6523997,
              50.4685987
            ],
            [
              30.6524063,
              50.4685621
            ],
            [
              30.6524356,
              50.4685383
            ],
            [
              30.6524897,
              50.4685128
            ],
            [
              30.6525557,
              50.4685047
            ],
            [
              30.6526054,
              50.468512
            ]
          ],
          [
            [
              30.6526054,
              50.468512
            ],
            [
              30.6526634,
              50.4685365
            ],
            [
              30.6526918,
              50.4685656
            ],
            [
              30.6527025,
              50.4685993
            ],
            [
              30.652694,
              50.4686332
            ],
            [
              30.6526674,
              50.468663
            ]
          ],
          [
            [
              30.6526674,
              50.468663
            ],
            [
              30.6529179,
              50.4687772
            ],
            [
              30.6539534,
              50.4690658
            ],
            [
              30.6541707,
              50.4690802
            ]
          ],
          [
            [
              30.6541707,
              50.4690802
            ],
            [
              30.6542021,
              50.4690423
            ],
            [
              30.6542561,
              50.4690169
            ],
            [
              30.6543222,
              50.4690087
            ],
            [
              30.6543872,
              50.4690196
            ],
            [
              30.6544299,
              50.4690406
            ],
            [
              30.6544583,
              50.4690697
            ],
            [
              30.6544689,
              50.4691033
            ],
            [
              30.6544604,
              50.4691372
            ],
            [
              30.6544339,
              50.469167
            ]
          ],
          [
            [
              30.6544339,
              50.469167
            ],
            [
              30.6545445,
              50.4692172
            ],
            [
              30.6547013,
              50.4692884
            ],
            [
              30.6548986,
              50.4693595
            ],
            [
              30.6552658,
              50.4695307
            ],
            [
              30.6557534,
              50.4697999
            ],
            [
              30.6558313,
              50.4698508
            ],
            [
              30.6559301,
              50.4699153
            ],
            [
              30.6563914,
              50.4701779
            ],
            [
              30.6567106,
              50.4703471
            ],
            [
              30.6570575,
              50.4704852
            ],
            [
              30.657421,
              50.47061
            ],
            [
              30.657897,
              50.4707295
            ],
            [
              30.6582278,
              50.4708006
            ],
            [
              30.6583038,
              50.4708169
            ],
            [
              30.6586196,
              50.4708549
            ]
          ],
          [
            [
              30.6544339,
              50.469167
            ],
            [
              30.6545445,
              50.4692172
            ],
            [
              30.6547013,
              50.4692884
            ],
            [
              30.6548986,
              50.4693595
            ],
            [
              30.6552658,
              50.4695307
            ],
            [
              30.6557534,
              50.4697999
            ],
            [
              30.6558313,
              50.4698508
            ],
            [
              30.6559301,
              50.4699153
            ],
            [
              30.6563914,
              50.4701779
            ],
            [
              30.6567106,
              50.4703471
            ],
            [
              30.6570575,
              50.4704852
            ],
            [
              30.657421,
              50.47061
            ],
            [
              30.657897,
              50.4707295
            ],
            [
              30.6582278,
              50.4708006
            ],
            [
              30.6583038,
              50.4708169
            ],
            [
              30.6586196,
              50.4708549
            ]
          ],
          [
            [
              30.6544339,
              50.469167
            ],
            [
              30.6545445,
              50.4692172
            ],
            [
              30.6547013,
              50.4692884
            ],
            [
              30.6548986,
              50.4693595
            ],
            [
              30.6552658,
              50.4695307
            ],
            [
              30.6557534,
              50.4697999
            ],
            [
              30.6558313,
              50.4698508
            ],
            [
              30.6559301,
              50.4699153
            ],
            [
              30.6563914,
              50.4701779
            ],
            [
              30.6567106,
              50.4703471
            ],
            [
              30.6570575,
              50.4704852
            ],
            [
              30.657421,
              50.47061
            ],
            [
              30.657897,
              50.4707295
            ],
            [
              30.6582278,
              50.4708006
            ],
            [
              30.6583038,
              50.4708169
            ],
            [
              30.6586196,
              50.4708549
            ]
          ],
          [
            [
              30.6586196,
              50.4708549
            ],
            [
              30.6598659,
              50.4709036
            ],
            [
              30.6602257,
              50.470947
            ],
            [
              30.6607122,
              50.4710522
            ],
            [
              30.6611989,
              50.471181
            ],
            [
              30.6616795,
              50.4713257
            ]
          ],
          [
            [
              30.6616795,
              50.4713257
            ],
            [
              30.6635043,
              50.4718261
            ],
            [
              30.664493,
              50.4720982
            ],
            [
              30.6678677,
              50.4730397
            ],
            [
              30.669004,
              50.4733515
            ],
            [
              30.6694875,
              50.473486
            ],
            [
              30.6696515,
              50.4735316
            ],
            [
              30.6697967,
              50.4735708
            ],
            [
              30.670192,
              50.4736774
            ],
            [
              30.671145,
              50.4739388
            ],
            [
              30.6712256,
              50.4739625
            ]
          ],
          [
            [
              30.6712256,
              50.4739625
            ],
            [
              30.6723881,
              50.4742796
            ],
            [
              30.6743744,
              50.4748212
            ],
            [
              30.6757609,
              50.4752028
            ],
            [
              30.6761103,
              50.4752953
            ]
          ],
          [
            [
              30.6760764,
              50.4754929
            ],
            [
              30.6761103,
              50.4752953
            ]
          ],
          [
            [
              30.6757472,
              50.4754076
            ],
            [
              30.6760764,
              50.4754929
            ]
          ],
          [
            [
              30.6757609,
              50.4752028
            ],
            [
              30.6757472,
              50.4754076
            ]
          ],
          [
            [
              30.6757609,
              50.4752028
            ],
            [
              30.6757472,
              50.4754076
            ]
          ],
          [
            [
              30.6757472,
              50.4754076
            ],
            [
              30.6760764,
              50.4754929
            ]
          ],
          [
            [
              30.6760764,
              50.4754929
            ],
            [
              30.6761103,
              50.4752953
            ]
          ],
          [
            [
              30.6712256,
              50.4739625
            ],
            [
              30.6723881,
              50.4742796
            ],
            [
              30.6743744,
              50.4748212
            ],
            [
              30.6757609,
              50.4752028
            ],
            [
              30.6761103,
              50.4752953
            ]
          ],
          [
            [
              30.6616795,
              50.4713257
            ],
            [
              30.6635043,
              50.4718261
            ],
            [
              30.664493,
              50.4720982
            ],
            [
              30.6678677,
              50.4730397
            ],
            [
              30.669004,
              50.4733515
            ],
            [
              30.6694875,
              50.473486
            ],
            [
              30.6696515,
              50.4735316
            ],
            [
              30.6697967,
              50.4735708
            ],
            [
              30.670192,
              50.4736774
            ],
            [
              30.671145,
              50.4739388
            ],
            [
              30.6712256,
              50.4739625
            ]
          ],
          [
            [
              30.6586196,
              50.4708549
            ],
            [
              30.6598659,
              50.4709036
            ],
            [
              30.6602257,
              50.470947
            ],
            [
              30.6607122,
              50.4710522
            ],
            [
              30.6611989,
              50.471181
            ],
            [
              30.6616795,
              50.4713257
            ]
          ]
        ]
      }
    }
  ]
}
