{
  "type": "FeatureCollection",
  "generator": "CityApp tools/fetch_kyiv_bus_routes.py + Overpass API",
  "copyright": "The data included in this document is from www.openstreetmap.org. The data is made available under ODbL.",
  "features": [
    {
      "type": "Feature",
      "properties": {
        "from": "Станція метро «Харківська»",
        "name": "Автобус №18: ст. м. Харківська - Харківське шосе",
        "name:uk": "Автобус №18: ст. м. Харківська - Харківське шосе",
        "network": "Київський автобус",
        "network:wikidata": "Q3399835",
        "operator": "Київпастранс",
        "operator:en": "Kyivpastrans",
        "operator:uk": "Київпастранс",
        "operator:wikidata": "Q12110155",
        "ref": "18",
        "route": "bus",
        "to": "Харківське шосе",
        "type": "route"
      },
      "geometry": {
        "type": "MultiLineString",
        "coordinates": [
          [
            [
              30.6511239,
              50.4009007
            ],
            [
              30.653221,
              50.4012273
            ]
          ],
          [
            [
              30.653221,
              50.4012273
            ],
            [
              30.6534907,
              50.4012152
            ],
            [
              30.6536143,
              50.4011965
            ],
            [
              30.6537162,
              50.4011688
            ],
            [
              30.6537903,
              50.4011216
            ],
            [
              30.6538538,
              50.401071
            ],
            [
              30.6539354,
              50.4009758
            ],
            [
              30.6539582,
              50.4009197
            ],
            [
              30.6539639,
              50.4008359
            ],
            [
              30.6539406,
              50.4007721
            ],
            [
              30.6538751,
              50.4006806
            ],
            [
              30.6536884,
              50.4004851
            ],
            [
              30.6533814,
              50.4002562
            ],
            [
              30.6532646,
              50.4001821
            ],
            [
              30.653159,
              50.4001352
            ],
            [
              30.6530382,
              50.4001096
            ],
            [
              30.6529251,
              50.4000981
            ],
            [
              30.6528117,
              50.4001067
            ],
            [
              30.652675,
              50.4001359
            ],
            [
              30.6525537,
              50.4001843
            ],
            [
              30.6524502,
              50.4002598
            ],
            [
              30.6523467,
              50.4003626
            ]
          ],
          [
            [
              30.6522941,
              50.4005099
            ],
            [
              30.6523467,
              50.4003626
            ]
          ],
          [
            [
              30.6518529,
              50.4017005
            ],
            [
              30.6522941,
              50.4005099
            ]
          ],
          [
            [
              30.6518366,
              50.4017468
            ],
            [
              30.6518529,
              50.4017005
            ]
          ],
          [
            [
              30.6515062,
              50.4025667
            ],
            [
              30.6516318,
              50.4022551
            ],
            [
              30.6518366,
              50.4017468
            ]
          ],
          [
            [
              30.6513076,
              50.4030733
            ],
            [
              30.6515062,
              50.4025667
            ]
          ],
          [
            [
              30.6512906,
              50.4031115
            ],
            [
              30.6513076,
              50.4030733
            ]
          ],
          [
            [
              30.651204,
              50.4033324
            ],
            [
              30.6512441,
              50.4032302
            ],
            [
              30.6512906,
              50.4031115
            ]
          ],
          [
            [
              30.6511556,
              50.4034632
            ],
            [
              30.651204,
              50.4033324
            ]
          ],
          [
            [
              30.6511401,
              50.403496
            ],
            [
              30.6511556,
              50.4034632
            ]
          ],
          [
            [
              30.6511401,
              50.403496
            ],
            [
              30.651086,
              50.4040649
            ],
            [
              30.6510542,
              50.4043508
            ],
            [
              30.6509475,
              50.4045503
            ],
            [
              30.6504887,
              50.4052992
            ],
            [
              30.6499421,
              50.4062135
            ],
            [
              30.649762,
              50.4065165
            ],
            [
              30.6495938,
              50.4067996
            ],
            [
              30.6492892,
              50.4073121
            ],
            [
              30.6487822,
              50.4081406
            ],
            [
              30.6484451,
              50.4087212
            ],
            [
              30.6477606,
              50.4098402
            ],
            [
              30.6473405,
              50.4105271
            ],
            [
              30.6470631,
              50.4109806
            ]
          ],
          [
            [
              30.6470631,
              50.4109806
            ],
            [
              30.6466902,
              50.4116069
            ],
            [
              30.6461792,
              50.4124874
            ],
            [
              30.6461089,
              50.4127306
            ],
            [
              30.6460873,
              50.4129108
            ]
          ],
          [
            [
              30.6460873,
              50.4129108
            ],
            [
              30.6461382,
              50.4130203
            ],
            [
              30.6461441,
              50.4131343
            ]
          ],
          [
            [
              30.6461441,
              50.4131343
            ],
            [
              30.6461013,
              50.4132512
            ],
            [
              30.6460115,
              50.4133566
            ],
            [
              30.6459815,
              50.4133809
            ],
            [
              30.6458874,
              50.4134397
            ],
            [
              30.6457778,
              50.4134864
            ]
          ],
          [
            [
              30.6457778,
              50.4134864
            ],
            [
              30.6457157,
              50.4135053
            ]
          ],
          [
            [
              30.6457157,
              50.4135053
            ],
            [
              30.6455885,
              50.4135839
            ],
            [
              30.6455,
              50.4136514
            ],
            [
              30.6454141,
              50.4137266
            ],
            [
              30.6452318,
              50.4140189
            ],
            [
              30.6446865,
              50.4149122
            ],
            [
              30.6445665,
              50.4150985
            ],
            [
              30.644532,
              50.4151545
            ]
          ],
          [
            [
              30.644532,
              50.4151545
            ],
            [
              30.6443273,
              50.4155052
            ],
            [
              30.6440164,
              50.4160224
            ],
            [
              30.6438883,
              50.4162359
            ],
            [
              30.6435199,
              50.4168315
            ],
            [
              30.6433451,
              50.4171103
            ],
            [
              30.6429565,
              50.4178021
            ],
            [
              30.6425326,
              50.4185368
            ],
            [
              30.6424637,
              50.4186561
            ],
            [
              30.6419881,
              50.4194162
            ],
            [
              30.6418948,
              50.4195734
            ],
            [
              30.6413876,
              50.4204163
            ],
            [
              30.6412283,
              50.4205874
            ],
            [
              30.6408555,
              50.4209177
            ],
            [
              30.6406681,
              50.4209786
            ]
          ],
          [
            [
              30.6400573,
              50.4219925
            ],
            [
              30.6401525,
              50.4218345
            ],
            [
              30.6406681,
              50.4209786
            ]
          ],
          [
            [
              30.639198,
              50.4233621
            ],
            [
              30.6399586,
              50.4221564
            ],
            [
              30.6400573,
              50.4219925
            ]
          ],
          [
            [
              30.6383328,
              50.4243164
            ],
            [
              30.6385078,
              50.4242769
            ],
            [
              30.6385887,
              50.4242467
            ],
            [
              30.6386484,
              50.4242111
            ],
            [
              30.6387032,
              50.424155
            ],
            [
              30.639198,
              50.4233621
            ]
          ],
          [
            [
              30.6390017,
              50.4249642
            ],
            [
              30.6385527,
              50.424477
            ],
            [
              30.6383328,
              50.4243164
            ]
          ],
          [
            [
              30.6391597,
              50.4251395
            ],
            [
              30.6390017,
              50.4249642
            ]
          ],
          [
            [
              30.6397766,
              50.4258286
            ],
            [
              30.6396398,
              50.4256801
            ],
            [
              30.6395733,
              50.425608
            ],
            [
              30.6391597,
              50.4251395
            ]
          ],
          [
            [
              30.6403289,
              50.4256645
            ],
            [
              30.6398847,
              50.4257965
            ],
            [
              30.6397766,
              50.4258286
            ]
          ],
          [
            [
              30.6409167,
              50.4254882
            ],
            [
              30.6403289,
              50.4256645
            ]
          ],
          [
            [
              30.6414135,
              50.4253425
            ],
            [
              30.6409167,
              50.4254882
            ]
          ],
          [
            [
              30.6420693,
              50.4251502
            ],
            [
              30.6414135,
              50.4253425
            ]
          ],
          [
            [
              30.6455247,
              50.4241055
            ],
            [
              30.6443698,
              50.4244543
            ],
            [
              30.6440093,
              50.4245631
            ],
            [
              30.6437562,
              50.4246401
            ],
            [
              30.643639,
              50.4246755
            ],
            [
              30.6420693,
              50.4251502
            ]
          ],
          [
            [
              30.6457172,
              50.4240459
            ],
            [
              30.6456264,
              50.4240738
            ],
            [
              30.6455247,
              50.4241055
            ]
          ],
          [
            [
              30.6462528,
              50.4238761
            ],
            [
              30.6461685,
              50.4239022
            ],
            [
              30.6457172,
              50.4240459
            ]
          ],
          [
            [
              30.6462528,
              50.4238761
            ],
            [
              30.6462764,
              50.4237157
            ],
            [
              30.6462855,
              50.4236778
            ],
            [
              30.6462706,
              50.4236241
            ],
            [
              30.6462206,
              50.423575
            ],
            [
              30.6460302,
              50.4234613
            ]
          ],
          [
            [
              30.6400573,
              50.4219925
            ],
            [
              30.6401905,
              50.4220205
            ],
            [
              30.6405079,
              50.4220967
            ],
            [
              30.6419924,
              50.4224532
            ],
            [
              30.6426848,
              50.4226264
            ],
            [
              30.6428517,
              50.4226682
            ],
            [
              30.6435294,
              50.4228377
            ],
            [
              30.644448,
              50.4230675
            ],
            [
              30.6444885,
              50.4230774
            ],
            [
              30.6448468,
              50.4231648
            ],
            [
              30.6449367,
              50.4231873
            ],
            [
              30.6460302,
              50.4234613
            ]
          ]
        ]
      }
    }
  ]
}
