{
  "type": "FeatureCollection",
  "generator": "CityApp tools/fetch_kyiv_bus_routes.py + Overpass API",
  "copyright": "The data included in this document is from www.openstreetmap.org. The data is made available under ODbL.",
  "features": [
    {
      "type": "Feature",
      "properties": {
        "from": "Музей історії України у Другій світовій війні",
        "name": "Автобус 24: Музей історії України у Другій світовій війні → Залізничний вокзал",
        "name:uk": "Автобус 24: Музей історії України у Другій світовій війні → Залізничний вокзал",
        "network": "Київський автобус",
        "network:wikidata": "Q3399835",
        "operator": "Київпастранс",
        "operator:en": "Kyivpastrans",
        "operator:uk": "Київпастранс",
        "operator:wikidata": "Q12110155",
        "public_transport:version": "2",
        "ref": "24",
        "route": "bus",
        "to": "Залізничний вокзал",
        "type": "route"
      },
      "geometry": {
        "type": "MultiLineString",
        "coordinates": [
          [
            [
              30.5562198,
              50.4326057
            ],
            [
              30.5559873,
              50.4327668
            ],
            [
              30.5556284,
              50.4330087
            ],
            [
              30.555081,
              50.4333254
            ]
          ],
          [
            [
              30.555081,
              50.4333254
            ],
            [
              30.5549249,
              50.4334497
            ],
            [
              30.5548576,
              50.4335156
            ]
          ],
          [
            [
              30.5548576,
              50.4335156
            ],
            [
              30.554793,
              50.4335918
            ],
            [
              30.5547631,
              50.4336882
            ],
            [
              30.5546757,
              50.434127
            ],
            [
              30.554462,
              50.4347339
            ],
            [
              30.5544264,
              50.4348022
            ],
            [
              30.5543427,
              50.4349626
            ],
            [
              30.5541927,
              50.4351978
            ],
            [
              30.5537859,
              50.435761
            ]
          ],
          [
            [
              30.5537859,
              50.435761
            ],
            [
              30.5533455,
              50.4363516
            ],
            [
              30.5533128,
              50.436395
            ]
          ],
          [
            [
              30.5533128,
              50.436395
            ],
            [
              30.5532714,
              50.4364499
            ]
          ],
          [
            [
              30.5532714,
              50.4364499
            ],
            [
              30.5531909,
              50.4365565
            ],
            [
              30.5530862,
              50.4366954
            ],
            [
              30.5523743,
              50.4376392
            ]
          ],
          [
            [
              30.5523743,
              50.4376392
            ],
            [
              30.5523417,
              50.4376824
            ]
          ],
          [
            [
              30.5523417,
              50.4376824
            ],
            [
              30.5522468,
              50.4378081
            ]
          ],
          [
            [
              30.5522468,
              50.4378081
            ],
            [
              30.55162,
              50.4386391
            ]
          ],
          [
            [
              30.55162,
              50.4386391
            ],
            [
              30.551532,
              50.4387558
            ]
          ],
          [
            [
              30.551532,
              50.4387558
            ],
            [
              30.5513034,
              50.4390589
            ]
          ],
          [
            [
              30.5513034,
              50.4390589
            ],
            [
              30.5508865,
              50.4396115
            ],
            [
              30.5506738,
              50.4398935
            ],
            [
              30.5505165,
              50.440102
            ]
          ],
          [
            [
              30.5505165,
              50.440102
            ],
            [
              30.5502775,
              50.4404234
            ],
            [
              30.550185,
              50.4405107
            ]
          ],
          [
            [
              30.550185,
              50.4405107
            ],
            [
              30.5500711,
              50.4406213
            ],
            [
              30.5499423,
              50.4407306
            ],
            [
              30.5498109,
              50.44084
            ]
          ],
          [
            [
              30.5498109,
              50.44084
            ],
            [
              30.5497251,
              50.4409185
            ]
          ],
          [
            [
              30.5497251,
              50.4409185
            ],
            [
              30.5495775,
              50.4410342
            ],
            [
              30.5492844,
              50.4412639
            ]
          ],
          [
            [
              30.5492844,
              50.4412639
            ],
            [
              30.5492651,
              50.441279
            ]
          ],
          [
            [
              30.5492651,
              50.441279
            ],
            [
              30.5491793,
              50.4413441
            ],
            [
              30.5489134,
              50.4415456
            ],
            [
              30.5484104,
              50.4419307
            ]
          ],
          [
            [
              30.5484104,
              50.4419307
            ],
            [
              30.5480157,
              50.442199
            ]
          ],
          [
            [
              30.5480157,
              50.442199
            ],
            [
              30.5476485,
              50.4424376
            ]
          ],
          [
            [
              30.5476485,
              50.4424376
            ],
            [
              30.547051,
              50.4428129
            ]
          ],
          [
            [
              30.547051,
              50.4428129
            ],
            [
              30.5467177,
              50.4430222
            ],
            [
              30.5462113,
              50.4433466
            ]
          ],
          [
            [
              30.5462113,
              50.4433466
            ],
            [
              30.5461131,
              50.4434133
            ],
            [
              30.5460041,
              50.4434873
            ],
            [
              30.5458917,
              50.4435636
            ],
            [
              30.5457336,
              50.4436709
            ]
          ],
          [
            [
              30.5457336,
              50.4436709
            ],
            [
              30.5456198,
              50.4437158
            ],
            [
              30.545427,
              50.4437681
            ]
          ],
          [
            [
              30.5449255,
              50.4438357
            ],
            [
              30.5449921,
              50.4438306
            ],
            [
              30.5452209,
              50.4438095
            ],
            [
              30.545427,
              50.4437681
            ]
          ],
          [
            [
              30.5430055,
              50.4439815
            ],
            [
              30.5434791,
              50.443947
            ],
            [
              30.5441166,
              50.4438992
            ],
            [
              30.544571,
              50.443863
            ],
            [
              30.5449255,
              50.4438357
            ]
          ],
          [
            [
              30.5417122,
              50.444289
            ],
            [
              30.5418665,
              50.4442381
            ],
            [
              30.5421114,
              50.4441694
            ],
            [
              30.542608,
              50.4440417
            ],
            [
              30.5428067,
              50.4440032
            ],
            [
              30.5430055,
              50.4439815
            ]
          ],
          [
            [
              30.540728,
              50.444838
            ],
            [
              30.5408599,
              50.4447624
            ],
            [
              30.5416033,
              50.4443362
            ],
            [
              30.5417122,
              50.444289
            ]
          ],
          [
            [
              30.5398227,
              50.4453079
            ],
            [
              30.540728,
              50.444838
            ]
          ],
          [
            [
              30.5398227,
              50.4453079
            ],
            [
              30.5396978,
              50.4452145
            ],
            [
              30.5390837,
              50.4447553
            ],
            [
              30.5389823,
              50.4446795
            ],
            [
              30.538497,
              50.4443165
            ],
            [
              30.5383635,
              50.4442167
            ],
            [
              30.5381632,
              50.4440669
            ],
            [
              30.5380747,
              50.4440007
            ]
          ],
          [
            [
              30.5380747,
              50.4440007
            ],
            [
              30.5381405,
              50.4439605
            ]
          ],
          [
            [
              30.5381405,
              50.4439605
            ],
            [
              30.5382177,
              50.443914
            ]
          ],
          [
            [
              30.5382177,
              50.443914
            ],
            [
              30.5387444,
              50.4436066
            ],
            [
              30.5387838,
              50.4435706
            ],
            [
              30.5388171,
              50.4435203
            ],
            [
              30.5388332,
              50.443474
            ]
          ],
          [
            [
              30.5388332,
              50.443474
            ],
            [
              30.5388433,
              50.4434109
            ],
            [
              30.5388368,
              50.44329
            ],
            [
              30.5388186,
              50.4431543
            ],
            [
              30.5387423,
              50.4427122
            ],
            [
              30.5385832,
              50.4419029
            ]
          ],
          [
            [
              30.5385832,
              50.4419029
            ],
            [
              30.5385103,
              50.4415144
            ]
          ],
          [
            [
              30.5385103,
              50.4415144
            ],
            [
              30.5384593,
              50.4412558
            ],
            [
              30.538395,
              50.4409302
            ],
            [
              30.5383325,
              50.4406334
            ],
            [
              30.5383039,
              50.4404977
            ],
            [
              30.5381355,
              50.4396679
            ],
            [
              30.5381258,
              50.4396184
            ],
            [
              30.5381138,
              50.4395632
            ],
            [
              30.5379402,
              50.4387586
            ],
            [
              30.5379124,
              50.4386293
            ]
          ],
          [
            [
              30.5306473,
              50.4371837
            ],
            [
              30.5310411,
              50.4371198
            ],
            [
              30.5315436,
              50.4370383
            ],
            [
              30.5316074,
              50.4370348
            ],
            [
              30.5316698,
              50.4370382
            ],
            [
              30.5317372,
              50.4370477
            ],
            [
              30.5318001,
              50.43706
            ],
            [
              30.5323077,
              50.4371894
            ],
            [
              30.5328584,
              50.4373298
            ],
            [
              30.5334666,
              50.4374838
            ],
            [
              30.5335283,
              50.4374997
            ],
            [
              30.5336612,
              50.437534
            ],
            [
              30.534773,
              50.437821
            ],
            [
              30.5348774,
              50.4378487
            ],
            [
              30.5363551,
              50.438224
            ],
            [
              30.5364309,
              50.4382431
            ],
            [
              30.5366563,
              50.4383001
            ],
            [
              30.537205,
              50.4384387
            ],
            [
              30.5376172,
              50.4385429
            ],
            [
              30.5379124,
              50.4386293
            ]
          ],
          [
            [
              30.5282999,
              50.4376496
            ],
            [
              30.528502,
              50.4375875
            ],
            [
              30.5287041,
              50.4375238
            ],
            [
              30.5289178,
              50.4374674
            ],
            [
              30.5294469,
              50.4373769
            ],
            [
              30.5295221,
              50.4373636
            ],
            [
              30.5296382,
              50.4373449
            ],
            [
              30.5306473,
              50.4371837
            ]
          ],
          [
            [
              30.5266721,
              50.4381989
            ],
            [
              30.5268764,
              50.4381107
            ],
            [
              30.527353,
              50.437954
            ],
            [
              30.5275104,
              50.4379022
            ],
            [
              30.5276705,
              50.437851
            ],
            [
              30.5282999,
              50.4376496
            ]
          ],
          [
            [
              30.5260062,
              50.4385901
            ],
            [
              30.5260363,
              50.4385716
            ],
            [
              30.5262083,
              50.4384661
            ],
            [
              30.5265105,
              50.4382807
            ],
            [
              30.5266721,
              50.4381989
            ]
          ],
          [
            [
              30.5259678,
              50.4386129
            ],
            [
              30.5259875,
              50.4386014
            ],
            [
              30.5260062,
              50.4385901
            ]
          ],
          [
            [
              30.5259678,
              50.4386129
            ],
            [
              30.5257901,
              50.4387329
            ],
            [
              30.5256577,
              50.4388223
            ],
            [
              30.5254842,
              50.438917
            ],
            [
              30.5253107,
              50.4390116
            ]
          ],
          [
            [
              30.5253107,
              50.4390116
            ],
            [
              30.5250382,
              50.4390718
            ]
          ],
          [
            [
              30.5250382,
              50.4390718
            ],
            [
              30.5249236,
              50.4391384
            ],
            [
              30.5240917,
              50.4396375
            ]
          ],
          [
            [
              30.5240917,
              50.4396375
            ],
            [
              30.5238106,
              50.4397952
            ]
          ],
          [
            [
              30.5238106,
              50.4397952
            ],
            [
              30.5235212,
              50.4399669
            ]
          ],
          [
            [
              30.5235212,
              50.4399669
            ],
            [
              30.5234543,
              50.4400065
            ],
            [
              30.5229638,
              50.4402974
            ],
            [
              30.522838,
              50.4403969
            ],
            [
              30.5227662,
              50.4404743
            ],
            [
              30.5226969,
              50.4405771
            ],
            [
              30.5226579,
              50.4406597
            ],
            [
              30.5226322,
              50.4407684
            ]
          ],
          [
            [
              30.5226322,
              50.4407684
            ],
            [
              30.5225798,
              50.4409549
            ]
          ],
          [
            [
              30.5225798,
              50.4409549
            ],
            [
              30.5225741,
              50.4409827
            ],
            [
              30.5225472,
              50.4410825
            ],
            [
              30.5225002,
              50.4412633
            ],
            [
              30.5224412,
              50.4415039
            ],
            [
              30.5223513,
              50.4418817
            ]
          ],
          [
            [
              30.5223513,
              50.4418817
            ],
            [
              30.5223342,
              50.4419592
            ],
            [
              30.5223181,
              50.442038
            ],
            [
              30.5223065,
              50.4420971
            ],
            [
              30.5222857,
              50.4422029
            ],
            [
              30.5222686,
              50.4422859
            ]
          ],
          [
            [
              30.5222686,
              50.4422859
            ],
            [
              30.5222423,
              50.4424562
            ],
            [
              30.5222309,
              50.4425
            ],
            [
              30.5221912,
              50.4425516
            ],
            [
              30.5221409,
              50.442604
            ],
            [
              30.5220443,
              50.4426641
            ],
            [
              30.5219343,
              50.4427054
            ]
          ],
          [
            [
              30.5219343,
              50.4427054
            ],
            [
              30.5218065,
              50.4427272
            ],
            [
              30.5214824,
              50.4427756
            ],
            [
              30.521164,
              50.4428213
            ],
            [
              30.5210665,
              50.4428357
            ]
          ],
          [
            [
              30.5210665,
              50.4428357
            ],
            [
              30.5209271,
              50.4427886
            ],
            [
              30.5208254,
              50.4427516
            ],
            [
              30.5206748,
              50.4426852
            ],
            [
              30.520463,
              50.4425805
            ]
          ],
          [
            [
              30.520463,
              50.4425805
            ],
            [
              30.5202725,
              50.4425259
            ]
          ],
          [
            [
              30.5202725,
              50.4425259
            ],
            [
              30.5201832,
              50.4425036
            ],
            [
              30.5201233,
              50.4424945
            ],
            [
              30.5200492,
              50.4424921
            ],
            [
              30.5189375,
              50.4426718
            ],
            [
              30.5181272,
              50.4428027
            ]
          ],
          [
            [
              30.5181272,
              50.4428027
            ],
            [
              30.5174615,
              50.4429074
            ],
            [
              30.5173529,
              50.4429247
            ],
            [
              30.517251,
              50.4429414
            ],
            [
              30.5171049,
              50.4429648
            ],
            [
              30.5161076,
              50.44312
            ],
            [
              30.5156068,
              50.443198
            ],
            [
              30.5152601,
              50.443252
            ],
            [
              30.5151106,
              50.4432763
            ],
            [
              30.5149995,
              50.443294
            ]
          ],
          [
            [
              30.5149995,
              50.443294
            ],
            [
              30.5148156,
              50.4433224
            ],
            [
              30.5137514,
              50.443497
            ],
            [
              30.5132171,
              50.4435841
            ],
            [
              30.5127432,
              50.4436614
            ],
            [
              30.5126577,
              50.4436753
            ],
            [
              30.5124764,
              50.4437076
            ]
          ],
          [
            [
              30.5124764,
              50.4437076
            ],
            [
              30.5122295,
              50.4437486
            ],
            [
              30.5114654,
              50.4438686
            ],
            [
              30.5109151,
              50.4439582
            ],
            [
              30.5095518,
              50.44418
            ],
            [
              30.5093313,
              50.4442159
            ]
          ],
          [
            [
              30.5093313,
              50.4442159
            ],
            [
              30.5092833,
              50.4442237
            ],
            [
              30.5080477,
              50.4444248
            ]
          ],
          [
            [
              30.5080477,
              50.4444248
            ],
            [
              30.5076246,
              50.4444943
            ],
            [
              30.5075324,
              50.4445082
            ],
            [
              30.5063704,
              50.4446956
            ],
            [
              30.5063383,
              50.4447008
            ],
            [
              30.5060997,
              50.4447395
            ],
            [
              30.5051562,
              50.4448903
            ],
            [
              30.5045014,
              50.4449951
            ],
            [
              30.5043928,
              50.4450125
            ],
            [
              30.5038728,
              50.4450958
            ],
            [
              30.5029527,
              50.4452519
            ]
          ],
          [
            [
              30.5029527,
              50.4452519
            ],
            [
              30.5011031,
              50.4455543
            ]
          ],
          [
            [
              30.5011031,
              50.4455543
            ],
            [
              30.5007929,
              50.4453725
            ]
          ],
          [
            [
              30.4998344,
              50.4449483
            ],
            [
              30.50011,
              50.4450689
            ],
            [
              30.5007929,
              50.4453725
            ]
          ],
          [
            [
              30.4995787,
              50.444838
            ],
            [
              30.4998344,
              50.4449483
            ]
          ],
          [
            [
              30.4991531,
              50.4446483
            ],
            [
              30.4995787,
              50.444838
            ]
          ],
          [
            [
              30.4988571,
              50.444515
            ],
            [
              30.4991531,
              50.4446483
            ]
          ],
          [
            [
              30.4985091,
              50.4443606
            ],
            [
              30.498743,
              50.4444622
            ],
            [
              30.4988571,
              50.444515
            ]
          ],
          [
            [
              30.4979906,
              50.444131
            ],
            [
              30.4985091,
              50.4443606
            ]
          ],
          [
            [
              30.4977276,
              50.4440152
            ],
            [
              30.4978264,
              50.4440583
            ],
            [
              30.4979906,
              50.444131
            ]
          ],
          [
            [
              30.4975351,
              50.4439325
            ],
            [
              30.4977276,
              50.4440152
            ]
          ],
          [
            [
              30.4970439,
              50.4437214
            ],
            [
              30.4971837,
              50.4437815
            ],
            [
              30.4975351,
              50.4439325
            ]
          ],
          [
            [
              30.4962965,
              50.4434057
            ],
            [
              30.4968625,
              50.4436449
            ],
            [
              30.4970439,
              50.4437214
            ]
          ],
          [
            [
              30.4956965,
              50.4431504
            ],
            [
              30.4962965,
              50.4434057
            ]
          ],
          [
            [
              30.4950471,
              50.4428743
            ],
            [
              30.4952418,
              50.4429557
            ],
            [
              30.4955183,
              50.4430741
            ],
            [
              30.4956965,
              50.4431504
            ]
          ],
          [
            [
              30.4943069,
              50.442563
            ],
            [
              30.4948654,
              50.4427979
            ],
            [
              30.4950471,
              50.4428743
            ]
          ],
          [
            [
              30.4941018,
              50.4424768
            ],
            [
              30.4943069,
              50.442563
            ]
          ],
          [
            [
              30.4918945,
              50.4415487
            ],
            [
              30.4919983,
              50.4415924
            ],
            [
              30.4933748,
              50.4421711
            ],
            [
              30.4941018,
              50.4424768
            ]
          ],
          [
            [
              30.4918945,
              50.4415487
            ],
            [
              30.4915399,
              50.4415011
            ],
            [
              30.4905458,
              50.441408
            ],
            [
              30.4904107,
              50.4413933
            ],
            [
              30.4903,
              50.4413684
            ],
            [
              30.4902137,
              50.4413442
            ],
            [
              30.490185,
              50.4413339
            ],
            [
              30.4901419,
              50.4413184
            ]
          ],
          [
            [
              30.4901419,
              50.4413184
            ],
            [
              30.4899976,
              50.4412538
            ]
          ],
          [
            [
              30.4899976,
              50.4412538
            ],
            [
              30.4899321,
              50.4412248
            ]
          ],
          [
            [
              30.4899321,
              50.4412248
            ],
            [
              30.4897665,
              50.4411326
            ],
            [
              30.4897391,
              50.4411141
            ]
          ],
          [
            [
              30.4897391,
              50.4411141
            ],
            [
              30.4897435,
              50.4410767
            ],
            [
              30.4897537,
              50.4410464
            ],
            [
              30.4898034,
              50.4409933
            ],
            [
              30.489944,
              50.4408906
            ]
          ],
          [
            [
              30.489944,
              50.4408906
            ],
            [
              30.4901079,
              50.4407742
            ]
          ],
          [
            [
              30.4901079,
              50.4407742
            ],
            [
              30.4902399,
              50.4406772
            ]
          ]
        ]
      }
    }
  ]
}
