{
  "type": "FeatureCollection",
  "generator": "CityApp tools/fetch_kyiv_bus_routes.py + Overpass API",
  "copyright": "The data included in this document is from www.openstreetmap.org. The data is made available under ODbL.",
  "features": [
    {
      "type": "Feature",
      "properties": {
        "from": "Залізничний вокзал «Центральний»",
        "name": "Автобус 50: Залізничний вокзал «Центральний» - Вулиця Північна",
        "network": "Київський автобус",
        "network:wikidata": "Q3399835",
        "operator": "Київпастранс",
        "operator:en": "Kyivpastrans",
        "operator:uk": "Київпастранс",
        "operator:wikidata": "Q12110155",
        "public_transport:version": "2",
        "ref": "50",
        "route": "bus",
        "to": "Вулиця Північна",
        "type": "route"
      },
      "geometry": {
        "type": "MultiLineString",
        "coordinates": [
          [
            [
              30.4904314,
              50.4407783
            ],
            [
              30.4905112,
              50.440721
            ],
            [
              30.4905859,
              50.4406851
            ],
            [
              30.4906439,
              50.4406675
            ],
            [
              30.4907421,
              50.4406576
            ],
            [
              30.4908477,
              50.4406653
            ]
          ],
          [
            [
              30.4908477,
              50.4406653
            ],
            [
              30.4909798,
              50.4407475
            ]
          ],
          [
            [
              30.4909798,
              50.4407475
            ],
            [
              30.4910046,
              50.440766
            ],
            [
              30.49102,
              50.4407774
            ],
            [
              30.491045,
              50.4407988
            ]
          ],
          [
            [
              30.491045,
              50.4407988
            ],
            [
              30.4910954,
              50.4408456
            ],
            [
              30.4912353,
              50.4409699
            ]
          ],
          [
            [
              30.4912353,
              50.4409699
            ],
            [
              30.4913823,
              50.4411002
            ],
            [
              30.4917091,
              50.4413897
            ]
          ],
          [
            [
              30.4917091,
              50.4413897
            ],
            [
              30.4918945,
              50.4415487
            ]
          ],
          [
            [
              30.4918945,
              50.4415487
            ],
            [
              30.4919983,
              50.4415924
            ],
            [
              30.4933748,
              50.4421711
            ],
            [
              30.4941018,
              50.4424768
            ]
          ],
          [
            [
              30.4941018,
              50.4424768
            ],
            [
              30.4943069,
              50.442563
            ]
          ],
          [
            [
              30.4943069,
              50.442563
            ],
            [
              30.4948654,
              50.4427979
            ],
            [
              30.4950471,
              50.4428743
            ]
          ],
          [
            [
              30.4950471,
              50.4428743
            ],
            [
              30.4952418,
              50.4429557
            ],
            [
              30.4955183,
              50.4430741
            ],
            [
              30.4956965,
              50.4431504
            ]
          ],
          [
            [
              30.4956965,
              50.4431504
            ],
            [
              30.4962965,
              50.4434057
            ]
          ],
          [
            [
              30.4962965,
              50.4434057
            ],
            [
              30.4968625,
              50.4436449
            ],
            [
              30.4970439,
              50.4437214
            ]
          ],
          [
            [
              30.4970439,
              50.4437214
            ],
            [
              30.4969263,
              50.44383
            ],
            [
              30.4965546,
              50.4441733
            ],
            [
              30.4964082,
              50.444309
            ],
            [
              30.496105,
              50.4445889
            ],
            [
              30.4959855,
              50.4446965
            ],
            [
              30.4956701,
              50.4449915
            ],
            [
              30.4954225,
              50.4452206
            ],
            [
              30.4951469,
              50.4454757
            ],
            [
              30.494647,
              50.4459327
            ],
            [
              30.4946321,
              50.4459628
            ],
            [
              30.4944579,
              50.4463717
            ]
          ],
          [
            [
              30.4944579,
              50.4463717
            ],
            [
              30.4943519,
              50.4466769
            ]
          ],
          [
            [
              30.4943519,
              50.4466769
            ],
            [
              30.4940507,
              50.4467355
            ]
          ],
          [
            [
              30.4940507,
              50.4467355
            ],
            [
              30.4938245,
              50.4469184
            ],
            [
              30.4937229,
              50.4469567
            ],
            [
              30.4935906,
              50.446978
            ]
          ],
          [
            [
              30.4935906,
              50.446978
            ],
            [
              30.4925998,
              50.4471451
            ]
          ],
          [
            [
              30.4925998,
              50.4471451
            ],
            [
              30.4919327,
              50.4472524
            ],
            [
              30.4918735,
              50.447259
            ],
            [
              30.4918026,
              50.4472522
            ],
            [
              30.4913744,
              50.447177
            ]
          ],
          [
            [
              30.4913744,
              50.447177
            ],
            [
              30.4909545,
              50.4472431
            ],
            [
              30.4909289,
              50.4472471
            ]
          ],
          [
            [
              30.4909289,
              50.4472471
            ],
            [
              30.4909038,
              50.4472512
            ],
            [
              30.4887306,
              50.447604
            ],
            [
              30.4886963,
              50.4476096
            ],
            [
              30.4885885,
              50.4476272
            ],
            [
              30.487415,
              50.4478185
            ],
            [
              30.485926,
              50.4480582
            ],
            [
              30.4847826,
              50.4482476
            ],
            [
              30.484439,
              50.4483053
            ],
            [
              30.4836883,
              50.448426
            ]
          ],
          [
            [
              30.4836883,
              50.448426
            ],
            [
              30.4834725,
              50.4485817
            ],
            [
              30.4833727,
              50.4486598
            ],
            [
              30.4833263,
              50.4487256
            ],
            [
              30.4833137,
              50.4487779
            ],
            [
              30.4833188,
              50.4488393
            ],
            [
              30.4834442,
              50.4491767
            ],
            [
              30.4834527,
              50.4492251
            ],
            [
              30.4834453,
              50.4492883
            ],
            [
              30.4834201,
              50.4493334
            ],
            [
              30.4832681,
              50.4494972
            ],
            [
              30.4831128,
              50.4496645
            ],
            [
              30.4830697,
              50.4497175
            ],
            [
              30.4830469,
              50.4497691
            ],
            [
              30.4830473,
              50.4498443
            ]
          ],
          [
            [
              30.4830473,
              50.4498443
            ],
            [
              30.483228,
              50.4502535
            ],
            [
              30.4833751,
              50.4505864
            ],
            [
              30.4836737,
              50.4513039
            ]
          ],
          [
            [
              30.4836737,
              50.4513039
            ],
            [
              30.4837827,
              50.4515811
            ],
            [
              30.4838578,
              50.4517719
            ]
          ],
          [
            [
              30.4838578,
              50.4517719
            ],
            [
              30.484386,
              50.4530289
            ]
          ],
          [
            [
              30.484386,
              50.4530289
            ],
            [
              30.4848127,
              50.4541255
            ],
            [
              30.4848625,
              50.4542487
            ]
          ],
          [
            [
              30.4848625,
              50.4542487
            ],
            [
              30.4849264,
              50.4544131
            ],
            [
              30.4850594,
              50.4547556
            ],
            [
              30.4854677,
              50.4558066
            ],
            [
              30.485525,
              50.4559542
            ],
            [
              30.4856522,
              50.4562818
            ],
            [
              30.4858276,
              50.4567332
            ],
            [
              30.4859174,
              50.4569642
            ],
            [
              30.4859676,
              50.4570937
            ],
            [
              30.4860981,
              50.457442
            ],
            [
              30.4861053,
              50.4574612
            ]
          ],
          [
            [
              30.4861053,
              50.4574612
            ],
            [
              30.4862214,
              50.4578014
            ],
            [
              30.486228,
              50.4578208
            ]
          ],
          [
            [
              30.486228,
              50.4578208
            ],
            [
              30.4862339,
              50.4578379
            ],
            [
              30.4864518,
              50.4584757
            ],
            [
              30.4865099,
              50.458642
            ]
          ],
          [
            [
              30.4865099,
              50.458642
            ],
            [
              30.4864087,
              50.4587556
            ]
          ],
          [
            [
              30.4864087,
              50.4587556
            ],
            [
              30.4863474,
              50.4588224
            ],
            [
              30.4860863,
              50.4590811
            ]
          ],
          [
            [
              30.4860863,
              50.4590811
            ],
            [
              30.486047,
              50.4591173
            ]
          ],
          [
            [
              30.486047,
              50.4591173
            ],
            [
              30.48547,
              50.4596743
            ],
            [
              30.4852723,
              50.4598649
            ],
            [
              30.4850068,
              50.4601101
            ],
            [
              30.4849181,
              50.4601921
            ],
            [
              30.484908,
              50.4602014
            ]
          ],
          [
            [
              30.484908,
              50.4602014
            ],
            [
              30.484901,
              50.4602084
            ],
            [
              30.4848015,
              50.4603
            ],
            [
              30.4847856,
              50.4603146
            ],
            [
              30.4839501,
              50.461084
            ]
          ],
          [
            [
              30.4839501,
              50.461084
            ],
            [
              30.4832779,
              50.4617409
            ],
            [
              30.4832433,
              50.461773
            ]
          ],
          [
            [
              30.4832433,
              50.461773
            ],
            [
              30.48254,
              50.4624448
            ]
          ],
          [
            [
              30.48254,
              50.4624448
            ],
            [
              30.4823723,
              50.462595
            ],
            [
              30.4822381,
              50.4627175
            ]
          ],
          [
            [
              30.4822381,
              50.4627175
            ],
            [
              30.4821717,
              50.4627711
            ],
            [
              30.4819871,
              50.4628884
            ],
            [
              30.4818576,
              50.4629589
            ]
          ],
          [
            [
              30.4818576,
              50.4629589
            ],
            [
              30.4814982,
              50.4631285
            ]
          ],
          [
            [
              30.4814982,
              50.4631285
            ],
            [
              30.4806997,
              50.4634996
            ],
            [
              30.4806604,
              50.463517
            ]
          ],
          [
            [
              30.4806604,
              50.463517
            ],
            [
              30.4804971,
              50.4635952
            ],
            [
              30.480416,
              50.463634
            ],
            [
              30.4802924,
              50.4636885
            ]
          ],
          [
            [
              30.4802924,
              50.4636885
            ],
            [
              30.4793403,
              50.4641248
            ]
          ],
          [
            [
              30.4793403,
              50.4641248
            ],
            [
              30.4789024,
              50.4643256
            ],
            [
              30.4787275,
              50.4644058
            ],
            [
              30.4783958,
              50.4645539
            ],
            [
              30.47809,
              50.4646988
            ]
          ],
          [
            [
              30.47809,
              50.4646988
            ],
            [
              30.4779806,
              50.4647507
            ]
          ],
          [
            [
              30.4779806,
              50.4647507
            ],
            [
              30.477849,
              50.4648131
            ],
            [
              30.4768322,
              50.4652871
            ]
          ],
          [
            [
              30.4768322,
              50.4652871
            ],
            [
              30.4759685,
              50.4656893
            ]
          ],
          [
            [
              30.4759685,
              50.4656893
            ],
            [
              30.4752382,
              50.4660124
            ]
          ],
          [
            [
              30.4752382,
              50.4660124
            ],
            [
              30.4750987,
              50.466077
            ]
          ],
          [
            [
              30.4750987,
              50.466077
            ],
            [
              30.4746358,
              50.4663011
            ]
          ],
          [
            [
              30.4746358,
              50.4663011
            ],
            [
              30.4744801,
              50.4663713
            ]
          ],
          [
            [
              30.4744801,
              50.4663713
            ],
            [
              30.4744348,
              50.4663923
            ],
            [
              30.4743902,
              50.4664143
            ],
            [
              30.4741465,
              50.4665282
            ],
            [
              30.4735288,
              50.4668145
            ],
            [
              30.472398,
              50.4673484
            ],
            [
              30.4718872,
              50.4675897
            ],
            [
              30.4717373,
              50.4676633
            ]
          ],
          [
            [
              30.4716087,
              50.4677204
            ],
            [
              30.471624,
              50.467713
            ],
            [
              30.4717373,
              50.4676633
            ]
          ],
          [
            [
              30.4716087,
              50.4677204
            ],
            [
              30.4715562,
              50.4678195
            ],
            [
              30.4712558,
              50.4679568
            ],
            [
              30.4708864,
              50.4681255
            ]
          ],
          [
            [
              30.4708864,
              50.4681255
            ],
            [
              30.4694304,
              50.4688003
            ],
            [
              30.4692679,
              50.4688774
            ]
          ],
          [
            [
              30.4692679,
              50.4688774
            ],
            [
              30.4680576,
              50.4694388
            ]
          ],
          [
            [
              30.4680576,
              50.4694388
            ],
            [
              30.4679861,
              50.4694712
            ],
            [
              30.4673813,
              50.4697446
            ],
            [
              30.4669014,
              50.4699615
            ]
          ],
          [
            [
              30.4669014,
              50.4699615
            ],
            [
              30.4657572,
              50.4705055
            ]
          ],
          [
            [
              30.4657572,
              50.4705055
            ],
            [
              30.4653937,
              50.4706748
            ],
            [
              30.4648536,
              50.4709244
            ]
          ],
          [
            [
              30.4648536,
              50.4709244
            ],
            [
              30.4647717,
              50.4709593
            ]
          ],
          [
            [
              30.4647717,
              50.4709593
            ],
            [
              30.4646413,
              50.4710143
            ],
            [
              30.46444,
              50.4710875
            ],
            [
              30.4641416,
              50.4711743
            ]
          ],
          [
            [
              30.4641416,
              50.4711743
            ],
            [
              30.4639263,
              50.4712307
            ],
            [
              30.4637109,
              50.4712832
            ],
            [
              30.4633942,
              50.4713363
            ],
            [
              30.4630253,
              50.4713853
            ],
            [
              30.4616352,
              50.4715419
            ],
            [
              30.4599805,
              50.4717211
            ],
            [
              30.4590072,
              50.4718329
            ],
            [
              30.4587923,
              50.4718576
            ]
          ],
          [
            [
              30.4587923,
              50.4718576
            ],
            [
              30.4586348,
              50.4718782
            ],
            [
              30.4581205,
              50.4719502
            ],
            [
              30.4578548,
              50.4719907
            ],
            [
              30.4576534,
              50.4720193
            ],
            [
              30.4557646,
              50.4722917
            ],
            [
              30.455236,
              50.4723714
            ],
            [
              30.4546069,
              50.4724663
            ]
          ],
          [
            [
              30.4546069,
              50.4724663
            ],
            [
              30.4537885,
              50.4725916
            ],
            [
              30.4529686,
              50.4727071
            ],
            [
              30.4518775,
              50.4728674
            ]
          ],
          [
            [
              30.4518775,
              50.4728674
            ],
            [
              30.4517324,
              50.4728896
            ],
            [
              30.4516004,
              50.4729096
            ],
            [
              30.4499767,
              50.4731517
            ]
          ],
          [
            [
              30.4499767,
              50.4731517
            ],
            [
              30.4480945,
              50.4734219
            ]
          ],
          [
            [
              30.4480945,
              50.4734219
            ],
            [
              30.4481289,
              50.4735088
            ],
            [
              30.4484787,
              50.4742801
            ],
            [
              30.4487338,
              50.4748383
            ],
            [
              30.4488907,
              50.4751627
            ],
            [
              30.4489996,
              50.4754194
            ],
            [
              30.4491209,
              50.4757359
            ]
          ],
          [
            [
              30.4491209,
              50.4757359
            ],
            [
              30.4493065,
              50.4760167
            ],
            [
              30.4494475,
              50.4762047
            ],
            [
              30.4496648,
              50.4764652
            ],
            [
              30.4498869,
              50.4767146
            ],
            [
              30.4506277,
              50.4774479
            ]
          ],
          [
            [
              30.4506277,
              50.4774479
            ],
            [
              30.4508818,
              50.4776818
            ],
            [
              30.4515899,
              50.4783339
            ],
            [
              30.452126,
              50.4788144
            ],
            [
              30.4525477,
              50.4791547
            ],
            [
              30.4528873,
              50.479389
            ],
            [
              30.4532159,
              50.4795968
            ],
            [
              30.4534308,
              50.4797214
            ],
            [
              30.4537896,
              50.4799294
            ],
            [
              30.4543196,
              50.4802063
            ],
            [
              30.4551818,
              50.4806042
            ],
            [
              30.4556236,
              50.4808011
            ],
            [
              30.4560964,
              50.4809726
            ],
            [
              30.4567289,
              50.4811728
            ],
            [
              30.4575658,
              50.48142
            ],
            [
              30.4584031,
              50.4816041
            ],
            [
              30.4592497,
              50.4818028
            ],
            [
              30.460128,
              50.4820153
            ],
            [
              30.4611347,
              50.4823027
            ],
            [
              30.4623773,
              50.4826212
            ],
            [
              30.462801,
              50.4827078
            ],
            [
              30.4631922,
              50.482772
            ],
            [
              30.4639712,
              50.4828843
            ],
            [
              30.4646239,
              50.48295
            ],
            [
              30.464824,
              50.4829701
            ],
            [
              30.465446,
              50.4830154
            ],
            [
              30.4665463,
              50.4830927
            ],
            [
              30.467548,
              50.4831763
            ]
          ],
          [
            [
              30.467548,
              50.4831763
            ],
            [
              30.4679345,
              50.4832259
            ],
            [
              30.4683022,
              50.483296
            ],
            [
              30.4686991,
              50.4833887
            ],
            [
              30.4690128,
              50.4834848
            ],
            [
              30.4694095,
              50.4836107
            ],
            [
              30.469792,
              50.4837695
            ],
            [
              30.4702155,
              50.4839812
            ],
            [
              30.4704554,
              50.4841177
            ],
            [
              30.4706953,
              50.4842713
            ],
            [
              30.4708698,
              50.484409
            ],
            [
              30.4710481,
              50.4845678
            ]
          ],
          [
            [
              30.4710481,
              50.4845678
            ],
            [
              30.4714111,
              50.484935
            ],
            [
              30.4717718,
              50.4853815
            ]
          ],
          [
            [
              30.4717718,
              50.4853815
            ],
            [
              30.4719939,
              50.485611
            ],
            [
              30.4724043,
              50.485945
            ]
          ],
          [
            [
              30.4724043,
              50.485945
            ],
            [
              30.4730973,
              50.4864521
            ]
          ],
          [
            [
              30.4730973,
              50.4864521
            ],
            [
              30.4736185,
              50.4867647
            ],
            [
              30.4738294,
              50.4868757
            ],
            [
              30.474094,
              50.4869985
            ],
            [
              30.4743826,
              50.4871172
            ],
            [
              30.474679,
              50.4872179
            ],
            [
              30.4750651,
              50.487321
            ],
            [
              30.4754613,
              50.4873964
            ]
          ],
          [
            [
              30.4754613,
              50.4873964
            ],
            [
              30.4766617,
              50.4875843
            ],
            [
              30.4772918,
              50.4876926
            ]
          ],
          [
            [
              30.4772918,
              50.4876926
            ],
            [
              30.4781481,
              50.4877749
            ]
          ],
          [
            [
              30.4781481,
              50.4877749
            ],
            [
              30.4785448,
              50.4877994
            ],
            [
              30.478745,
              50.4878131
            ],
            [
              30.4789317,
              50.4878344
            ],
            [
              30.4798135,
              50.4880234
            ],
            [
              30.4808021,
              50.4882356
            ]
          ],
          [
            [
              30.4808021,
              50.4882356
            ],
            [
              30.4810181,
              50.4882666
            ]
          ],
          [
            [
              30.4810181,
              50.4882666
            ],
            [
              30.4828989,
              50.4886002
            ]
          ],
          [
            [
              30.4828989,
              50.4886002
            ],
            [
              30.4846315,
              50.4888335
            ]
          ],
          [
            [
              30.4846315,
              50.4888335
            ],
            [
              30.4852682,
              50.4889155
            ],
            [
              30.4860659,
              50.4889858
            ],
            [
              30.486626,
              50.4890149
            ],
            [
              30.4874639,
              50.489041
            ]
          ],
          [
            [
              30.4874639,
              50.489041
            ],
            [
              30.4881565,
              50.4890644
            ],
            [
              30.4888772,
              50.4890819
            ],
            [
              30.4897484,
              50.4890934
            ],
            [
              30.4907994,
              50.4891035
            ],
            [
              30.491903,
              50.4891129
            ],
            [
              30.4919902,
              50.4891141
            ],
            [
              30.4928114,
              50.4891157
            ]
          ],
          [
            [
              30.4928114,
              50.4891157
            ],
            [
              30.4936326,
              50.4891173
            ],
            [
              30.4945283,
              50.4891284
            ],
            [
              30.4945862,
              50.4891279
            ]
          ],
          [
            [
              30.4945862,
              50.4891279
            ],
            [
              30.4953335,
              50.4890276
            ],
            [
              30.4954912,
              50.4890174
            ],
            [
              30.495949,
              50.488988
            ],
            [
              30.4966473,
              50.4889429
            ],
            [
              30.4967151,
              50.4889385
            ],
            [
              30.4968982,
              50.4889264
            ],
            [
              30.4970266,
              50.4889137
            ],
            [
              30.4972519,
              50.4888588
            ],
            [
              30.4972728,
              50.4888537
            ],
            [
              30.4973992,
              50.4888025
            ],
            [
              30.4974929,
              50.488739
            ],
            [
              30.4975708,
              50.4886695
            ],
            [
              30.4976191,
              50.4885704
            ],
            [
              30.497663,
              50.4883615
            ]
          ],
          [
            [
              30.497663,
              50.4883615
            ],
            [
              30.497651,
              50.4877543
            ]
          ],
          [
            [
              30.497651,
              50.4877543
            ],
            [
              30.4976551,
              50.4874848
            ]
          ],
          [
            [
              30.4976551,
              50.4874848
            ],
            [
              30.497666,
              50.4867787
            ]
          ],
          [
            [
              30.497666,
              50.4867787
            ],
            [
              30.4976879,
              50.4867381
            ],
            [
              30.4977203,
              50.486704
            ],
            [
              30.4977661,
              50.4866767
            ],
            [
              30.4978218,
              50.4866584
            ],
            [
              30.4978832,
              50.4866504
            ],
            [
              30.4979457,
              50.4866533
            ],
            [
              30.4980046,
              50.4866669
            ],
            [
              30.4980555,
              50.4866902
            ],
            [
              30.4980945,
              50.4867215
            ],
            [
              30.4981173,
              50.4867603
            ]
          ],
          [
            [
              30.4981173,
              50.4867603
            ],
            [
              30.4981194,
              50.4869433
            ]
          ],
          [
            [
              30.4981194,
              50.4869433
            ],
            [
              30.4981213,
              50.4873414
            ]
          ],
          [
            [
              30.4981213,
              50.4873414
            ],
            [
              30.4981156,
              50.4881192
            ]
          ],
          [
            [
              30.4981156,
              50.4881192
            ],
            [
              30.4981149,
              50.4881648
            ]
          ],
          [
            [
              30.4981149,
              50.4881648
            ],
            [
              30.4981168,
              50.4884591
            ]
          ],
          [
            [
              30.4981168,
              50.4884591
            ],
            [
              30.4981204,
              50.488953
            ],
            [
              30.4981211,
              50.4889626
            ],
            [
              30.4981255,
              50.4890204
            ],
            [
              30.4981305,
              50.4890878
            ]
          ],
          [
            [
              30.4981305,
              50.4890878
            ],
            [
              30.4981383,
              50.4892209
            ]
          ],
          [
            [
              30.4981383,
              50.4892209
            ],
            [
              30.498143,
              50.4893516
            ],
            [
              30.4981428,
              50.4893772
            ],
            [
              30.49816,
              50.4896117
            ],
            [
              30.4981674,
              50.4899185
            ],
            [
              30.498171,
              50.4900055
            ]
          ],
          [
            [
              30.498171,
              50.4900055
            ],
            [
              30.4981915,
              50.4908432
            ],
            [
              30.4981899,
              50.492847
            ]
          ],
          [
            [
              30.4981899,
              50.492847
            ],
            [
              30.4981922,
              50.4929963
            ],
            [
              30.4982327,
              50.4948027
            ],
            [
              30.4983344,
              50.4989147
            ],
            [
              30.498342,
              50.4991776
            ],
            [
              30.4983623,
              50.4994336
            ],
            [
              30.498389,
              50.4996548
            ],
            [
              30.4984288,
              50.4999108
            ],
            [
              30.4984776,
              50.500072
            ],
            [
              30.4985545,
              50.5002319
            ],
            [
              30.4986421,
              50.5003697
            ],
            [
              30.498693,
              50.5005158
            ]
          ],
          [
            [
              30.498693,
              50.5005158
            ],
            [
              30.498711,
              50.5010672
            ],
            [
              30.4987143,
              50.5011674
            ],
            [
              30.4987153,
              50.5011989
            ],
            [
              30.4987161,
              50.5012208
            ]
          ],
          [
            [
              30.4987161,
              50.5012208
            ],
            [
              30.4987166,
              50.5012381
            ],
            [
              30.4987245,
              50.5014788
            ]
          ],
          [
            [
              30.4987245,
              50.5014788
            ],
            [
              30.4987273,
              50.5015639
            ]
          ],
          [
            [
              30.4987273,
              50.5015639
            ],
            [
              30.4987437,
              50.5020647
            ]
          ],
          [
            [
              30.4987437,
              50.5020647
            ],
            [
              30.4987101,
              50.5022503
            ],
            [
              30.4986893,
              50.5023656
            ]
          ],
          [
            [
              30.4986893,
              50.5023656
            ],
            [
              30.4986567,
              50.5027484
            ],
            [
              30.4986613,
              50.503027
            ],
            [
              30.498688,
              50.5037117
            ],
            [
              30.4986923,
              50.5038846
            ],
            [
              30.4986975,
              50.5040884
            ],
            [
              30.4987187,
              50.5046636
            ],
            [
              30.4987205,
              50.5048568
            ],
            [
              30.4987229,
              50.5049653
            ],
            [
              30.4987233,
              50.505007
            ],
            [
              30.4987574,
              50.5061173
            ],
            [
              30.4988438,
              50.5089773
            ],
            [
              30.4988682,
              50.5098187
            ]
          ],
          [
            [
              30.4988682,
              50.5098187
            ],
            [
              30.4988703,
              50.5099172
            ],
            [
              30.4988724,
              50.5100194
            ],
            [
              30.4988843,
              50.5103856
            ],
            [
              30.4988865,
              50.5104876
            ],
            [
              30.4989023,
              50.5109376
            ],
            [
              30.4989086,
              50.5110599
            ],
            [
              30.4989885,
              50.51134
            ]
          ],
          [
            [
              30.4989885,
              50.51134
            ],
            [
              30.4989942,
              50.5115006
            ]
          ],
          [
            [
              30.4989942,
              50.5115006
            ],
            [
              30.4990238,
              50.5126729
            ],
            [
              30.4990261,
              50.5129351
            ]
          ],
          [
            [
              30.4990261,
              50.5129351
            ],
            [
              30.4990227,
              50.5130989
            ],
            [
              30.4989922,
              50.5132548
            ]
          ],
          [
            [
              30.4989922,
              50.5132548
            ],
            [
              30.4989776,
              50.5133894
            ],
            [
              30.4989967,
              50.5139139
            ],
            [
              30.4990059,
              50.5141958
            ],
            [
              30.4990064,
              50.5142867
            ],
            [
              30.499011,
              50.5145118
            ],
            [
              30.4990441,
              50.5154235
            ]
          ],
          [
            [
              30.4990441,
              50.5154235
            ],
            [
              30.499093,
              50.517185
            ],
            [
              30.4991567,
              50.5193785
            ],
            [
              30.4991629,
              50.5195529
            ],
            [
              30.4991862,
              50.5204406
            ],
            [
              30.4991914,
              50.5215565
            ],
            [
              30.4991904,
              50.5217024
            ]
          ],
          [
            [
              30.4991904,
              50.5217024
            ],
            [
              30.4992059,
              50.5218284
            ],
            [
              30.4992538,
              50.5222038
            ],
            [
              30.4992854,
              50.5222742
            ],
            [
              30.4993209,
              50.522343
            ],
            [
              30.4993766,
              50.5224144
            ]
          ],
          [
            [
              30.4993766,
              50.5224144
            ],
            [
              30.4994373,
              50.5224699
            ]
          ],
          [
            [
              30.4994373,
              50.5224699
            ],
            [
              30.4995421,
              50.522533
            ],
            [
              30.4996105,
              50.5225639
            ],
            [
              30.4997224,
              50.5226005
            ],
            [
              30.4998343,
              50.5226294
            ],
            [
              30.5001761,
              50.5226631
            ]
          ],
          [
            [
              30.5009546,
              50.5226571
            ],
            [
              30.5007817,
              50.5226582
            ],
            [
              30.5001761,
              50.5226631
            ]
          ],
          [
            [
              30.5011781,
              50.5226527
            ],
            [
              30.5009546,
              50.5226571
            ]
          ],
          [
            [
              30.503879,
              50.5226229
            ],
            [
              30.5013476,
              50.5226525
            ],
            [
              30.5011781,
              50.5226527
            ]
          ],
          [
            [
              30.5040577,
              50.5226208
            ],
            [
              30.503879,
              50.5226229
            ]
          ],
          [
            [
              30.5082977,
              50.5225713
            ],
            [
              30.507122,
              50.522585
            ],
            [
              30.506756,
              50.5225893
            ],
            [
              30.5065297,
              50.5225919
            ],
            [
              30.5041681,
              50.5226195
            ],
            [
              30.5040577,
              50.5226208
            ]
          ],
          [
            [
              30.5092801,
              50.5225598
            ],
            [
              30.5091133,
              50.5225617
            ],
            [
              30.5090647,
              50.5225623
            ],
            [
              30.5090297,
              50.5225627
            ],
            [
              30.5082977,
              50.5225713
            ]
          ],
          [
            [
              30.5103211,
              50.5225476
            ],
            [
              30.5092801,
              50.5225598
            ]
          ],
          [
            [
              30.5117037,
              50.5225315
            ],
            [
              30.511037,
              50.5225393
            ],
            [
              30.5109237,
              50.5225406
            ],
            [
              30.5103799,
              50.5225469
            ],
            [
              30.5103211,
              50.5225476
            ]
          ],
          [
            [
              30.5117037,
              50.5225315
            ],
            [
              30.5120082,
              50.5224937
            ],
            [
              30.5122701,
              50.5224461
            ],
            [
              30.5124632,
              50.5223968
            ],
            [
              30.5127305,
              50.5223143
            ],
            [
              30.5129507,
              50.5222259
            ]
          ],
          [
            [
              30.5129507,
              50.5222259
            ],
            [
              30.5130447,
              50.5221784
            ]
          ],
          [
            [
              30.5130447,
              50.5221784
            ],
            [
              30.5131411,
              50.5221523
            ],
            [
              30.5133041,
              50.5221301
            ],
            [
              30.5134699,
              50.522141
            ],
            [
              30.5136222,
              50.5221841
            ],
            [
              30.5137461,
              50.522255
            ],
            [
              30.5138293,
              50.5223468
            ],
            [
              30.5138629,
              50.5224178
            ]
          ],
          [
            [
              30.5138629,
              50.5224178
            ],
            [
              30.5138656,
              50.5224854
            ]
          ],
          [
            [
              30.5138656,
              50.5224854
            ],
            [
              30.513878,
              50.5226795
            ],
            [
              30.5138907,
              50.522855
            ],
            [
              30.5139188,
              50.5229036
            ],
            [
              30.5139726,
              50.522985
            ],
            [
              30.5140543,
              50.5230637
            ],
            [
              30.5143721,
              50.5233385
            ],
            [
              30.515037,
              50.5239135
            ]
          ],
          [
            [
              30.515037,
              50.5239135
            ],
            [
              30.5152896,
              50.5241319
            ],
            [
              30.5155809,
              50.5243837
            ],
            [
              30.5158433,
              50.5246106
            ]
          ],
          [
            [
              30.5158433,
              50.5246106
            ],
            [
              30.5161545,
              50.5249533
            ],
            [
              30.5163154,
              50.5251861
            ],
            [
              30.5163577,
              50.5252582
            ],
            [
              30.5163704,
              50.5252821
            ]
          ],
          [
            [
              30.5163704,
              50.5252821
            ],
            [
              30.5163864,
              50.5253217
            ],
            [
              30.5163953,
              50.5253427
            ],
            [
              30.5164656,
              50.525557
            ],
            [
              30.5164924,
              50.525733
            ],
            [
              30.5165099,
              50.5259602
            ]
          ],
          [
            [
              30.5165099,
              50.5259602
            ],
            [
              30.5165092,
              50.5262463
            ],
            [
              30.5165045,
              50.526621
            ],
            [
              30.5165028,
              50.5267651
            ]
          ],
          [
            [
              30.5165028,
              50.5267651
            ],
            [
              30.5164958,
              50.5271594
            ],
            [
              30.5164857,
              50.5276313
            ]
          ],
          [
            [
              30.5164857,
              50.5276313
            ],
            [
              30.5164692,
              50.5279527
            ],
            [
              30.5164696,
              50.5280405
            ]
          ],
          [
            [
              30.5164696,
              50.5280405
            ],
            [
              30.5164589,
              50.5281266
            ],
            [
              30.5164723,
              50.5281897
            ],
            [
              30.5165166,
              50.5282425
            ],
            [
              30.5165721,
              50.5282811
            ],
            [
              30.516638,
              50.5283062
            ],
            [
              30.5167217,
              50.5283267
            ]
          ],
          [
            [
              30.5167217,
              50.5283267
            ],
            [
              30.5169046,
              50.5283303
            ]
          ],
          [
            [
              30.5169046,
              50.5283303
            ],
            [
              30.5170292,
              50.5283606
            ],
            [
              30.5171299,
              50.5284163
            ],
            [
              30.5171946,
              50.5284905
            ],
            [
              30.5172153,
              50.5285743
            ],
            [
              30.5171896,
              50.5286575
            ],
            [
              30.5171206,
              50.5287301
            ],
            [
              30.5170167,
              50.5287833
            ],
            [
              30.5168904,
              50.5288106
            ]
          ],
          [
            [
              30.5168904,
              50.5288106
            ],
            [
              30.5166026,
              50.5288053
            ],
            [
              30.5165143,
              50.5287846
            ],
            [
              30.5164429,
              50.5287507
            ],
            [
              30.516388,
              50.528706
            ],
            [
              30.5163223,
              50.5286109
            ],
            [
              30.5163178,
              50.5285091
            ]
          ],
          [
            [
              30.5163178,
              50.5285091
            ],
            [
              30.5163422,
              50.5282133
            ],
            [
              30.5163453,
              50.5280407
            ]
          ],
          [
            [
              30.5163453,
              50.5280407
            ],
            [
              30.5163551,
              50.5279519
            ],
            [
              30.5163673,
              50.5276277
            ],
            [
              30.5163893,
              50.5271566
            ],
            [
              30.5163888,
              50.526979
            ]
          ],
          [
            [
              30.5163888,
              50.526979
            ],
            [
              30.5163914,
              50.5268874
            ]
          ]
        ]
      }
    }
  ]
}
