{
  "type": "FeatureCollection",
  "generator": "CityApp tools/fetch_kyiv_bus_routes.py + Overpass API",
  "copyright": "The data included in this document is from www.openstreetmap.org. The data is made available under ODbL.",
  "features": [
    {
      "type": "Feature",
      "properties": {
        "from": "Дарницька площа",
        "name": "Автобус 55: Площа Дарницька - Станція метро «Палац спорту»",
        "name:uk": "Автобус 55: Площа Дарницька - Станція метро «Палац спорту»",
        "network": "Київський автобус",
        "network:wikidata": "Q3399835",
        "operator": "Київпастранс",
        "operator:en": "Kyivpastrans",
        "operator:uk": "Київпастранс",
        "operator:wikidata": "Q12110155",
        "public_transport:version": "2",
        "ref": "55",
        "route": "bus",
        "to": "Станція метро «Палац спорту»",
        "type": "route"
      },
      "geometry": {
        "type": "MultiLineString",
        "coordinates": [
          [
            [
              30.6287897,
              50.4434677
            ],
            [
              30.6286675,
              50.4434986
            ],
            [
              30.6276859,
              50.4437408
            ]
          ],
          [
            [
              30.6287897,
              50.4434677
            ],
            [
              30.6286479,
              50.4432493
            ],
            [
              30.6285934,
              50.443164
            ],
            [
              30.6280385,
              50.4421824
            ],
            [
              30.6279086,
              50.4419577
            ],
            [
              30.627825,
              50.4418251
            ]
          ],
          [
            [
              30.627825,
              50.4418251
            ],
            [
              30.6273356,
              50.441906
            ]
          ],
          [
            [
              30.6273356,
              50.441906
            ],
            [
              30.6272139,
              50.4420219
            ],
            [
              30.6267535,
              50.4424606
            ]
          ],
          [
            [
              30.6267535,
              50.4424606
            ],
            [
              30.6265411,
              50.4427123
            ],
            [
              30.6263326,
              50.4429593
            ]
          ],
          [
            [
              30.6263326,
              50.4429593
            ],
            [
              30.6262501,
              50.4430118
            ],
            [
              30.6261456,
              50.4430527
            ],
            [
              30.626055,
              50.4430677
            ],
            [
              30.6259634,
              50.4430687
            ],
            [
              30.6258468,
              50.4430497
            ],
            [
              30.6256934,
              50.4430063
            ],
            [
              30.6255908,
              50.4429538
            ],
            [
              30.6254174,
              50.4427948
            ]
          ],
          [
            [
              30.6254174,
              50.4427948
            ],
            [
              30.6253461,
              50.442703
            ],
            [
              30.6252114,
              50.4425895
            ],
            [
              30.625082,
              50.4424862
            ]
          ],
          [
            [
              30.625082,
              50.4424862
            ],
            [
              30.6249846,
              50.4424139
            ],
            [
              30.6247088,
              50.4422469
            ],
            [
              30.6244768,
              50.4421
            ],
            [
              30.6243191,
              50.4420221
            ],
            [
              30.6241384,
              50.4419556
            ],
            [
              30.6238847,
              50.4418697
            ]
          ],
          [
            [
              30.6238847,
              50.4418697
            ],
            [
              30.6232307,
              50.4416934
            ],
            [
              30.6227743,
              50.4415618
            ],
            [
              30.6214596,
              50.4411599
            ],
            [
              30.6196815,
              50.440613
            ],
            [
              30.6178212,
              50.4400446
            ],
            [
              30.615749,
              50.4394015
            ],
            [
              30.6134499,
              50.4386879
            ],
            [
              30.6129954,
              50.4385381
            ]
          ],
          [
            [
              30.6129954,
              50.4385381
            ],
            [
              30.6117456,
              50.4381687
            ]
          ],
          [
            [
              30.6117456,
              50.4381687
            ],
            [
              30.6106216,
              50.4378243
            ],
            [
              30.6105608,
              50.4378038
            ]
          ],
          [
            [
              30.6105608,
              50.4378038
            ],
            [
              30.6094787,
              50.4374387
            ],
            [
              30.6089332,
              50.4372479
            ],
            [
              30.607539,
              50.4367229
            ],
            [
              30.6058199,
              50.4359958
            ],
            [
              30.6043189,
              50.435361
            ],
            [
              30.6009263,
              50.4339119
            ],
            [
              30.5972176,
              50.4323323
            ],
            [
              30.5960857,
              50.4318554
            ]
          ],
          [
            [
              30.5960857,
              50.4318554
            ],
            [
              30.5948491,
              50.4313326
            ]
          ],
          [
            [
              30.5948491,
              50.4313326
            ],
            [
              30.5938409,
              50.4309034
            ],
            [
              30.5935225,
              50.4307744
            ],
            [
              30.5932964,
              50.430686
            ]
          ],
          [
            [
              30.5932964,
              50.430686
            ],
            [
              30.5920857,
              50.4302621
            ],
            [
              30.5918824,
              50.4302022
            ]
          ],
          [
            [
              30.5918824,
              50.4302022
            ],
            [
              30.5858931,
              50.428466
            ],
            [
              30.5841671,
              50.427956
            ],
            [
              30.5738419,
              50.4249093
            ],
            [
              30.5721213,
              50.4244035
            ]
          ],
          [
            [
              30.5721213,
              50.4244035
            ],
            [
              30.5716921,
              50.4242753
            ]
          ],
          [
            [
              30.5716921,
              50.4242753
            ],
            [
              30.5711289,
              50.4241104
            ],
            [
              30.5710068,
              50.4240753
            ],
            [
              30.5707909,
              50.4240164
            ],
            [
              30.5705684,
              50.4239543
            ]
          ],
          [
            [
              30.5705684,
              50.4239543
            ],
            [
              30.5703805,
              50.4239019
            ],
            [
              30.5701312,
              50.4238407
            ]
          ],
          [
            [
              30.5701312,
              50.4238407
            ],
            [
              30.570005,
              50.4238131
            ],
            [
              30.5698442,
              50.4237834
            ],
            [
              30.5696416,
              50.4237575
            ],
            [
              30.5695009,
              50.4237441
            ],
            [
              30.5692647,
              50.4237277
            ],
            [
              30.5688919,
              50.4237165
            ]
          ],
          [
            [
              30.5688919,
              50.4237165
            ],
            [
              30.5683031,
              50.4236943
            ]
          ],
          [
            [
              30.5683031,
              50.4236943
            ],
            [
              30.5679692,
              50.4236798
            ],
            [
              30.5676567,
              50.4236764
            ],
            [
              30.5674287,
              50.4236832
            ],
            [
              30.5670963,
              50.423718
            ]
          ],
          [
            [
              30.5670963,
              50.423718
            ],
            [
              30.5668067,
              50.4237626
            ],
            [
              30.5666028,
              50.4238014
            ]
          ],
          [
            [
              30.5666028,
              50.4238014
            ],
            [
              30.565625,
              50.4240136
            ]
          ],
          [
            [
              30.565625,
              50.4240136
            ],
            [
              30.5655457,
              50.4240337
            ],
            [
              30.5646315,
              50.4242315
            ],
            [
              30.5645306,
              50.4242544
            ],
            [
              30.5636872,
              50.4244324
            ],
            [
              30.5633533,
              50.4245011
            ],
            [
              30.5632904,
              50.4245116
            ]
          ],
          [
            [
              30.5632904,
              50.4245116
            ],
            [
              30.5629137,
              50.4246155
            ],
            [
              30.5622379,
              50.4248007
            ],
            [
              30.5619118,
              50.4249134
            ],
            [
              30.5615622,
              50.4250568
            ],
            [
              30.5612867,
              50.4251891
            ],
            [
              30.5609244,
              50.425373
            ]
          ],
          [
            [
              30.5609244,
              50.425373
            ],
            [
              30.5607761,
              50.4254438
            ],
            [
              30.5603581,
              50.4256261
            ]
          ],
          [
            [
              30.5603581,
              50.4256261
            ],
            [
              30.5600528,
              50.4257486
            ]
          ],
          [
            [
              30.5599585,
              50.4257818
            ],
            [
              30.5600528,
              50.4257486
            ]
          ],
          [
            [
              30.5595527,
              50.4258926
            ],
            [
              30.5597759,
              50.4258367
            ],
            [
              30.5599585,
              50.4257818
            ]
          ],
          [
            [
              30.5494191,
              50.4293559
            ],
            [
              30.5496182,
              50.4290858
            ],
            [
              30.5501682,
              50.4283718
            ],
            [
              30.550425,
              50.4280314
            ],
            [
              30.5505332,
              50.4278923
            ],
            [
              30.5506834,
              50.4277118
            ],
            [
              30.5508091,
              50.4275754
            ],
            [
              30.5509194,
              50.4274716
            ],
            [
              30.5510171,
              50.4273898
            ],
            [
              30.5510975,
              50.4273296
            ],
            [
              30.551194,
              50.4272674
            ],
            [
              30.5512952,
              50.4272161
            ],
            [
              30.5514483,
              50.4271499
            ],
            [
              30.5517838,
              50.4270501
            ],
            [
              30.5522936,
              50.4269499
            ],
            [
              30.5525065,
              50.4269131
            ],
            [
              30.5527714,
              50.4268774
            ],
            [
              30.554603,
              50.4266425
            ],
            [
              30.5551958,
              50.4265779
            ],
            [
              30.5554286,
              50.4265483
            ],
            [
              30.5561317,
              50.4264723
            ],
            [
              30.5568047,
              50.4263986
            ],
            [
              30.5569936,
              50.4263792
            ],
            [
              30.5572562,
              50.4263443
            ],
            [
              30.5575495,
              50.4262913
            ],
            [
              30.5584027,
              50.4261319
            ],
            [
              30.55919,
              50.4259692
            ],
            [
              30.5592924,
              50.4259502
            ],
            [
              30.5595527,
              50.4258926
            ]
          ],
          [
            [
              30.5479487,
              50.4297679
            ],
            [
              30.5483314,
              50.4297792
            ],
            [
              30.5485468,
              50.4297758
            ],
            [
              30.5487506,
              50.4297527
            ],
            [
              30.5489565,
              50.4297089
            ],
            [
              30.5491062,
              50.429658
            ],
            [
              30.5491799,
              50.4296124
            ],
            [
              30.5492299,
              50.4295772
            ],
            [
              30.5492394,
              50.4295705
            ],
            [
              30.549289,
              50.4295251
            ],
            [
              30.5494191,
              50.4293559
            ]
          ],
          [
            [
              30.5428285,
              50.4292149
            ],
            [
              30.5429641,
              50.429156
            ],
            [
              30.5433276,
              50.4290282
            ],
            [
              30.5435158,
              50.4289712
            ],
            [
              30.5436941,
              50.4289294
            ],
            [
              30.5438725,
              50.428898
            ],
            [
              30.5440933,
              50.4288769
            ],
            [
              30.5442899,
              50.4288787
            ],
            [
              30.5445172,
              50.4288977
            ],
            [
              30.5447742,
              50.4289372
            ],
            [
              30.5453629,
              50.4290729
            ],
            [
              30.5456203,
              50.4291401
            ],
            [
              30.5460973,
              50.4292852
            ],
            [
              30.5473144,
              50.4296633
            ],
            [
              30.5474542,
              50.4296995
            ],
            [
              30.5476065,
              50.42973
            ],
            [
              30.5477854,
              50.4297551
            ],
            [
              30.5479487,
              50.4297679
            ]
          ],
          [
            [
              30.5428285,
              50.4292149
            ],
            [
              30.5426667,
              50.4292851
            ],
            [
              30.5423141,
              50.4294727
            ],
            [
              30.5422375,
              50.4295133
            ]
          ],
          [
            [
              30.5422375,
              50.4295133
            ],
            [
              30.54213,
              50.429632
            ],
            [
              30.5420758,
              50.4296901
            ],
            [
              30.5420546,
              50.4297393
            ],
            [
              30.542048,
              50.4297775
            ],
            [
              30.5420432,
              50.4298487
            ],
            [
              30.5420598,
              50.4299032
            ]
          ],
          [
            [
              30.5420598,
              50.4299032
            ],
            [
              30.5424581,
              50.4302028
            ],
            [
              30.5437747,
              50.43118
            ],
            [
              30.5438895,
              50.4312655
            ],
            [
              30.5447722,
              50.4319157
            ]
          ],
          [
            [
              30.5447722,
              50.4319157
            ],
            [
              30.5449116,
              50.4320519
            ],
            [
              30.544985,
              50.4321533
            ],
            [
              30.5450214,
              50.4322348
            ],
            [
              30.5450329,
              50.4323383
            ],
            [
              30.5449853,
              50.4324896
            ]
          ],
          [
            [
              30.5450491,
              50.432883
            ],
            [
              30.5450287,
              50.4327327
            ],
            [
              30.545012,
              50.4326317
            ],
            [
              30.5449853,
              50.4324896
            ]
          ],
          [
            [
              30.5450522,
              50.4350014
            ],
            [
              30.5450548,
              50.4349022
            ],
            [
              30.5450729,
              50.4340436
            ],
            [
              30.5450711,
              50.4334428
            ],
            [
              30.5450652,
              50.4330427
            ],
            [
              30.5450491,
              50.432883
            ]
          ],
          [
            [
              30.5450216,
              50.435491
            ],
            [
              30.5450472,
              50.4350971
            ],
            [
              30.5450522,
              50.4350014
            ]
          ],
          [
            [
              30.5450216,
              50.435491
            ],
            [
              30.5450951,
              50.4356462
            ],
            [
              30.545153,
              50.4357539
            ],
            [
              30.5452269,
              50.4358499
            ],
            [
              30.5453213,
              50.4359538
            ],
            [
              30.5458133,
              50.4364792
            ],
            [
              30.5459948,
              50.436673
            ],
            [
              30.546325,
              50.4370256
            ],
            [
              30.5465287,
              50.4372433
            ]
          ],
          [
            [
              30.5465287,
              50.4372433
            ],
            [
              30.5467602,
              50.4374874
            ],
            [
              30.547228,
              50.4379732
            ],
            [
              30.5475946,
              50.4383427
            ],
            [
              30.5476847,
              50.4384268
            ],
            [
              30.5477213,
              50.4384614
            ],
            [
              30.5480417,
              50.4387642
            ],
            [
              30.5483454,
              50.4390342
            ],
            [
              30.5485729,
              50.4392314
            ],
            [
              30.5490258,
              50.4396301
            ],
            [
              30.5491436,
              50.4397338
            ],
            [
              30.5491865,
              50.4397632
            ],
            [
              30.549354,
              50.4399096
            ],
            [
              30.5495945,
              50.4401138
            ],
            [
              30.5497974,
              50.4402661
            ]
          ],
          [
            [
              30.5497974,
              50.4402661
            ],
            [
              30.5499206,
              50.4403398
            ],
            [
              30.5500254,
              50.4403958
            ],
            [
              30.5500766,
              50.440433
            ],
            [
              30.5501098,
              50.4404571
            ],
            [
              30.550185,
              50.4405107
            ]
          ],
          [
            [
              30.550185,
              50.4405107
            ],
            [
              30.5500711,
              50.4406213
            ],
            [
              30.5499423,
              50.4407306
            ],
            [
              30.5498109,
              50.44084
            ]
          ],
          [
            [
              30.5498109,
              50.44084
            ],
            [
              30.5497251,
              50.4409185
            ]
          ],
          [
            [
              30.5497251,
              50.4409185
            ],
            [
              30.5495775,
              50.4410342
            ],
            [
              30.5492844,
              50.4412639
            ]
          ],
          [
            [
              30.5492844,
              50.4412639
            ],
            [
              30.5492651,
              50.441279
            ]
          ],
          [
            [
              30.5492651,
              50.441279
            ],
            [
              30.5491793,
              50.4413441
            ],
            [
              30.5489134,
              50.4415456
            ],
            [
              30.5484104,
              50.4419307
            ]
          ],
          [
            [
              30.5484104,
              50.4419307
            ],
            [
              30.5480157,
              50.442199
            ]
          ],
          [
            [
              30.5480157,
              50.442199
            ],
            [
              30.5476485,
              50.4424376
            ]
          ],
          [
            [
              30.5476485,
              50.4424376
            ],
            [
              30.547051,
              50.4428129
            ]
          ],
          [
            [
              30.547051,
              50.4428129
            ],
            [
              30.5467177,
              50.4430222
            ],
            [
              30.5462113,
              50.4433466
            ]
          ],
          [
            [
              30.5462113,
              50.4433466
            ],
            [
              30.5461131,
              50.4434133
            ],
            [
              30.5460041,
              50.4434873
            ],
            [
              30.5458917,
              50.4435636
            ],
            [
              30.5457336,
              50.4436709
            ]
          ],
          [
            [
              30.5457336,
              50.4436709
            ],
            [
              30.5456198,
              50.4437158
            ],
            [
              30.545427,
              50.4437681
            ]
          ],
          [
            [
              30.5449255,
              50.4438357
            ],
            [
              30.5449921,
              50.4438306
            ],
            [
              30.5452209,
              50.4438095
            ],
            [
              30.545427,
              50.4437681
            ]
          ],
          [
            [
              30.5430055,
              50.4439815
            ],
            [
              30.5434791,
              50.443947
            ],
            [
              30.5441166,
              50.4438992
            ],
            [
              30.544571,
              50.443863
            ],
            [
              30.5449255,
              50.4438357
            ]
          ],
          [
            [
              30.5417122,
              50.444289
            ],
            [
              30.5418665,
              50.4442381
            ],
            [
              30.5421114,
              50.4441694
            ],
            [
              30.542608,
              50.4440417
            ],
            [
              30.5428067,
              50.4440032
            ],
            [
              30.5430055,
              50.4439815
            ]
          ],
          [
            [
              30.540728,
              50.444838
            ],
            [
              30.5408599,
              50.4447624
            ],
            [
              30.5416033,
              50.4443362
            ],
            [
              30.5417122,
              50.444289
            ]
          ],
          [
            [
              30.5398227,
              50.4453079
            ],
            [
              30.540728,
              50.444838
            ]
          ],
          [
            [
              30.5398227,
              50.4453079
            ],
            [
              30.5396978,
              50.4452145
            ],
            [
              30.5390837,
              50.4447553
            ],
            [
              30.5389823,
              50.4446795
            ],
            [
              30.538497,
              50.4443165
            ],
            [
              30.5383635,
              50.4442167
            ],
            [
              30.5381632,
              50.4440669
            ],
            [
              30.5380747,
              50.4440007
            ]
          ],
          [
            [
              30.5380747,
              50.4440007
            ],
            [
              30.5381405,
              50.4439605
            ]
          ],
          [
            [
              30.5381405,
              50.4439605
            ],
            [
              30.5382177,
              50.443914
            ]
          ],
          [
            [
              30.5382177,
              50.443914
            ],
            [
              30.5387444,
              50.4436066
            ],
            [
              30.5387838,
              50.4435706
            ],
            [
              30.5388171,
              50.4435203
            ],
            [
              30.5388332,
              50.443474
            ]
          ],
          [
            [
              30.5388332,
              50.443474
            ],
            [
              30.5388433,
              50.4434109
            ],
            [
              30.5388368,
              50.44329
            ],
            [
              30.5388186,
              50.4431543
            ],
            [
              30.5387423,
              50.4427122
            ],
            [
              30.5385832,
              50.4419029
            ]
          ],
          [
            [
              30.5385832,
              50.4419029
            ],
            [
              30.5385103,
              50.4415144
            ]
          ],
          [
            [
              30.5385103,
              50.4415144
            ],
            [
              30.5384593,
              50.4412558
            ],
            [
              30.538395,
              50.4409302
            ],
            [
              30.5383325,
              50.4406334
            ],
            [
              30.5383039,
              50.4404977
            ],
            [
              30.5381355,
              50.4396679
            ],
            [
              30.5381258,
              50.4396184
            ],
            [
              30.5381138,
              50.4395632
            ],
            [
              30.5379402,
              50.4387586
            ],
            [
              30.5379124,
              50.4386293
            ]
          ],
          [
            [
              30.5306473,
              50.4371837
            ],
            [
              30.5310411,
              50.4371198
            ],
            [
              30.5315436,
              50.4370383
            ],
            [
              30.5316074,
              50.4370348
            ],
            [
              30.5316698,
              50.4370382
            ],
            [
              30.5317372,
              50.4370477
            ],
            [
              30.5318001,
              50.43706
            ],
            [
              30.5323077,
              50.4371894
            ],
            [
              30.5328584,
              50.4373298
            ],
            [
              30.5334666,
              50.4374838
            ],
            [
              30.5335283,
              50.4374997
            ],
            [
              30.5336612,
              50.437534
            ],
            [
              30.534773,
              50.437821
            ],
            [
              30.5348774,
              50.4378487
            ],
            [
              30.5363551,
              50.438224
            ],
            [
              30.5364309,
              50.4382431
            ],
            [
              30.5366563,
              50.4383001
            ],
            [
              30.537205,
              50.4384387
            ],
            [
              30.5376172,
              50.4385429
            ],
            [
              30.5379124,
              50.4386293
            ]
          ],
          [
            [
              30.5282999,
              50.4376496
            ],
            [
              30.528502,
              50.4375875
            ],
            [
              30.5287041,
              50.4375238
            ],
            [
              30.5289178,
              50.4374674
            ],
            [
              30.5294469,
              50.4373769
            ],
            [
              30.5295221,
              50.4373636
            ],
            [
              30.5296382,
              50.4373449
            ],
            [
              30.5306473,
              50.4371837
            ]
          ],
          [
            [
              30.5266721,
              50.4381989
            ],
            [
              30.5268764,
              50.4381107
            ],
            [
              30.527353,
              50.437954
            ],
            [
              30.5275104,
              50.4379022
            ],
            [
              30.5276705,
              50.437851
            ],
            [
              30.5282999,
              50.4376496
            ]
          ],
          [
            [
              30.5260062,
              50.4385901
            ],
            [
              30.5260363,
              50.4385716
            ],
            [
              30.5262083,
              50.4384661
            ],
            [
              30.5265105,
              50.4382807
            ],
            [
              30.5266721,
              50.4381989
            ]
          ],
          [
            [
              30.5259678,
              50.4386129
            ],
            [
              30.5259875,
              50.4386014
            ],
            [
              30.5260062,
              50.4385901
            ]
          ],
          [
            [
              30.5259678,
              50.4386129
            ],
            [
              30.5257901,
              50.4387329
            ],
            [
              30.5256577,
              50.4388223
            ],
            [
              30.5254842,
              50.438917
            ],
            [
              30.5253107,
              50.4390116
            ]
          ],
          [
            [
              30.5253107,
              50.4390116
            ],
            [
              30.5250382,
              50.4390718
            ]
          ],
          [
            [
              30.5250382,
              50.4390718
            ],
            [
              30.5249236,
              50.4391384
            ],
            [
              30.5240917,
              50.4396375
            ]
          ],
          [
            [
              30.5240917,
              50.4396375
            ],
            [
              30.5239601,
              50.4396567
            ]
          ],
          [
            [
              30.5239601,
              50.4396567
            ],
            [
              30.5239123,
              50.4396605
            ],
            [
              30.5238624,
              50.4396578
            ],
            [
              30.5238155,
              50.439648
            ],
            [
              30.5237647,
              50.4396323
            ],
            [
              30.5236038,
              50.4395659
            ],
            [
              30.5235599,
              50.4395478
            ]
          ],
          [
            [
              30.5235599,
              50.4395478
            ],
            [
              30.5234844,
              50.4395125
            ],
            [
              30.5234025,
              50.4394741
            ],
            [
              30.523239,
              50.4393976
            ]
          ],
          [
            [
              30.523239,
              50.4393976
            ],
            [
              30.5227591,
              50.4391729
            ],
            [
              30.5219108,
              50.4387758
            ],
            [
              30.5217067,
              50.4386809
            ],
            [
              30.52155,
              50.4386069
            ],
            [
              30.5214868,
              50.4385773
            ]
          ]
        ]
      }
    }
  ]
}
