{
  "type": "FeatureCollection",
  "generator": "CityApp tools/fetch_kyiv_bus_routes.py + Overpass API",
  "copyright": "The data included in this document is from www.openstreetmap.org. The data is made available under ODbL.",
  "features": [
    {
      "type": "Feature",
      "properties": {
        "from": "Контрактова площа",
        "name": "Автобус 62: Контрактова площа → Ботанічний сад",
        "name:uk": "Автобус 62: Контрактова площа → Ботанічний сад",
        "network": "Київський автобус",
        "network:wikidata": "Q3399835",
        "operator": "Київпастранс",
        "operator:en": "Kyivpastrans",
        "operator:uk": "Київпастранс",
        "operator:wikidata": "Q12110155",
        "public_transport:version": "2",
        "ref": "62",
        "route": "bus",
        "to": "Ботанічний сад",
        "type": "route"
      },
      "geometry": {
        "type": "MultiLineString",
        "coordinates": [
          [
            [
              30.518901,
              50.4651758
            ],
            [
              30.5187295,
              50.4650995
            ],
            [
              30.5186233,
              50.4650669
            ],
            [
              30.5184144,
              50.4650575
            ],
            [
              30.5183978,
              50.4650568
            ]
          ],
          [
            [
              30.5183978,
              50.4650568
            ],
            [
              30.518395,
              50.4650771
            ],
            [
              30.5183823,
              50.4650958
            ],
            [
              30.5183608,
              50.4651108
            ],
            [
              30.5183328,
              50.4651208
            ],
            [
              30.5183014,
              50.4651245
            ],
            [
              30.5182687,
              50.4651214
            ]
          ],
          [
            [
              30.5182687,
              50.4651214
            ],
            [
              30.5182394,
              50.4651116
            ],
            [
              30.5182169,
              50.4650962
            ]
          ],
          [
            [
              30.5182169,
              50.4650962
            ],
            [
              30.5181911,
              50.4650891
            ],
            [
              30.5180152,
              50.4650407
            ],
            [
              30.5179393,
              50.4650211
            ],
            [
              30.5178444,
              50.4649806
            ],
            [
              30.517798,
              50.4649569
            ]
          ],
          [
            [
              30.517798,
              50.4649569
            ],
            [
              30.5174114,
              50.4647017
            ]
          ],
          [
            [
              30.5174114,
              50.4647017
            ],
            [
              30.5172349,
              50.4645852
            ],
            [
              30.5170318,
              50.4644491
            ],
            [
              30.5167569,
              50.4642649
            ],
            [
              30.5166304,
              50.4641802
            ],
            [
              30.5165519,
              50.4641307
            ],
            [
              30.5164333,
              50.4640587
            ]
          ],
          [
            [
              30.5164333,
              50.4640587
            ],
            [
              30.5164749,
              50.4640101
            ],
            [
              30.5167291,
              50.4637135
            ],
            [
              30.5167846,
              50.4636398
            ]
          ],
          [
            [
              30.5167846,
              50.4636398
            ],
            [
              30.5171806,
              50.4631516
            ],
            [
              30.5171995,
              50.4631283
            ]
          ],
          [
            [
              30.5171995,
              50.4631283
            ],
            [
              30.5172577,
              50.4630752
            ],
            [
              30.5177302,
              50.4626208
            ],
            [
              30.5178408,
              50.4624915
            ]
          ],
          [
            [
              30.5178408,
              50.4624915
            ],
            [
              30.517905,
              50.4623431
            ]
          ],
          [
            [
              30.517905,
              50.4623431
            ],
            [
              30.5179219,
              50.4623033
            ],
            [
              30.5179595,
              50.4622191
            ]
          ],
          [
            [
              30.5179595,
              50.4622191
            ],
            [
              30.5180472,
              50.46203
            ],
            [
              30.5183048,
              50.4614593
            ],
            [
              30.5183233,
              50.4614311
            ],
            [
              30.5183585,
              50.4613927
            ],
            [
              30.5184098,
              50.4613631
            ],
            [
              30.5184875,
              50.4613355
            ],
            [
              30.5189512,
              50.4612164
            ],
            [
              30.5198181,
              50.4609938
            ],
            [
              30.5199677,
              50.4609552
            ],
            [
              30.5202668,
              50.4608758
            ],
            [
              30.5208195,
              50.4607297
            ],
            [
              30.520853,
              50.4607196
            ],
            [
              30.5209724,
              50.4606835
            ]
          ],
          [
            [
              30.5209724,
              50.4606835
            ],
            [
              30.5211757,
              50.4608038
            ],
            [
              30.5215355,
              50.4610165
            ],
            [
              30.5215833,
              50.46105
            ]
          ],
          [
            [
              30.5215833,
              50.46105
            ],
            [
              30.5216861,
              50.4611127
            ]
          ],
          [
            [
              30.5216861,
              50.4611127
            ],
            [
              30.5217778,
              50.4610531
            ],
            [
              30.5220546,
              50.4608731
            ],
            [
              30.5229463,
              50.4602934
            ],
            [
              30.5230304,
              50.4602387
            ],
            [
              30.5231094,
              50.4601873
            ],
            [
              30.5242451,
              50.4594409
            ],
            [
              30.5244022,
              50.4593468
            ]
          ],
          [
            [
              30.5244022,
              50.4593468
            ],
            [
              30.5245753,
              50.4592325
            ]
          ],
          [
            [
              30.5245753,
              50.4592325
            ],
            [
              30.5247802,
              50.4590972
            ]
          ],
          [
            [
              30.5247802,
              50.4590972
            ],
            [
              30.5249326,
              50.4589966
            ],
            [
              30.5250849,
              50.4588959
            ]
          ],
          [
            [
              30.5250849,
              50.4588959
            ],
            [
              30.5251461,
              50.4588555
            ]
          ],
          [
            [
              30.5251461,
              50.4588555
            ],
            [
              30.5255564,
              50.4585872
            ],
            [
              30.525873,
              50.4583802
            ]
          ],
          [
            [
              30.525873,
              50.4583802
            ],
            [
              30.5260502,
              50.4582585
            ],
            [
              30.526298,
              50.4580807
            ],
            [
              30.5267025,
              50.4577507
            ]
          ],
          [
            [
              30.5267025,
              50.4577507
            ],
            [
              30.5269494,
              50.4575408
            ]
          ],
          [
            [
              30.5275522,
              50.4546299
            ],
            [
              30.52755,
              50.4549237
            ],
            [
              30.5275691,
              50.4550666
            ],
            [
              30.5275959,
              50.4552013
            ],
            [
              30.5276563,
              50.4553737
            ],
            [
              30.5277284,
              50.4555163
            ],
            [
              30.5278342,
              50.4556555
            ],
            [
              30.5279456,
              50.4557999
            ],
            [
              30.5280144,
              50.4559175
            ],
            [
              30.5280567,
              50.4560231
            ],
            [
              30.5280726,
              50.4561168
            ],
            [
              30.5280694,
              50.4562101
            ],
            [
              30.528057,
              50.4562887
            ],
            [
              30.5280048,
              50.4564198
            ],
            [
              30.5279231,
              50.456567
            ],
            [
              30.5278113,
              50.4567124
            ],
            [
              30.5276823,
              50.4568612
            ],
            [
              30.5275287,
              50.4570257
            ],
            [
              30.5272239,
              50.4572974
            ],
            [
              30.5269494,
              50.4575408
            ]
          ],
          [
            [
              30.5275522,
              50.4546299
            ],
            [
              30.5275578,
              50.4545184
            ]
          ],
          [
            [
              30.5275578,
              50.4545184
            ],
            [
              30.5275855,
              50.4543685
            ],
            [
              30.5276245,
              50.4541531
            ],
            [
              30.527757,
              50.4535442
            ]
          ],
          [
            [
              30.527757,
              50.4535442
            ],
            [
              30.5279168,
              50.4529181
            ]
          ],
          [
            [
              30.5279168,
              50.4529181
            ],
            [
              30.5274241,
              50.4525617
            ],
            [
              30.5272046,
              50.4524013
            ]
          ],
          [
            [
              30.5272046,
              50.4524013
            ],
            [
              30.5266165,
              50.4519721
            ]
          ],
          [
            [
              30.5266165,
              50.4519721
            ],
            [
              30.5263024,
              50.4517421
            ]
          ],
          [
            [
              30.5263024,
              50.4517421
            ],
            [
              30.5261014,
              50.4515942
            ],
            [
              30.5257106,
              50.4513065
            ]
          ],
          [
            [
              30.5257106,
              50.4513065
            ],
            [
              30.5253664,
              50.4510531
            ]
          ],
          [
            [
              30.5253664,
              50.4510531
            ],
            [
              30.5247133,
              50.4505723
            ],
            [
              30.5245011,
              50.4504161
            ]
          ],
          [
            [
              30.5245011,
              50.4504161
            ],
            [
              30.5234393,
              50.449654
            ],
            [
              30.5232824,
              50.4495302
            ],
            [
              30.523108,
              50.4493833
            ],
            [
              30.5229574,
              50.449237
            ],
            [
              30.5228475,
              50.4491221
            ],
            [
              30.5226879,
              50.4489402
            ],
            [
              30.5225418,
              50.4487538
            ],
            [
              30.5224094,
              50.4485633
            ],
            [
              30.522291,
              50.4483691
            ],
            [
              30.5221868,
              50.4481716
            ],
            [
              30.5220972,
              50.4479712
            ],
            [
              30.5220178,
              50.4477583
            ]
          ],
          [
            [
              30.5220178,
              50.4477583
            ],
            [
              30.5219972,
              50.4476958
            ],
            [
              30.5218357,
              50.4472058
            ],
            [
              30.5217828,
              50.4470421
            ],
            [
              30.5216602,
              50.4466716
            ],
            [
              30.5213395,
              50.4456952
            ],
            [
              30.5210822,
              50.4449122
            ],
            [
              30.5210436,
              50.4447969
            ]
          ],
          [
            [
              30.5210436,
              50.4447969
            ],
            [
              30.5208482,
              50.4442388
            ],
            [
              30.5207208,
              50.4438582
            ],
            [
              30.520631,
              50.4435857
            ],
            [
              30.5206166,
              50.4435448
            ],
            [
              30.5204655,
              50.4430836
            ],
            [
              30.5203097,
              50.4426334
            ],
            [
              30.5202725,
              50.4425259
            ]
          ],
          [
            [
              30.5202725,
              50.4425259
            ],
            [
              30.5202151,
              50.4424115
            ],
            [
              30.5201755,
              50.4423212
            ],
            [
              30.5201352,
              50.4422217
            ]
          ],
          [
            [
              30.5201352,
              50.4422217
            ],
            [
              30.5199727,
              50.441754
            ]
          ],
          [
            [
              30.5199727,
              50.441754
            ],
            [
              30.5198142,
              50.4412661
            ],
            [
              30.5197209,
              50.440973
            ]
          ],
          [
            [
              30.5197209,
              50.440973
            ],
            [
              30.5197347,
              50.4409121
            ],
            [
              30.5197544,
              50.440887
            ],
            [
              30.5197907,
              50.4408541
            ],
            [
              30.5198529,
              50.4408232
            ]
          ],
          [
            [
              30.5198529,
              50.4408232
            ],
            [
              30.519953,
              50.4407989
            ],
            [
              30.5201255,
              50.4407815
            ]
          ],
          [
            [
              30.5201255,
              50.4407815
            ],
            [
              30.521201,
              50.4407733
            ],
            [
              30.5221869,
              50.4407657
            ]
          ],
          [
            [
              30.5221869,
              50.4407657
            ],
            [
              30.5223677,
              50.4407383
            ],
            [
              30.5224494,
              50.4407026
            ],
            [
              30.52251,
              50.4406459
            ]
          ],
          [
            [
              30.52251,
              50.4406459
            ],
            [
              30.522545,
              50.4405743
            ],
            [
              30.5226042,
              50.4404332
            ],
            [
              30.522679,
              50.4403071
            ],
            [
              30.5227249,
              50.4402336
            ],
            [
              30.522815,
              50.4401535
            ]
          ],
          [
            [
              30.522815,
              50.4401535
            ],
            [
              30.523451,
              50.4396314
            ],
            [
              30.5235599,
              50.4395478
            ]
          ],
          [
            [
              30.5235599,
              50.4395478
            ],
            [
              30.5238178,
              50.4393645
            ]
          ],
          [
            [
              30.5238178,
              50.4393645
            ],
            [
              30.5247731,
              50.4386855
            ]
          ],
          [
            [
              30.5247731,
              50.4386855
            ],
            [
              30.5249245,
              50.4386302
            ]
          ],
          [
            [
              30.5249245,
              50.4386302
            ],
            [
              30.5250152,
              50.4385938
            ],
            [
              30.5250881,
              50.4385763
            ],
            [
              30.5251682,
              50.4385706
            ],
            [
              30.525226,
              50.4385705
            ],
            [
              30.5252838,
              50.4385705
            ],
            [
              30.5254789,
              50.438591
            ]
          ],
          [
            [
              30.5254789,
              50.438591
            ],
            [
              30.5256395,
              50.4386073
            ],
            [
              30.5257082,
              50.4386131
            ]
          ],
          [
            [
              30.5257082,
              50.4386131
            ],
            [
              30.5257623,
              50.4386177
            ],
            [
              30.5258651,
              50.4386181
            ],
            [
              30.5259678,
              50.4386129
            ]
          ],
          [
            [
              30.5259678,
              50.4386129
            ],
            [
              30.5259875,
              50.4386014
            ],
            [
              30.5260062,
              50.4385901
            ]
          ],
          [
            [
              30.5260062,
              50.4385901
            ],
            [
              30.5260363,
              50.4385716
            ],
            [
              30.5262083,
              50.4384661
            ],
            [
              30.5265105,
              50.4382807
            ],
            [
              30.5266721,
              50.4381989
            ]
          ],
          [
            [
              30.5266721,
              50.4381989
            ],
            [
              30.5268764,
              50.4381107
            ],
            [
              30.527353,
              50.437954
            ],
            [
              30.5275104,
              50.4379022
            ],
            [
              30.5276705,
              50.437851
            ],
            [
              30.5282999,
              50.4376496
            ]
          ],
          [
            [
              30.5282999,
              50.4376496
            ],
            [
              30.528502,
              50.4375875
            ],
            [
              30.5287041,
              50.4375238
            ],
            [
              30.5289178,
              50.4374674
            ],
            [
              30.5294469,
              50.4373769
            ],
            [
              30.5295221,
              50.4373636
            ],
            [
              30.5296382,
              50.4373449
            ],
            [
              30.5306473,
              50.4371837
            ]
          ],
          [
            [
              30.5306473,
              50.4371837
            ],
            [
              30.5310411,
              50.4371198
            ],
            [
              30.5315436,
              50.4370383
            ],
            [
              30.5316074,
              50.4370348
            ],
            [
              30.5316698,
              50.4370382
            ],
            [
              30.5317372,
              50.4370477
            ],
            [
              30.5318001,
              50.43706
            ],
            [
              30.5323077,
              50.4371894
            ],
            [
              30.5328584,
              50.4373298
            ],
            [
              30.5334666,
              50.4374838
            ],
            [
              30.5335283,
              50.4374997
            ],
            [
              30.5336612,
              50.437534
            ],
            [
              30.534773,
              50.437821
            ],
            [
              30.5348774,
              50.4378487
            ],
            [
              30.5363551,
              50.438224
            ],
            [
              30.5364309,
              50.4382431
            ],
            [
              30.5366563,
              50.4383001
            ],
            [
              30.537205,
              50.4384387
            ],
            [
              30.5376172,
              50.4385429
            ],
            [
              30.5379124,
              50.4386293
            ]
          ],
          [
            [
              30.5385103,
              50.4415144
            ],
            [
              30.5384593,
              50.4412558
            ],
            [
              30.538395,
              50.4409302
            ],
            [
              30.5383325,
              50.4406334
            ],
            [
              30.5383039,
              50.4404977
            ],
            [
              30.5381355,
              50.4396679
            ],
            [
              30.5381258,
              50.4396184
            ],
            [
              30.5381138,
              50.4395632
            ],
            [
              30.5379402,
              50.4387586
            ],
            [
              30.5379124,
              50.4386293
            ]
          ],
          [
            [
              30.5385832,
              50.4419029
            ],
            [
              30.5385103,
              50.4415144
            ]
          ],
          [
            [
              30.5388332,
              50.443474
            ],
            [
              30.5388433,
              50.4434109
            ],
            [
              30.5388368,
              50.44329
            ],
            [
              30.5388186,
              50.4431543
            ],
            [
              30.5387423,
              50.4427122
            ],
            [
              30.5385832,
              50.4419029
            ]
          ],
          [
            [
              30.5382177,
              50.443914
            ],
            [
              30.5387444,
              50.4436066
            ],
            [
              30.5387838,
              50.4435706
            ],
            [
              30.5388171,
              50.4435203
            ],
            [
              30.5388332,
              50.443474
            ]
          ],
          [
            [
              30.5381405,
              50.4439605
            ],
            [
              30.5382177,
              50.443914
            ]
          ],
          [
            [
              30.5380747,
              50.4440007
            ],
            [
              30.5381405,
              50.4439605
            ]
          ],
          [
            [
              30.5398227,
              50.4453079
            ],
            [
              30.5396978,
              50.4452145
            ],
            [
              30.5390837,
              50.4447553
            ],
            [
              30.5389823,
              50.4446795
            ],
            [
              30.538497,
              50.4443165
            ],
            [
              30.5383635,
              50.4442167
            ],
            [
              30.5381632,
              50.4440669
            ],
            [
              30.5380747,
              50.4440007
            ]
          ],
          [
            [
              30.5398227,
              50.4453079
            ],
            [
              30.540728,
              50.444838
            ]
          ],
          [
            [
              30.540728,
              50.444838
            ],
            [
              30.5408599,
              50.4447624
            ],
            [
              30.5416033,
              50.4443362
            ],
            [
              30.5417122,
              50.444289
            ]
          ],
          [
            [
              30.5417122,
              50.444289
            ],
            [
              30.5418665,
              50.4442381
            ],
            [
              30.5421114,
              50.4441694
            ],
            [
              30.542608,
              50.4440417
            ],
            [
              30.5428067,
              50.4440032
            ],
            [
              30.5430055,
              50.4439815
            ]
          ],
          [
            [
              30.5430055,
              50.4439815
            ],
            [
              30.5434791,
              50.443947
            ],
            [
              30.5441166,
              50.4438992
            ],
            [
              30.544571,
              50.443863
            ],
            [
              30.5449255,
              50.4438357
            ]
          ],
          [
            [
              30.5449255,
              50.4438357
            ],
            [
              30.5449921,
              50.4438306
            ],
            [
              30.5452209,
              50.4438095
            ],
            [
              30.545427,
              50.4437681
            ]
          ],
          [
            [
              30.545427,
              50.4437681
            ],
            [
              30.5453696,
              50.4436686
            ],
            [
              30.5452698,
              50.4434772
            ],
            [
              30.5450869,
              50.4431262
            ],
            [
              30.5450063,
              50.4429688
            ]
          ],
          [
            [
              30.5450063,
              50.4429688
            ],
            [
              30.5449516,
              50.4428394
            ],
            [
              30.5449371,
              50.4428052
            ],
            [
              30.5448591,
              50.4426168
            ],
            [
              30.5448492,
              50.4425918
            ],
            [
              30.5448216,
              50.4425014
            ],
            [
              30.5447957,
              50.4423632
            ],
            [
              30.5447731,
              50.4419537
            ],
            [
              30.5447707,
              50.4419037
            ],
            [
              30.5447713,
              50.4418192
            ],
            [
              30.544755,
              50.4414479
            ],
            [
              30.5447443,
              50.4410628
            ],
            [
              30.5447335,
              50.4408214
            ],
            [
              30.5447135,
              50.4403872
            ],
            [
              30.5447143,
              50.4402095
            ],
            [
              30.544714,
              50.4400825
            ],
            [
              30.5447137,
              50.4399436
            ],
            [
              30.5447091,
              50.439361
            ],
            [
              30.5447213,
              50.4392187
            ],
            [
              30.544728,
              50.4390069
            ],
            [
              30.5447336,
              50.4388297
            ],
            [
              30.5447437,
              50.4385071
            ],
            [
              30.5447609,
              50.4381548
            ],
            [
              30.5447857,
              50.4377011
            ],
            [
              30.5447947,
              50.4374916
            ],
            [
              30.544816,
              50.4371174
            ],
            [
              30.5448532,
              50.4364614
            ],
            [
              30.5448682,
              50.4361972
            ],
            [
              30.5448775,
              50.4360341
            ],
            [
              30.5449091,
              50.4359492
            ]
          ],
          [
            [
              30.5449091,
              50.4359492
            ],
            [
              30.5450216,
              50.435491
            ]
          ],
          [
            [
              30.5450216,
              50.435491
            ],
            [
              30.5450472,
              50.4350971
            ],
            [
              30.5450522,
              50.4350014
            ]
          ],
          [
            [
              30.5450522,
              50.4350014
            ],
            [
              30.5450548,
              50.4349022
            ],
            [
              30.5450729,
              50.4340436
            ],
            [
              30.5450711,
              50.4334428
            ],
            [
              30.5450652,
              50.4330427
            ],
            [
              30.5450491,
              50.432883
            ]
          ],
          [
            [
              30.5450491,
              50.432883
            ],
            [
              30.5450287,
              50.4327327
            ],
            [
              30.545012,
              50.4326317
            ],
            [
              30.5449853,
              50.4324896
            ]
          ],
          [
            [
              30.5449853,
              50.4324896
            ],
            [
              30.5448973,
              50.4323512
            ],
            [
              30.5448492,
              50.4322629
            ],
            [
              30.544812,
              50.4321982
            ],
            [
              30.544769,
              50.4321525
            ],
            [
              30.5445609,
              50.4320007
            ]
          ],
          [
            [
              30.5445609,
              50.4320007
            ],
            [
              30.5442665,
              50.4317813
            ],
            [
              30.5431363,
              50.4309389
            ],
            [
              30.543036,
              50.4308674
            ],
            [
              30.5427422,
              50.4306574
            ],
            [
              30.5423449,
              50.4303734
            ],
            [
              30.5418009,
              50.4299834
            ],
            [
              30.5416194,
              50.4298537
            ]
          ],
          [
            [
              30.5416194,
              50.4298537
            ],
            [
              30.5414809,
              50.4297502
            ],
            [
              30.5408223,
              50.4292781
            ],
            [
              30.5407263,
              50.4292091
            ],
            [
              30.5402926,
              50.4288978
            ],
            [
              30.5401411,
              50.4287987
            ],
            [
              30.5399426,
              50.4286816
            ],
            [
              30.5398974,
              50.4286591
            ],
            [
              30.5388706,
              50.4281485
            ],
            [
              30.5386362,
              50.4280179
            ]
          ],
          [
            [
              30.5386362,
              50.4280179
            ],
            [
              30.5384498,
              50.4278698
            ]
          ],
          [
            [
              30.5384498,
              50.4278698
            ],
            [
              30.5385401,
              50.4277957
            ]
          ],
          [
            [
              30.5385401,
              50.4277957
            ],
            [
              30.5387008,
              50.4276636
            ],
            [
              30.5393933,
              50.4270948
            ]
          ],
          [
            [
              30.5393933,
              50.4270948
            ],
            [
              30.5395612,
              50.4269532
            ],
            [
              30.539743,
              50.4268
            ],
            [
              30.5400649,
              50.4265287
            ]
          ],
          [
            [
              30.5400649,
              50.4265287
            ],
            [
              30.5401673,
              50.4264445
            ],
            [
              30.5410123,
              50.4257728
            ],
            [
              30.5415462,
              50.4253121
            ],
            [
              30.5416442,
              50.4252281
            ],
            [
              30.5417828,
              50.4251075
            ],
            [
              30.5419428,
              50.4249516
            ],
            [
              30.5420864,
              50.4247804
            ],
            [
              30.5422825,
              50.4244998
            ],
            [
              30.5426946,
              50.4238793
            ],
            [
              30.5428351,
              50.423678
            ],
            [
              30.5429071,
              50.4235652
            ],
            [
              30.5430333,
              50.423419
            ],
            [
              30.5431659,
              50.4233055
            ],
            [
              30.543834,
              50.422775
            ],
            [
              30.5439453,
              50.422691
            ]
          ],
          [
            [
              30.5439453,
              50.422691
            ],
            [
              30.5440536,
              50.4226049
            ],
            [
              30.5450743,
              50.4218102
            ],
            [
              30.5453132,
              50.421632
            ],
            [
              30.5456701,
              50.4213726
            ]
          ],
          [
            [
              30.5456701,
              50.4213726
            ],
            [
              30.5460543,
              50.4210943
            ],
            [
              30.5464683,
              50.4207917
            ],
            [
              30.5467809,
              50.420556
            ],
            [
              30.547316,
              50.4201142
            ]
          ],
          [
            [
              30.547316,
              50.4201142
            ],
            [
              30.5475183,
              50.4199615
            ]
          ],
          [
            [
              30.5475183,
              50.4199615
            ],
            [
              30.5476146,
              50.4198807
            ]
          ],
          [
            [
              30.5476146,
              50.4198807
            ],
            [
              30.5480567,
              50.4195296
            ]
          ],
          [
            [
              30.5480567,
              50.4195296
            ],
            [
              30.5481456,
              50.4194488
            ]
          ],
          [
            [
              30.5481456,
              50.4194488
            ],
            [
              30.548288,
              50.4193193
            ]
          ],
          [
            [
              30.548288,
              50.4193193
            ],
            [
              30.5485524,
              50.4192974
            ]
          ],
          [
            [
              30.5492594,
              50.4190896
            ],
            [
              30.5485524,
              50.4192974
            ]
          ],
          [
            [
              30.5494276,
              50.4190392
            ],
            [
              30.5492594,
              50.4190896
            ]
          ],
          [
            [
              30.5501094,
              50.4188219
            ],
            [
              30.5494276,
              50.4190392
            ]
          ],
          [
            [
              30.5510314,
              50.4185357
            ],
            [
              30.5509739,
              50.4185514
            ],
            [
              30.550277,
              50.4187693
            ],
            [
              30.5501094,
              50.4188219
            ]
          ],
          [
            [
              30.5525227,
              50.4180679
            ],
            [
              30.5511371,
              50.4185024
            ],
            [
              30.5510611,
              50.4185278
            ],
            [
              30.5510314,
              50.4185357
            ]
          ],
          [
            [
              30.5564509,
              50.4156133
            ],
            [
              30.5564035,
              50.4156483
            ],
            [
              30.5555754,
              50.4162409
            ],
            [
              30.5547632,
              50.4168239
            ],
            [
              30.554612,
              50.4169356
            ],
            [
              30.554187,
              50.4172427
            ],
            [
              30.5537318,
              50.417567
            ],
            [
              30.5535535,
              50.4176975
            ],
            [
              30.5534565,
              50.4177559
            ],
            [
              30.553323,
              50.4178134
            ],
            [
              30.5531691,
              50.4178645
            ],
            [
              30.5529407,
              50.4179352
            ],
            [
              30.5525227,
              50.4180679
            ]
          ],
          [
            [
              30.5564509,
              50.4156133
            ],
            [
              30.5564754,
              50.4155334
            ],
            [
              30.556463,
              50.4154737
            ],
            [
              30.5564329,
              50.415424
            ],
            [
              30.5563693,
              50.4153383
            ]
          ]
        ]
      }
    }
  ]
}
