{
  "type": "FeatureCollection",
  "generator": "CityApp tools/fetch_kyiv_bus_routes.py + Overpass API",
  "copyright": "The data included in this document is from www.openstreetmap.org. The data is made available under ODbL.",
  "features": [
    {
      "type": "Feature",
      "properties": {
        "from": "Львівська площа",
        "name": "Автобус 7: Залізничний вокзал \"Центральний\" - Львівська площа",
        "network": "Київський автобус",
        "network:wikidata": "Q3399835",
        "operator": "Київпастранс",
        "operator:en": "Kyivpastrans",
        "operator:uk": "Київпастранс",
        "operator:wikidata": "Q12110155",
        "public_transport:version": "2",
        "ref": "7",
        "route": "bus",
        "to": "Залізничний вокзал \"Центральний\"",
        "type": "route"
      },
      "geometry": {
        "type": "MultiLineString",
        "coordinates": [
          [
            [
              30.4904314,
              50.4407783
            ],
            [
              30.4905112,
              50.440721
            ],
            [
              30.4905859,
              50.4406851
            ],
            [
              30.4906439,
              50.4406675
            ],
            [
              30.4907421,
              50.4406576
            ],
            [
              30.4908477,
              50.4406653
            ]
          ],
          [
            [
              30.4908477,
              50.4406653
            ],
            [
              30.4909798,
              50.4407475
            ]
          ],
          [
            [
              30.4909798,
              50.4407475
            ],
            [
              30.4910046,
              50.440766
            ],
            [
              30.49102,
              50.4407774
            ],
            [
              30.491045,
              50.4407988
            ]
          ],
          [
            [
              30.491045,
              50.4407988
            ],
            [
              30.4910954,
              50.4408456
            ],
            [
              30.4912353,
              50.4409699
            ]
          ],
          [
            [
              30.4912353,
              50.4409699
            ],
            [
              30.4913823,
              50.4411002
            ],
            [
              30.4917091,
              50.4413897
            ]
          ],
          [
            [
              30.4917091,
              50.4413897
            ],
            [
              30.4918945,
              50.4415487
            ]
          ],
          [
            [
              30.4918945,
              50.4415487
            ],
            [
              30.4919983,
              50.4415924
            ],
            [
              30.4933748,
              50.4421711
            ],
            [
              30.4941018,
              50.4424768
            ]
          ],
          [
            [
              30.4941018,
              50.4424768
            ],
            [
              30.4943069,
              50.442563
            ]
          ],
          [
            [
              30.4943069,
              50.442563
            ],
            [
              30.4948654,
              50.4427979
            ],
            [
              30.4950471,
              50.4428743
            ]
          ],
          [
            [
              30.4950471,
              50.4428743
            ],
            [
              30.4952418,
              50.4429557
            ],
            [
              30.4955183,
              50.4430741
            ],
            [
              30.4956965,
              50.4431504
            ]
          ],
          [
            [
              30.4956965,
              50.4431504
            ],
            [
              30.4962965,
              50.4434057
            ]
          ],
          [
            [
              30.4962965,
              50.4434057
            ],
            [
              30.4968625,
              50.4436449
            ],
            [
              30.4970439,
              50.4437214
            ]
          ],
          [
            [
              30.4970439,
              50.4437214
            ],
            [
              30.4969263,
              50.44383
            ],
            [
              30.4965546,
              50.4441733
            ],
            [
              30.4964082,
              50.444309
            ],
            [
              30.496105,
              50.4445889
            ],
            [
              30.4959855,
              50.4446965
            ],
            [
              30.4956701,
              50.4449915
            ],
            [
              30.4954225,
              50.4452206
            ],
            [
              30.4951469,
              50.4454757
            ],
            [
              30.494647,
              50.4459327
            ],
            [
              30.4946321,
              50.4459628
            ],
            [
              30.4944579,
              50.4463717
            ]
          ],
          [
            [
              30.4944579,
              50.4463717
            ],
            [
              30.4943519,
              50.4466769
            ]
          ],
          [
            [
              30.4943519,
              50.4466769
            ],
            [
              30.4940507,
              50.4467355
            ]
          ],
          [
            [
              30.4940507,
              50.4467355
            ],
            [
              30.4938245,
              50.4469184
            ],
            [
              30.4937229,
              50.4469567
            ],
            [
              30.4935906,
              50.446978
            ]
          ],
          [
            [
              30.4935906,
              50.446978
            ],
            [
              30.4925998,
              50.4471451
            ]
          ],
          [
            [
              30.4925998,
              50.4471451
            ],
            [
              30.4919327,
              50.4472524
            ],
            [
              30.4918735,
              50.447259
            ],
            [
              30.4918026,
              50.4472522
            ],
            [
              30.4913744,
              50.447177
            ]
          ],
          [
            [
              30.4913744,
              50.447177
            ],
            [
              30.4909545,
              50.4472431
            ],
            [
              30.4909289,
              50.4472471
            ]
          ],
          [
            [
              30.4910377,
              50.4475674
            ],
            [
              30.4910155,
              50.4475162
            ],
            [
              30.4909902,
              50.4474368
            ],
            [
              30.4909289,
              50.4472471
            ]
          ],
          [
            [
              30.4911464,
              50.4477606
            ],
            [
              30.4911032,
              50.4476953
            ],
            [
              30.4910377,
              50.4475674
            ]
          ],
          [
            [
              30.4916692,
              50.4481164
            ],
            [
              30.4914404,
              50.4479997
            ],
            [
              30.4912901,
              50.4479113
            ],
            [
              30.4912007,
              50.4478332
            ],
            [
              30.4911464,
              50.4477606
            ]
          ],
          [
            [
              30.4927449,
              50.4485092
            ],
            [
              30.4924805,
              50.4484238
            ],
            [
              30.4923256,
              50.4483671
            ],
            [
              30.4922489,
              50.448336
            ],
            [
              30.4921092,
              50.4482831
            ],
            [
              30.4916692,
              50.4481164
            ]
          ],
          [
            [
              30.4927449,
              50.4485092
            ],
            [
              30.4928493,
              50.4485474
            ],
            [
              30.4929562,
              50.4485865
            ],
            [
              30.493543,
              50.4488891
            ]
          ],
          [
            [
              30.493543,
              50.4488891
            ],
            [
              30.4937396,
              50.4490004
            ]
          ],
          [
            [
              30.4937396,
              50.4490004
            ],
            [
              30.4937956,
              50.4490337
            ]
          ],
          [
            [
              30.4937956,
              50.4490337
            ],
            [
              30.4942584,
              50.4493091
            ],
            [
              30.4943126,
              50.449343
            ],
            [
              30.4944152,
              50.4494003
            ],
            [
              30.4947332,
              50.4495822
            ]
          ],
          [
            [
              30.4947332,
              50.4495822
            ],
            [
              30.4949342,
              50.4496896
            ]
          ],
          [
            [
              30.4949342,
              50.4496896
            ],
            [
              30.495032,
              50.4497338
            ]
          ],
          [
            [
              30.495032,
              50.4497338
            ],
            [
              30.4953802,
              50.4498998
            ]
          ],
          [
            [
              30.4953802,
              50.4498998
            ],
            [
              30.4955771,
              50.4499869
            ]
          ],
          [
            [
              30.4955771,
              50.4499869
            ],
            [
              30.4957691,
              50.4500723
            ]
          ],
          [
            [
              30.4957691,
              50.4500723
            ],
            [
              30.4960943,
              50.4502162
            ]
          ],
          [
            [
              30.4960943,
              50.4502162
            ],
            [
              30.4963325,
              50.4503222
            ],
            [
              30.4964458,
              50.4503694
            ]
          ],
          [
            [
              30.4964458,
              50.4503694
            ],
            [
              30.4965425,
              50.4504096
            ],
            [
              30.4968073,
              50.4505264
            ]
          ],
          [
            [
              30.4968073,
              50.4505264
            ],
            [
              30.4973265,
              50.4507555
            ]
          ],
          [
            [
              30.4973265,
              50.4507555
            ],
            [
              30.497379,
              50.4507779
            ]
          ],
          [
            [
              30.497379,
              50.4507779
            ],
            [
              30.4976602,
              50.4508981
            ]
          ],
          [
            [
              30.4976602,
              50.4508981
            ],
            [
              30.4987696,
              50.4513724
            ]
          ],
          [
            [
              30.4987696,
              50.4513724
            ],
            [
              30.498882,
              50.4514187
            ]
          ],
          [
            [
              30.498882,
              50.4514187
            ],
            [
              30.4990273,
              50.4514785
            ],
            [
              30.4992706,
              50.4515788
            ],
            [
              30.4993601,
              50.4516156
            ]
          ],
          [
            [
              30.4993601,
              50.4516156
            ],
            [
              30.4993868,
              50.4516266
            ]
          ],
          [
            [
              30.4993868,
              50.4516266
            ],
            [
              30.4994965,
              50.4516735
            ],
            [
              30.5002442,
              50.4519929
            ]
          ],
          [
            [
              30.5002442,
              50.4519929
            ],
            [
              30.5003043,
              50.4520185
            ]
          ],
          [
            [
              30.5003043,
              50.4520185
            ],
            [
              30.5004252,
              50.4520702
            ]
          ],
          [
            [
              30.5004252,
              50.4520702
            ],
            [
              30.500663,
              50.4521708
            ]
          ],
          [
            [
              30.500663,
              50.4521708
            ],
            [
              30.5007903,
              50.4522237
            ]
          ],
          [
            [
              30.5007903,
              50.4522237
            ],
            [
              30.5009356,
              50.4522874
            ],
            [
              30.5010296,
              50.4523261
            ]
          ],
          [
            [
              30.5010296,
              50.4523261
            ],
            [
              30.5010592,
              50.4524717
            ],
            [
              30.5011013,
              50.4526797
            ],
            [
              30.5012948,
              50.4533634
            ],
            [
              30.5015417,
              50.4542826
            ]
          ],
          [
            [
              30.5015417,
              50.4542826
            ],
            [
              30.5015674,
              50.4543624
            ],
            [
              30.5016977,
              50.4548277
            ],
            [
              30.5017419,
              50.454985
            ],
            [
              30.5019185,
              50.4556048
            ],
            [
              30.5020075,
              50.4559211
            ],
            [
              30.5021192,
              50.4563184
            ],
            [
              30.5021515,
              50.4564385
            ]
          ],
          [
            [
              30.504217,
              50.4558794
            ],
            [
              30.5024411,
              50.4563619
            ],
            [
              30.5024242,
              50.4563666
            ],
            [
              30.5023387,
              50.4563902
            ],
            [
              30.5021515,
              50.4564385
            ]
          ],
          [
            [
              30.504237,
              50.4558739
            ],
            [
              30.504217,
              50.4558794
            ]
          ],
          [
            [
              30.5047804,
              50.4557232
            ],
            [
              30.5043229,
              50.4558501
            ],
            [
              30.504237,
              50.4558739
            ]
          ],
          [
            [
              30.5061563,
              50.4553808
            ],
            [
              30.5058486,
              50.4554424
            ],
            [
              30.5055469,
              50.4555193
            ],
            [
              30.5048375,
              50.4557084
            ],
            [
              30.5047804,
              50.4557232
            ]
          ],
          [
            [
              30.5061563,
              50.4553808
            ],
            [
              30.5061073,
              50.45529
            ],
            [
              30.5058755,
              50.4549193
            ],
            [
              30.5057189,
              50.4546983
            ],
            [
              30.5056352,
              50.4546535
            ]
          ],
          [
            [
              30.5056352,
              50.4546535
            ],
            [
              30.5059144,
              50.4543626
            ]
          ],
          [
            [
              30.5052384,
              50.4540809
            ],
            [
              30.5054501,
              50.4541695
            ],
            [
              30.5056098,
              50.4542359
            ],
            [
              30.5059144,
              50.4543626
            ]
          ]
        ]
      }
    }
  ]
}
