{
  "type": "FeatureCollection",
  "generator": "CityApp tools/fetch_kyiv_bus_routes.py + Overpass API",
  "copyright": "Data © OpenStreetMap contributors, ODbL",
  "features": [
    {
      "type": "Feature",
      "properties": {
        "name": "Залізничний вокзал \"Центральний\"",
        "name:uk": "Залізничний вокзал \"Центральний\"",
        "osm_id": 13241245756,
        "order_hint": 1,
        "planned_time": "05:55",
        "trip_direction": "outbound"
      },
      "geometry": {
        "type": "Point",
        "coordinates": [
          30.4904314,
          50.4407783
        ]
      }
    },
    {
      "type": "Feature",
      "properties": {
        "name": "Залізничний вокзал \"Центральний\"",
        "name:uk": "Залізничний вокзал Центральний",
        "osm_id": 12269729019,
        "order_hint": 2,
        "planned_time": "06:46",
        "trip_direction": "inbound"
      },
      "geometry": {
        "type": "Point",
        "coordinates": [
          30.4903395,
          50.4407146
        ]
      }
    },
    {
      "type": "Feature",
      "properties": {
        "name": "вул. Саксаганського",
        "name:uk": "вул. Саксаганського",
        "osm_id": 10650336598,
        "order_hint": 3,
        "planned_time": "05:58",
        "trip_direction": "outbound"
      },
      "geometry": {
        "type": "Point",
        "coordinates": [
          30.4951469,
          50.4454757
        ]
      }
    },
    {
      "type": "Feature",
      "properties": {
        "name": "вул. Саксаганського",
        "name:uk": "вул. Саксаганського",
        "osm_id": 3471561293,
        "order_hint": 4,
        "planned_time": "06:43",
        "trip_direction": "inbound"
      },
      "geometry": {
        "type": "Point",
        "coordinates": [
          30.4952392,
          50.4455084
        ]
      }
    },
    {
      "type": "Feature",
      "properties": {
        "name": "Галицька площа",
        "name:uk": "Галицька площа",
        "osm_id": 2935306876,
        "order_hint": 5,
        "planned_time": "05:59",
        "trip_direction": "outbound"
      },
      "geometry": {
        "type": "Point",
        "coordinates": [
          30.4925998,
          50.4471451
        ]
      }
    },
    {
      "type": "Feature",
      "properties": {
        "name": "Галицька площа",
        "name:uk": "Галицька площа",
        "osm_id": 324629313,
        "order_hint": 6,
        "planned_time": "06:42",
        "trip_direction": "inbound"
      },
      "geometry": {
        "type": "Point",
        "coordinates": [
          30.4926282,
          50.4471982
        ]
      }
    },
    {
      "type": "Feature",
      "properties": {
        "name": "Повітрофлотський шляхопровід",
        "name:uk": "Повітрофлотський шляхопровід",
        "osm_id": 1448786880,
        "order_hint": 7,
        "planned_time": "06:00",
        "trip_direction": "outbound"
      },
      "geometry": {
        "type": "Point",
        "coordinates": [
          30.4847826,
          50.4482476
        ]
      }
    },
    {
      "type": "Feature",
      "properties": {
        "name": "Повітрофлотський шляхопровід",
        "name:uk": "Повітрофлотський шляхопровід",
        "osm_id": 1448786881,
        "order_hint": 8,
        "planned_time": "06:41",
        "trip_direction": "inbound"
      },
      "geometry": {
        "type": "Point",
        "coordinates": [
          30.4848296,
          50.448369
        ]
      }
    },
    {
      "type": "Feature",
      "properties": {
        "name": "Нацiональна дитяча клінічна лікарня \"ОХМАТДИТ\"",
        "name:uk": "Нацiональна дитяча клінічна лікарня \"ОХМАТДИТ\"",
        "osm_id": 6378366958,
        "order_hint": 9,
        "planned_time": "06:01",
        "trip_direction": "outbound"
      },
      "geometry": {
        "type": "Point",
        "coordinates": [
          30.483228,
          50.4502535
        ]
      }
    },
    {
      "type": "Feature",
      "properties": {
        "name": "Нацiональна дитяча клінічна лікарня \"ОХМАТДИТ\"",
        "name:uk": "Нацiональна дитяча клінічна лікарня \"ОХМАТДИТ\"",
        "osm_id": 1749491141,
        "order_hint": 10,
        "planned_time": "06:40",
        "trip_direction": "inbound"
      },
      "geometry": {
        "type": "Point",
        "coordinates": [
          30.4833773,
          50.450225
        ]
      }
    },
    {
      "type": "Feature",
      "properties": {
        "name": "вул. Ростиславська",
        "name:uk": "вул. Ростиславська",
        "osm_id": 9957112017,
        "order_hint": 11,
        "planned_time": "06:02",
        "trip_direction": "outbound"
      },
      "geometry": {
        "type": "Point",
        "coordinates": [
          30.4850594,
          50.4547556
        ]
      }
    },
    {
      "type": "Feature",
      "properties": {
        "name": "вул. Ростиславська",
        "name:uk": "вул. Ростиславська",
        "osm_id": 7666743885,
        "order_hint": 12,
        "planned_time": "06:39",
        "trip_direction": "inbound"
      },
      "geometry": {
        "type": "Point",
        "coordinates": [
          30.4851237,
          50.4547569
        ]
      }
    },
    {
      "type": "Feature",
      "properties": {
        "name": "вул. Золотоустiвська",
        "name:uk": "вул. Золотоустiвська",
        "osm_id": 6378366956,
        "order_hint": 13,
        "planned_time": "06:03",
        "trip_direction": "outbound"
      },
      "geometry": {
        "type": "Point",
        "coordinates": [
          30.4856522,
          50.4562818
        ]
      }
    },
    {
      "type": "Feature",
      "properties": {
        "name": "вул. Золотоустiвська",
        "name:uk": "вул. Золотоустiвська",
        "osm_id": 3223634289,
        "order_hint": 14,
        "planned_time": "06:38",
        "trip_direction": "inbound"
      },
      "geometry": {
        "type": "Point",
        "coordinates": [
          30.4857321,
          50.4562682
        ]
      }
    },
    {
      "type": "Feature",
      "properties": {
        "name": "вул. Глибочицька",
        "name:uk": "вул. Глибочицька",
        "osm_id": 9985912465,
        "order_hint": 15,
        "planned_time": "06:04",
        "trip_direction": "outbound"
      },
      "geometry": {
        "type": "Point",
        "coordinates": [
          30.48547,
          50.4596743
        ]
      }
    },
    {
      "type": "Feature",
      "properties": {
        "name": "вулиця Глибочицька",
        "name:uk": "вулиця Глибочицька",
        "osm_id": 1184502460,
        "order_hint": 16,
        "planned_time": "06:37",
        "trip_direction": "inbound"
      },
      "geometry": {
        "type": "Point",
        "coordinates": [
          30.485553,
          50.4597155
        ]
      }
    },
    {
      "type": "Feature",
      "properties": {
        "name": "Станція метро «Лук'янівська»",
        "name:uk": "Станція метро «Лук'янівська»",
        "osm_id": 6378366954,
        "order_hint": 17,
        "planned_time": "06:07",
        "trip_direction": "outbound"
      },
      "geometry": {
        "type": "Point",
        "coordinates": [
          30.4832779,
          50.4617409
        ]
      }
    },
    {
      "type": "Feature",
      "properties": {
        "name": "Станція метро «Лук'янівська»",
        "name:uk": "Станція метро «Лук'янівська»",
        "osm_id": 1224162495,
        "order_hint": 18,
        "planned_time": "06:34",
        "trip_direction": "inbound"
      },
      "geometry": {
        "type": "Point",
        "coordinates": [
          30.4833471,
          50.4617897
        ]
      }
    },
    {
      "type": "Feature",
      "properties": {
        "name": "Вул. Герцена",
        "name:uk": "Вул. Герцена",
        "osm_id": 6378366952,
        "order_hint": 19,
        "planned_time": "06:09",
        "trip_direction": "outbound"
      },
      "geometry": {
        "type": "Point",
        "coordinates": [
          30.477849,
          50.4648131
        ]
      }
    },
    {
      "type": "Feature",
      "properties": {
        "name": "Вулиця Герцена",
        "name:uk": "Вул. Герцена",
        "osm_id": 3215496361,
        "order_hint": 20,
        "planned_time": "06:32",
        "trip_direction": "inbound"
      },
      "geometry": {
        "type": "Point",
        "coordinates": [
          30.4778785,
          50.4648545
        ]
      }
    },
    {
      "type": "Feature",
      "properties": {
        "name": "Вулиця Деревлянська",
        "name:uk": "вул. Деревлянська",
        "osm_id": 6378366951,
        "order_hint": 21,
        "planned_time": "06:10",
        "trip_direction": "outbound"
      },
      "geometry": {
        "type": "Point",
        "coordinates": [
          30.4712558,
          50.4679568
        ]
      }
    },
    {
      "type": "Feature",
      "properties": {
        "name": "Вулиця Деревлянська",
        "name:uk": "вул. Деревлянська",
        "osm_id": 4341361604,
        "order_hint": 22,
        "planned_time": "06:31",
        "trip_direction": "inbound"
      },
      "geometry": {
        "type": "Point",
        "coordinates": [
          30.4712858,
          50.4679816
        ]
      }
    },
    {
      "type": "Feature",
      "properties": {
        "name": "Вул. Академіка Ромоданова",
        "name:uk": "Вул. Академіка Ромоданова",
        "osm_id": 6378366950,
        "order_hint": 23,
        "planned_time": "06:11",
        "trip_direction": "outbound"
      },
      "geometry": {
        "type": "Point",
        "coordinates": [
          30.4673813,
          50.4697446
        ]
      }
    },
    {
      "type": "Feature",
      "properties": {
        "name": "Вул. Академіка Ромоданова",
        "name:uk": "Вул. Академіка Ромоданова",
        "osm_id": 5684076892,
        "order_hint": 24,
        "planned_time": "06:30",
        "trip_direction": "inbound"
      },
      "geometry": {
        "type": "Point",
        "coordinates": [
          30.4674429,
          50.4698026
        ]
      }
    },
    {
      "type": "Feature",
      "properties": {
        "name": null,
        "name:uk": null,
        "osm_id": 10011703741,
        "order_hint": 25,
        "planned_time": "06:13",
        "trip_direction": "outbound"
      },
      "geometry": {
        "type": "Point",
        "coordinates": [
          30.4646413,
          50.4710143
        ]
      }
    },
    {
      "type": "Feature",
      "properties": {
        "name": "Інноваційний парк \"ЮНІТ СІТІ\"",
        "name:uk": "Інноваційний парк \"ЮНІТ СІТІ\"",
        "osm_id": 3270200661,
        "order_hint": 26,
        "planned_time": "06:28",
        "trip_direction": "inbound"
      },
      "geometry": {
        "type": "Point",
        "coordinates": [
          30.4647393,
          50.4710769
        ]
      }
    },
    {
      "type": "Feature",
      "properties": {
        "name": "вул. Ґарета Джонса",
        "name:uk": "вул. Ґарета Джонса",
        "osm_id": 10011703740,
        "order_hint": 27,
        "planned_time": "06:18",
        "trip_direction": "outbound"
      },
      "geometry": {
        "type": "Point",
        "coordinates": [
          30.4581205,
          50.4719502
        ]
      }
    },
    {
      "type": "Feature",
      "properties": {
        "name": "вул. Ґарета Джонса",
        "name:uk": "вул. Ґарета Джонса",
        "osm_id": 3270215071,
        "order_hint": 28,
        "planned_time": "06:23",
        "trip_direction": "inbound"
      },
      "geometry": {
        "type": "Point",
        "coordinates": [
          30.4581492,
          50.4720302
        ]
      }
    },
    {
      "type": "Feature",
      "properties": {
        "name": "Спортивний комплекс",
        "name:uk": "Спортивний комплекс",
        "osm_id": 10011703665,
        "order_hint": 29,
        "planned_time": "06:19",
        "trip_direction": "outbound"
      },
      "geometry": {
        "type": "Point",
        "coordinates": [
          30.4557646,
          50.4722917
        ]
      }
    },
    {
      "type": "Feature",
      "properties": {
        "name": "Спортивний комплекс",
        "name:uk": "Спортивний комплекс",
        "osm_id": 3270215073,
        "order_hint": 30,
        "planned_time": "06:22",
        "trip_direction": "inbound"
      },
      "geometry": {
        "type": "Point",
        "coordinates": [
          30.4557978,
          50.4723614
        ]
      }
    },
    {
      "type": "Feature",
      "properties": {
        "name": "Станція метро «Дорогожичі»",
        "name:uk": "Станція метро «Дорогожичі»",
        "osm_id": 1760209741,
        "order_hint": 31,
        "planned_time": "06:21",
        "trip_direction": "outbound"
      },
      "geometry": {
        "type": "Point",
        "coordinates": [
          30.4484787,
          50.4742801
        ]
      }
    },
    {
      "type": "Feature",
      "properties": {
        "name": "Станція метро «Дорогожичі»",
        "name:uk": "Станція метро «Дорогожичі»",
        "osm_id": 470873007,
        "order_hint": 32,
        "planned_time": "06:20",
        "trip_direction": "inbound"
      },
      "geometry": {
        "type": "Point",
        "coordinates": [
          30.4486002,
          50.4742446
        ]
      }
    },
    {
      "type": "Feature",
      "properties": {
        "name": "Вул. Олени Теліги",
        "name:uk": "Вул. Олени Теліги",
        "osm_id": 6377660540,
        "order_hint": 33,
        "planned_time": "06:23",
        "trip_direction": "outbound"
      },
      "geometry": {
        "type": "Point",
        "coordinates": [
          30.4508818,
          50.4776818
        ]
      }
    },
    {
      "type": "Feature",
      "properties": {
        "name": "Вул. Олени Теліги",
        "name:uk": "Вул. Олени Теліги",
        "osm_id": 8922437245,
        "order_hint": 34,
        "planned_time": "06:18",
        "trip_direction": "inbound"
      },
      "geometry": {
        "type": "Point",
        "coordinates": [
          30.4509616,
          50.4776423
        ]
      }
    },
    {
      "type": "Feature",
      "properties": {
        "name": "Парк відпочинку",
        "name:uk": "Парк відпочинку",
        "osm_id": 26260646,
        "order_hint": 35,
        "planned_time": "06:25",
        "trip_direction": "outbound"
      },
      "geometry": {
        "type": "Point",
        "coordinates": [
          30.4532159,
          50.4795968
        ]
      }
    },
    {
      "type": "Feature",
      "properties": {
        "name": "Парк відпочинку",
        "name:uk": "Парк відпочинку",
        "osm_id": 2778968910,
        "order_hint": 36,
        "planned_time": "06:16",
        "trip_direction": "inbound"
      },
      "geometry": {
        "type": "Point",
        "coordinates": [
          30.4532638,
          50.4795166
        ]
      }
    },
    {
      "type": "Feature",
      "properties": {
        "name": "АЗС",
        "name:uk": "АЗС",
        "osm_id": 374116369,
        "order_hint": 37,
        "planned_time": "06:26",
        "trip_direction": "outbound"
      },
      "geometry": {
        "type": "Point",
        "coordinates": [
          30.4611347,
          50.4823027
        ]
      }
    },
    {
      "type": "Feature",
      "properties": {
        "name": "АЗС",
        "name:uk": "АЗС",
        "osm_id": 1755141157,
        "order_hint": 38,
        "planned_time": "06:15",
        "trip_direction": "inbound"
      },
      "geometry": {
        "type": "Point",
        "coordinates": [
          30.4611953,
          50.4822031
        ]
      }
    },
    {
      "type": "Feature",
      "properties": {
        "name": "Лікарня ім. Павлова",
        "name:uk": "Лікарня ім. Павлова",
        "osm_id": 6377660539,
        "order_hint": 39,
        "planned_time": "06:28",
        "trip_direction": "outbound"
      },
      "geometry": {
        "type": "Point",
        "coordinates": [
          30.4646239,
          50.48295
        ]
      }
    },
    {
      "type": "Feature",
      "properties": {
        "name": "Лікарня ім. Павлова",
        "name:uk": "Лікарня ім. Павлова",
        "osm_id": 2778968914,
        "order_hint": 40,
        "planned_time": "06:13",
        "trip_direction": "inbound"
      },
      "geometry": {
        "type": "Point",
        "coordinates": [
          30.4646454,
          50.4828589
        ]
      }
    },
    {
      "type": "Feature",
      "properties": {
        "name": "Музей «Кирилівська церква»",
        "name:uk": "Музей «Кирилівська церква»",
        "osm_id": 6377660538,
        "order_hint": 41,
        "planned_time": "06:29",
        "trip_direction": "outbound"
      },
      "geometry": {
        "type": "Point",
        "coordinates": [
          30.4708698,
          50.484409
        ]
      }
    },
    {
      "type": "Feature",
      "properties": {
        "name": "Музей «Кирилівська церква»",
        "name:uk": "Музей «Кирилівська церква»",
        "osm_id": 1081704949,
        "order_hint": 42,
        "planned_time": "06:12",
        "trip_direction": "inbound"
      },
      "geometry": {
        "type": "Point",
        "coordinates": [
          30.4709295,
          50.4843366
        ]
      }
    },
    {
      "type": "Feature",
      "properties": {
        "name": "вулиця Новокостянтинівська",
        "name:uk": "вулиця Новокостянтинівська",
        "osm_id": 6377660537,
        "order_hint": 43,
        "planned_time": "06:31",
        "trip_direction": "outbound"
      },
      "geometry": {
        "type": "Point",
        "coordinates": [
          30.4798135,
          50.4880234
        ]
      }
    },
    {
      "type": "Feature",
      "properties": {
        "name": "вулиця Новокостянтинівська",
        "name:uk": "вулиця Новокостянтинівська",
        "osm_id": 2739407855,
        "order_hint": 44,
        "planned_time": "06:10",
        "trip_direction": "inbound"
      },
      "geometry": {
        "type": "Point",
        "coordinates": [
          30.4798456,
          50.4879716
        ]
      }
    },
    {
      "type": "Feature",
      "properties": {
        "name": "Завод «Маяк»",
        "name:uk": "Завод «Маяк»",
        "osm_id": 6377660535,
        "order_hint": 45,
        "planned_time": "06:32",
        "trip_direction": "outbound"
      },
      "geometry": {
        "type": "Point",
        "coordinates": [
          30.4907994,
          50.4891035
        ]
      }
    },
    {
      "type": "Feature",
      "properties": {
        "name": "Завод «Маяк»",
        "name:uk": "Завод «Маяк»",
        "osm_id": 2513644751,
        "order_hint": 46,
        "planned_time": "06:09",
        "trip_direction": "inbound"
      },
      "geometry": {
        "type": "Point",
        "coordinates": [
          30.4907985,
          50.4889843
        ]
      }
    },
    {
      "type": "Feature",
      "properties": {
        "name": "Завод \"Промзв'язок\"",
        "name:uk": "Завод \"Промзв'язок\"",
        "osm_id": 8922437244,
        "order_hint": 47,
        "planned_time": "06:33",
        "trip_direction": "outbound"
      },
      "geometry": {
        "type": "Point",
        "coordinates": [
          30.4954912,
          50.4890174
        ]
      }
    },
    {
      "type": "Feature",
      "properties": {
        "name": "Завод \"Промзв'язок\"",
        "name:uk": "Завод \"Промзв'язок\"",
        "osm_id": 2513644750,
        "order_hint": 48,
        "planned_time": "06:08",
        "trip_direction": "inbound"
      },
      "geometry": {
        "type": "Point",
        "coordinates": [
          30.4954898,
          50.4889443
        ]
      }
    },
    {
      "type": "Feature",
      "properties": {
        "name": "Станція метро \"Почайна\"",
        "name:uk": "Станція метро \"Почайна\"",
        "osm_id": 8922437243,
        "order_hint": 49,
        "planned_time": "06:34",
        "trip_direction": "outbound"
      },
      "geometry": {
        "type": "Point",
        "coordinates": [
          30.4976551,
          50.4874848
        ]
      }
    },
    {
      "type": "Feature",
      "properties": {
        "name": "Станція метро «Почайна»",
        "name:uk": "Станція метро «Почайна»",
        "osm_id": 749139415,
        "order_hint": 50,
        "planned_time": "06:07",
        "trip_direction": "inbound"
      },
      "geometry": {
        "type": "Point",
        "coordinates": [
          30.4974961,
          50.487482
        ]
      }
    },
    {
      "type": "Feature",
      "properties": {
        "name": "Станція метро «Оболонь»",
        "name:uk": "Станція метро «Оболонь»",
        "osm_id": 12496176669,
        "order_hint": 51,
        "planned_time": "06:39",
        "trip_direction": "outbound"
      },
      "geometry": {
        "type": "Point",
        "coordinates": [
          30.4986613,
          50.503027
        ]
      }
    },
    {
      "type": "Feature",
      "properties": {
        "name": "Станція метро «Оболонь»",
        "name:uk": "Станція метро «Оболонь»",
        "osm_id": 7666842704,
        "order_hint": 52,
        "planned_time": "06:02",
        "trip_direction": "inbound"
      },
      "geometry": {
        "type": "Point",
        "coordinates": [
          30.4987841,
          50.5030337
        ]
      }
    },
    {
      "type": "Feature",
      "properties": {
        "name": "4-й мікрорайон",
        "name:uk": "4-й мікрорайон",
        "osm_id": 6033266665,
        "order_hint": 53,
        "planned_time": "06:41",
        "trip_direction": "outbound"
      },
      "geometry": {
        "type": "Point",
        "coordinates": [
          30.4987187,
          50.5046636
        ]
      }
    },
    {
      "type": "Feature",
      "properties": {
        "name": "4-й мікрорайон",
        "name:uk": "4-й мікрорайон",
        "osm_id": 6033266664,
        "order_hint": 54,
        "planned_time": "06:00",
        "trip_direction": "inbound"
      },
      "geometry": {
        "type": "Point",
        "coordinates": [
          30.4988889,
          50.5046627
        ]
      }
    },
    {
      "type": "Feature",
      "properties": {
        "name": "Супермаркет",
        "name:uk": "Супермаркет",
        "osm_id": 6033259041,
        "order_hint": 55,
        "planned_time": "06:42",
        "trip_direction": "outbound"
      },
      "geometry": {
        "type": "Point",
        "coordinates": [
          30.4988724,
          50.5100194
        ]
      }
    },
    {
      "type": "Feature",
      "properties": {
        "name": "Супермаркет",
        "name:uk": "Супермаркет",
        "osm_id": 6033259040,
        "order_hint": 56,
        "planned_time": "05:59",
        "trip_direction": "inbound"
      },
      "geometry": {
        "type": "Point",
        "coordinates": [
          30.4990418,
          50.5100199
        ]
      }
    },
    {
      "type": "Feature",
      "properties": {
        "name": "Станція метро \"Мінська\"",
        "name:uk": "Станція метро \"Мінська\"",
        "osm_id": 6032575025,
        "order_hint": 57,
        "planned_time": "06:43",
        "trip_direction": "outbound"
      },
      "geometry": {
        "type": "Point",
        "coordinates": [
          30.499011,
          50.5145118
        ]
      }
    },
    {
      "type": "Feature",
      "properties": {
        "name": "Станція метро \"Мінська\"",
        "name:uk": "Станція метро \"Мінська\"",
        "osm_id": 6032575024,
        "order_hint": 58,
        "planned_time": "05:58",
        "trip_direction": "inbound"
      },
      "geometry": {
        "type": "Point",
        "coordinates": [
          30.4991155,
          50.51452
        ]
      }
    },
    {
      "type": "Feature",
      "properties": {
        "name": "Станція метро \"Героїв Дніпра\"",
        "name:uk": "Станція метро \"Героїв Дніпра\"",
        "osm_id": 6032753580,
        "order_hint": 59,
        "planned_time": "06:45",
        "trip_direction": "outbound"
      },
      "geometry": {
        "type": "Point",
        "coordinates": [
          30.5007817,
          50.5226582
        ]
      }
    },
    {
      "type": "Feature",
      "properties": {
        "name": "Станція метро \"Героїв Дніпра\"",
        "name:uk": "Станція метро \"Героїв Дніпра\"",
        "osm_id": 4375208284,
        "order_hint": 60,
        "planned_time": "05:56",
        "trip_direction": "inbound"
      },
      "geometry": {
        "type": "Point",
        "coordinates": [
          30.5008008,
          50.5225003
        ]
      }
    },
    {
      "type": "Feature",
      "properties": {
        "name": "Торговий комплекс",
        "name:uk": "Торговий комплекс",
        "osm_id": 6032712264,
        "order_hint": 61,
        "planned_time": "06:46",
        "trip_direction": "outbound"
      },
      "geometry": {
        "type": "Point",
        "coordinates": [
          30.507122,
          50.522585
        ]
      }
    },
    {
      "type": "Feature",
      "properties": {
        "name": "Торговий комплекс",
        "name:uk": "Торговий комплекс",
        "osm_id": 4384845640,
        "order_hint": 62,
        "planned_time": "05:55",
        "trip_direction": "inbound"
      },
      "geometry": {
        "type": "Point",
        "coordinates": [
          30.5071527,
          50.5224613
        ]
      }
    },
    {
      "type": "Feature",
      "properties": {
        "name": "Проспект Володимира Івасюка",
        "name:uk": "Проспект Володимира Івасюка",
        "osm_id": 6032686012,
        "order_hint": 63,
        "planned_time": "06:47",
        "trip_direction": "outbound"
      },
      "geometry": {
        "type": "Point",
        "coordinates": [
          30.511037,
          50.5225393
        ]
      }
    },
    {
      "type": "Feature",
      "properties": {
        "name": "Проспект Володимира Івасюка",
        "name:uk": "Проспект Володимира Івасюка",
        "osm_id": 4384844904,
        "order_hint": 64,
        "planned_time": "05:54",
        "trip_direction": "inbound"
      },
      "geometry": {
        "type": "Point",
        "coordinates": [
          30.5110505,
          50.5223617
        ]
      }
    },
    {
      "type": "Feature",
      "properties": {
        "name": "Податкова інспекція",
        "name:uk": "Податкова інспекція",
        "osm_id": 6030966153,
        "order_hint": 65,
        "planned_time": "06:49",
        "trip_direction": "outbound"
      },
      "geometry": {
        "type": "Point",
        "coordinates": [
          30.5155809,
          50.5243837
        ]
      }
    },
    {
      "type": "Feature",
      "properties": {
        "name": "Податкова інспекція",
        "name:uk": "Податкова інспекція",
        "osm_id": 4635157023,
        "order_hint": 66,
        "planned_time": "05:52",
        "trip_direction": "inbound"
      },
      "geometry": {
        "type": "Point",
        "coordinates": [
          30.5156835,
          50.5243505
        ]
      }
    },
    {
      "type": "Feature",
      "properties": {
        "name": "Вулиця Північна",
        "name:uk": "Вулиця Північна",
        "osm_id": 6030948568,
        "order_hint": 67,
        "planned_time": "06:51",
        "trip_direction": "outbound"
      },
      "geometry": {
        "type": "Point",
        "coordinates": [
          30.5165028,
          50.5267651
        ]
      }
    },
    {
      "type": "Feature",
      "properties": {
        "name": "Вулиця Північна",
        "name:uk": "Вул. Північна",
        "osm_id": 4635157020,
        "order_hint": 68,
        "planned_time": "05:50",
        "trip_direction": "inbound"
      },
      "geometry": {
        "type": "Point",
        "coordinates": [
          30.516568,
          50.5267654
        ]
      }
    }
  ],
  "schedule_note": "planned_time: illustrative cumulative schedule from distances · not official Kyivpastrans timetable"
}
