{
  "type": "FeatureCollection",
  "generator": "CityApp tools/fetch_kyiv_bus_routes.py + Overpass API",
  "copyright": "Data © OpenStreetMap contributors, ODbL",
  "features": [
    {
      "type": "Feature",
      "properties": {
        "name": "Контрактова площа",
        "name:uk": "Контрактова площа",
        "osm_id": 7401026219,
        "order_hint": 1,
        "planned_time": "06:15",
        "trip_direction": "outbound"
      },
      "geometry": {
        "type": "Point",
        "coordinates": [
          30.518901,
          50.4651758
        ]
      }
    },
    {
      "type": "Feature",
      "properties": {
        "name": "Контрактова площа",
        "name:uk": "Контрактова площа",
        "osm_id": 1182815437,
        "order_hint": 2,
        "planned_time": "06:58",
        "trip_direction": "inbound"
      },
      "geometry": {
        "type": "Point",
        "coordinates": [
          30.5188889,
          50.4652004
        ]
      }
    },
    {
      "type": "Feature",
      "properties": {
        "name": "ст. м. «Контрактова площа»",
        "name:uk": "ст. м. «Контрактова площа»",
        "osm_id": 12090355830,
        "order_hint": 3,
        "planned_time": "06:17",
        "trip_direction": "outbound"
      },
      "geometry": {
        "type": "Point",
        "coordinates": [
          30.5167569,
          50.4642649
        ]
      }
    },
    {
      "type": "Feature",
      "properties": {
        "name": "Ст.метро \"Контрактова площа\"",
        "name:uk": "Ст.метро \"Контрактова площа\"",
        "osm_id": 11813830019,
        "order_hint": 4,
        "planned_time": "06:56",
        "trip_direction": "inbound"
      },
      "geometry": {
        "type": "Point",
        "coordinates": [
          30.5166658,
          50.4643466
        ]
      }
    },
    {
      "type": "Feature",
      "properties": {
        "name": "вул. Покровська",
        "name:uk": "вул. Покровська",
        "osm_id": 12090366900,
        "order_hint": 5,
        "planned_time": "06:24",
        "trip_direction": "outbound"
      },
      "geometry": {
        "type": "Point",
        "coordinates": [
          30.5189512,
          50.4612164
        ]
      }
    },
    {
      "type": "Feature",
      "properties": {
        "name": "вул. Покровська",
        "name:uk": "вул. Покровська",
        "osm_id": 11813830002,
        "order_hint": 6,
        "planned_time": "06:49",
        "trip_direction": "inbound"
      },
      "geometry": {
        "type": "Point",
        "coordinates": [
          30.5189316,
          50.4611761
        ]
      }
    },
    {
      "type": "Feature",
      "properties": {
        "name": "вул. Петра Сагайдачного",
        "name:uk": "вул. Петра Сагайдачного",
        "osm_id": 12090366901,
        "order_hint": 7,
        "planned_time": "06:26",
        "trip_direction": "outbound"
      },
      "geometry": {
        "type": "Point",
        "coordinates": [
          30.5220546,
          50.4608731
        ]
      }
    },
    {
      "type": "Feature",
      "properties": {
        "name": "вул. Петра Сагайдачного",
        "name:uk": "вул. Петра Сагайдачного",
        "osm_id": 11813815410,
        "order_hint": 8,
        "planned_time": "06:47",
        "trip_direction": "inbound"
      },
      "geometry": {
        "type": "Point",
        "coordinates": [
          30.5220165,
          50.4608052
        ]
      }
    },
    {
      "type": "Feature",
      "properties": {
        "name": "ст. м. Поштова площа",
        "name:uk": "ст. м. Поштова площа",
        "osm_id": 12090366902,
        "order_hint": 9,
        "planned_time": "06:29",
        "trip_direction": "outbound"
      },
      "geometry": {
        "type": "Point",
        "coordinates": [
          30.5249326,
          50.4589966
        ]
      }
    },
    {
      "type": "Feature",
      "properties": {
        "name": "ст. м. Поштова площа",
        "name:uk": "ст. м. Поштова площа",
        "osm_id": 10271019612,
        "order_hint": 10,
        "planned_time": "06:44",
        "trip_direction": "inbound"
      },
      "geometry": {
        "type": "Point",
        "coordinates": [
          30.5247885,
          50.4589273
        ]
      }
    },
    {
      "type": "Feature",
      "properties": {
        "name": "Готель \"Хрещатик\"",
        "name:uk": "Готель \"Хрещатик\"",
        "osm_id": 12090370000,
        "order_hint": 11,
        "planned_time": "06:31",
        "trip_direction": "outbound"
      },
      "geometry": {
        "type": "Point",
        "coordinates": [
          30.5261014,
          50.4515942
        ]
      }
    },
    {
      "type": "Feature",
      "properties": {
        "name": "Готель \"Хрещатик\"",
        "name:uk": "Готель \"Хрещатик\"",
        "osm_id": 12090369999,
        "order_hint": 12,
        "planned_time": "06:42",
        "trip_direction": "inbound"
      },
      "geometry": {
        "type": "Point",
        "coordinates": [
          30.5259859,
          50.4516345
        ]
      }
    },
    {
      "type": "Feature",
      "properties": {
        "name": "Майдан Незалежності",
        "name:uk": "Майдан Незалежності",
        "osm_id": 10294245835,
        "order_hint": 13,
        "planned_time": "06:33",
        "trip_direction": "outbound"
      },
      "geometry": {
        "type": "Point",
        "coordinates": [
          30.5232824,
          50.4495302
        ]
      }
    },
    {
      "type": "Feature",
      "properties": {
        "name": "Майдан Незалежності",
        "name:uk": "Майдан Незалежності",
        "osm_id": 7130395892,
        "order_hint": 14,
        "planned_time": "06:40",
        "trip_direction": "inbound"
      },
      "geometry": {
        "type": "Point",
        "coordinates": [
          30.5231649,
          50.4495623
        ]
      }
    },
    {
      "type": "Feature",
      "properties": {
        "name": "Станція метро “Хрещатик”",
        "name:uk": "Станція метро “Хрещатик”",
        "osm_id": 6017989721,
        "order_hint": 15,
        "planned_time": "06:34",
        "trip_direction": "outbound"
      },
      "geometry": {
        "type": "Point",
        "coordinates": [
          30.5218357,
          50.4472058
        ]
      }
    },
    {
      "type": "Feature",
      "properties": {
        "name": "Станція метро “Хрещатик”",
        "name:uk": "Станція метро “Хрещатик”",
        "osm_id": 6017989732,
        "order_hint": 16,
        "planned_time": "06:39",
        "trip_direction": "inbound"
      },
      "geometry": {
        "type": "Point",
        "coordinates": [
          30.521711,
          50.4472113
        ]
      }
    },
    {
      "type": "Feature",
      "properties": {
        "name": "Центральний універмаг",
        "name:uk": "Центральний універмаг",
        "osm_id": 6017989728,
        "order_hint": 17,
        "planned_time": "06:35",
        "trip_direction": "outbound"
      },
      "geometry": {
        "type": "Point",
        "coordinates": [
          30.520631,
          50.4435857
        ]
      }
    },
    {
      "type": "Feature",
      "properties": {
        "name": "Центральний універмаг",
        "name:uk": "Центральний універмаг",
        "osm_id": 1813825078,
        "order_hint": 18,
        "planned_time": "06:38",
        "trip_direction": "inbound"
      },
      "geometry": {
        "type": "Point",
        "coordinates": [
          30.5204761,
          50.4436094
        ]
      }
    },
    {
      "type": "Feature",
      "properties": {
        "name": "Бессарабська площа",
        "name:uk": "Бессарабська площа",
        "osm_id": 6486596207,
        "order_hint": 19,
        "planned_time": "06:37",
        "trip_direction": "outbound"
      },
      "geometry": {
        "type": "Point",
        "coordinates": [
          30.5199727,
          50.441754
        ]
      }
    },
    {
      "type": "Feature",
      "properties": {
        "name": "Бессарабська площа",
        "name:uk": "Бессарабська площа",
        "osm_id": 4419254890,
        "order_hint": 20,
        "planned_time": "06:36",
        "trip_direction": "inbound"
      },
      "geometry": {
        "type": "Point",
        "coordinates": [
          30.5198363,
          50.4417761
        ]
      }
    },
    {
      "type": "Feature",
      "properties": {
        "name": "вул. Павла Скоропадського",
        "name:uk": "вул. Павла Скоропадського",
        "osm_id": 11020856074,
        "order_hint": 21,
        "planned_time": "06:38",
        "trip_direction": "outbound"
      },
      "geometry": {
        "type": "Point",
        "coordinates": [
          30.521201,
          50.4407733
        ]
      }
    },
    {
      "type": "Feature",
      "properties": {
        "name": "вул. Павла Скоропадського",
        "name:uk": "вул. Павла Скоропадського",
        "osm_id": 10996246798,
        "order_hint": 22,
        "planned_time": "06:35",
        "trip_direction": "inbound"
      },
      "geometry": {
        "type": "Point",
        "coordinates": [
          30.5212024,
          50.440715
        ]
      }
    },
    {
      "type": "Feature",
      "properties": {
        "name": "Вул. Мечникова",
        "name:uk": "Вул. Мечникова",
        "osm_id": 12090377075,
        "order_hint": 23,
        "planned_time": "06:39",
        "trip_direction": "outbound"
      },
      "geometry": {
        "type": "Point",
        "coordinates": [
          30.5262083,
          50.4384661
        ]
      }
    },
    {
      "type": "Feature",
      "properties": {
        "name": "Вул. Мечникова",
        "name:uk": "Вул. Мечникова",
        "osm_id": 2957522631,
        "order_hint": 24,
        "planned_time": "06:34",
        "trip_direction": "inbound"
      },
      "geometry": {
        "type": "Point",
        "coordinates": [
          30.5260832,
          50.4383944
        ]
      }
    },
    {
      "type": "Feature",
      "properties": {
        "name": "ст. м. Кловська",
        "name:uk": "ст. м. Кловська",
        "osm_id": 12090377076,
        "order_hint": 25,
        "planned_time": "06:41",
        "trip_direction": "outbound"
      },
      "geometry": {
        "type": "Point",
        "coordinates": [
          30.5323077,
          50.4371894
        ]
      }
    },
    {
      "type": "Feature",
      "properties": {
        "name": "ст. м. Кловська",
        "name:uk": "ст. м. Кловська",
        "osm_id": 9150370542,
        "order_hint": 26,
        "planned_time": "06:32",
        "trip_direction": "inbound"
      },
      "geometry": {
        "type": "Point",
        "coordinates": [
          30.53236,
          50.4371056
        ]
      }
    },
    {
      "type": "Feature",
      "properties": {
        "name": "Кловський узвіз",
        "name:uk": "Кловський узвіз",
        "osm_id": 12090377078,
        "order_hint": 27,
        "planned_time": "06:42",
        "trip_direction": "outbound"
      },
      "geometry": {
        "type": "Point",
        "coordinates": [
          30.537205,
          50.4384387
        ]
      }
    },
    {
      "type": "Feature",
      "properties": {
        "name": "Кловський узвіз",
        "name:uk": "Кловський узвіз",
        "osm_id": 12090377077,
        "order_hint": 28,
        "planned_time": "06:31",
        "trip_direction": "inbound"
      },
      "geometry": {
        "type": "Point",
        "coordinates": [
          30.5372521,
          50.4383819
        ]
      }
    },
    {
      "type": "Feature",
      "properties": {
        "name": "Юний технік",
        "name:uk": "Юний технік",
        "osm_id": 12090396070,
        "order_hint": 29,
        "planned_time": "06:43",
        "trip_direction": "outbound"
      },
      "geometry": {
        "type": "Point",
        "coordinates": [
          30.5384593,
          50.4412558
        ]
      }
    },
    {
      "type": "Feature",
      "properties": {
        "name": "Юний технік",
        "name:uk": "Юний технік",
        "osm_id": 11010059005,
        "order_hint": 30,
        "planned_time": "06:30",
        "trip_direction": "inbound"
      },
      "geometry": {
        "type": "Point",
        "coordinates": [
          30.5386235,
          50.4412326
        ]
      }
    },
    {
      "type": "Feature",
      "properties": {
        "name": "Кріпосний провулок",
        "name:uk": "Кріпосний провулок",
        "osm_id": 3534376707,
        "order_hint": 31,
        "planned_time": "06:45",
        "trip_direction": "outbound"
      },
      "geometry": {
        "type": "Point",
        "coordinates": [
          30.5390837,
          50.4447553
        ]
      }
    },
    {
      "type": "Feature",
      "properties": {
        "name": "Кріпосний провулок",
        "name:uk": "Кріпосний провулок",
        "osm_id": 1456227566,
        "order_hint": 32,
        "planned_time": "06:28",
        "trip_direction": "inbound"
      },
      "geometry": {
        "type": "Point",
        "coordinates": [
          30.5391543,
          50.4447065
        ]
      }
    },
    {
      "type": "Feature",
      "properties": {
        "name": "Стадіон \"Арсенал\"",
        "name:uk": "Стадіон \"Арсенал\"",
        "osm_id": 500876935,
        "order_hint": 33,
        "planned_time": "06:47",
        "trip_direction": "outbound"
      },
      "geometry": {
        "type": "Point",
        "coordinates": [
          30.5421114,
          50.4441694
        ]
      }
    },
    {
      "type": "Feature",
      "properties": {
        "name": "Стадіон \"Арсенал\"",
        "name:uk": "Стадіон \"Арсенал\"",
        "osm_id": 7141724964,
        "order_hint": 34,
        "planned_time": "06:26",
        "trip_direction": "inbound"
      },
      "geometry": {
        "type": "Point",
        "coordinates": [
          30.5420667,
          50.4440797
        ]
      }
    },
    {
      "type": "Feature",
      "properties": {
        "name": "Станція метро «Арсенальна»",
        "name:uk": "Станція метро «Арсенальна»",
        "osm_id": 4762836852,
        "order_hint": 35,
        "planned_time": "06:49",
        "trip_direction": "outbound"
      },
      "geometry": {
        "type": "Point",
        "coordinates": [
          30.5448591,
          50.4426168
        ]
      }
    },
    {
      "type": "Feature",
      "properties": {
        "name": "Станція метро «Арсенальна»",
        "name:uk": "Станція метро «Арсенальна»",
        "osm_id": 566565415,
        "order_hint": 36,
        "planned_time": "06:24",
        "trip_direction": "inbound"
      },
      "geometry": {
        "type": "Point",
        "coordinates": [
          30.5447531,
          50.4426265
        ]
      }
    },
    {
      "type": "Feature",
      "properties": {
        "name": "Завод \"Арсенал\"",
        "name:uk": "Завод \"Арсенал\"",
        "osm_id": 12090396075,
        "order_hint": 37,
        "planned_time": "06:50",
        "trip_direction": "outbound"
      },
      "geometry": {
        "type": "Point",
        "coordinates": [
          30.544728,
          50.4390069
        ]
      }
    },
    {
      "type": "Feature",
      "properties": {
        "name": "Завод \"Арсенал\"",
        "name:uk": "Завод \"Арсенал\"",
        "osm_id": 12090396076,
        "order_hint": 38,
        "planned_time": "06:23",
        "trip_direction": "inbound"
      },
      "geometry": {
        "type": "Point",
        "coordinates": [
          30.5446388,
          50.4389883
        ]
      }
    },
    {
      "type": "Feature",
      "properties": {
        "name": "Центр надання адміністративних послуг Печерського району",
        "name:uk": "Центр надання адміністративних послуг Печерського району",
        "osm_id": 12090396077,
        "order_hint": 39,
        "planned_time": "06:52",
        "trip_direction": "outbound"
      },
      "geometry": {
        "type": "Point",
        "coordinates": [
          30.5448682,
          50.4361972
        ]
      }
    },
    {
      "type": "Feature",
      "properties": {
        "name": "Центр надання адміністративних послуг Печерського району",
        "name:uk": "Центр надання адміністративних послуг Печерського району",
        "osm_id": 567340568,
        "order_hint": 40,
        "planned_time": "06:21",
        "trip_direction": "inbound"
      },
      "geometry": {
        "type": "Point",
        "coordinates": [
          30.544766,
          50.4361854
        ]
      }
    },
    {
      "type": "Feature",
      "properties": {
        "name": "Вулиця Олександра Копиленка",
        "name:uk": "Вулиця Олександра Копиленка",
        "osm_id": 12090396078,
        "order_hint": 41,
        "planned_time": "06:53",
        "trip_direction": "outbound"
      },
      "geometry": {
        "type": "Point",
        "coordinates": [
          30.5442665,
          50.4317813
        ]
      }
    },
    {
      "type": "Feature",
      "properties": {
        "name": "Вулиця Олександра Копиленка",
        "name:uk": "Вулиця Олександра Копиленка",
        "osm_id": 3815906892,
        "order_hint": 42,
        "planned_time": "06:20",
        "trip_direction": "inbound"
      },
      "geometry": {
        "type": "Point",
        "coordinates": [
          30.5441645,
          50.4318251
        ]
      }
    },
    {
      "type": "Feature",
      "properties": {
        "name": "Вулиця Генерала Алмазова",
        "name:uk": "Вулиця Генерала Алмазова",
        "osm_id": 12090396079,
        "order_hint": 43,
        "planned_time": "06:55",
        "trip_direction": "outbound"
      },
      "geometry": {
        "type": "Point",
        "coordinates": [
          30.5427422,
          50.4306574
        ]
      }
    },
    {
      "type": "Feature",
      "properties": {
        "name": "Вулиця Генерала Алмазова",
        "name:uk": "Вулиця Генерала Алмазова",
        "osm_id": 538249458,
        "order_hint": 44,
        "planned_time": "06:18",
        "trip_direction": "inbound"
      },
      "geometry": {
        "type": "Point",
        "coordinates": [
          30.5426374,
          50.4307025
        ]
      }
    },
    {
      "type": "Feature",
      "properties": {
        "name": "Арсенальна вулиця",
        "name:uk": "Арсенальна вулиця",
        "osm_id": 12090396080,
        "order_hint": 45,
        "planned_time": "06:56",
        "trip_direction": "outbound"
      },
      "geometry": {
        "type": "Point",
        "coordinates": [
          30.5398974,
          50.4286591
        ]
      }
    },
    {
      "type": "Feature",
      "properties": {
        "name": "Арсенальна вулиця",
        "name:uk": "Арсенальна вулиця",
        "osm_id": 538249461,
        "order_hint": 46,
        "planned_time": "06:17",
        "trip_direction": "inbound"
      },
      "geometry": {
        "type": "Point",
        "coordinates": [
          30.539839,
          50.42869
        ]
      }
    },
    {
      "type": "Feature",
      "properties": {
        "name": "площа Лесі Українки",
        "name:uk": "площа Лесі Українки",
        "osm_id": 9251535203,
        "order_hint": 47,
        "planned_time": "06:57",
        "trip_direction": "outbound"
      },
      "geometry": {
        "type": "Point",
        "coordinates": [
          30.5395612,
          50.4269532
        ]
      }
    },
    {
      "type": "Feature",
      "properties": {
        "name": "площа Лесі Українки",
        "name:uk": "площа Лесі Українки",
        "osm_id": 444344241,
        "order_hint": 48,
        "planned_time": "06:16",
        "trip_direction": "inbound"
      },
      "geometry": {
        "type": "Point",
        "coordinates": [
          30.5394138,
          50.4269315
        ]
      }
    },
    {
      "type": "Feature",
      "properties": {
        "name": "Кругла Башта",
        "name:uk": "Кругла Башта",
        "osm_id": 4762240175,
        "order_hint": 49,
        "planned_time": "06:58",
        "trip_direction": "outbound"
      },
      "geometry": {
        "type": "Point",
        "coordinates": [
          30.5422825,
          50.4244998
        ]
      }
    },
    {
      "type": "Feature",
      "properties": {
        "name": "Кругла Башта",
        "name:uk": "Кругла Башта",
        "osm_id": 5487222324,
        "order_hint": 50,
        "planned_time": "06:15",
        "trip_direction": "inbound"
      },
      "geometry": {
        "type": "Point",
        "coordinates": [
          30.5421947,
          50.4244552
        ]
      }
    },
    {
      "type": "Feature",
      "properties": {
        "name": "Вул. Джона Маккейна",
        "name:uk": "Вул. Джона Маккейна",
        "osm_id": 9251535204,
        "order_hint": 51,
        "planned_time": "06:59",
        "trip_direction": "outbound"
      },
      "geometry": {
        "type": "Point",
        "coordinates": [
          30.5453132,
          50.421632
        ]
      }
    },
    {
      "type": "Feature",
      "properties": {
        "name": "Вул. Джона Маккейна",
        "name:uk": "Вул. Джона Маккейна",
        "osm_id": 5487222323,
        "order_hint": 52,
        "planned_time": "06:14",
        "trip_direction": "inbound"
      },
      "geometry": {
        "type": "Point",
        "coordinates": [
          30.5451899,
          50.4215509
        ]
      }
    },
    {
      "type": "Feature",
      "properties": {
        "name": "Вул. Бастіонна",
        "name:uk": "Вул. Бастіонна",
        "osm_id": 12090399586,
        "order_hint": 53,
        "planned_time": "07:01",
        "trip_direction": "outbound"
      },
      "geometry": {
        "type": "Point",
        "coordinates": [
          30.550277,
          50.4187693
        ]
      }
    },
    {
      "type": "Feature",
      "properties": {
        "name": "Вул. Бастіонна",
        "name:uk": "Вул. Бастіонна",
        "osm_id": 7666743899,
        "order_hint": 54,
        "planned_time": "06:12",
        "trip_direction": "inbound"
      },
      "geometry": {
        "type": "Point",
        "coordinates": [
          30.5502378,
          50.4186772
        ]
      }
    },
    {
      "type": "Feature",
      "properties": {
        "name": "Вул. Болсуновська",
        "name:uk": "Вул. Болсуновська",
        "osm_id": 6017989739,
        "order_hint": 55,
        "planned_time": "07:02",
        "trip_direction": "outbound"
      },
      "geometry": {
        "type": "Point",
        "coordinates": [
          30.5537318,
          50.417567
        ]
      }
    },
    {
      "type": "Feature",
      "properties": {
        "name": "Вул. Болсуновська",
        "name:uk": "Вул. Болсуновська",
        "osm_id": 571490308,
        "order_hint": 56,
        "planned_time": "06:11",
        "trip_direction": "inbound"
      },
      "geometry": {
        "type": "Point",
        "coordinates": [
          30.5535868,
          50.4174916
        ]
      }
    },
    {
      "type": "Feature",
      "properties": {
        "name": "Ботанічний сад",
        "name:uk": "Ботанічний сад",
        "osm_id": 12090350907,
        "order_hint": 57,
        "planned_time": "07:03",
        "trip_direction": "outbound"
      },
      "geometry": {
        "type": "Point",
        "coordinates": [
          30.5563693,
          50.4153383
        ]
      }
    },
    {
      "type": "Feature",
      "properties": {
        "name": "Ботанічний сад",
        "name:uk": "Ботанічний сад",
        "osm_id": 2238774667,
        "order_hint": 58,
        "planned_time": "06:10",
        "trip_direction": "inbound"
      },
      "geometry": {
        "type": "Point",
        "coordinates": [
          30.5562416,
          50.4153524
        ]
      }
    }
  ],
  "schedule_note": "planned_time: illustrative cumulative schedule from distances · not official Kyivpastrans timetable"
}
